{"type":"FeatureCollection","features":[{"type":"Feature","properties":{"year":2021,"years_since":5,"boost":0.95,"name":"fire2021"},"geometry":{"type":"Polygon","coordinates":[[[-106.73227,39.47475],[-106.73219,39.47422],[-106.73254,39.47419],[-106.73242,39.47339],[-106.73207,39.47342],[-106.73195,39.47262],[-106.7323,39.47259],[-106.73226,39.47232],[-106.73191,39.47235],[-106.73187,39.47209],[-106.73012,39.47224],[-106.73016,39.4725],[-106.72981,39.47253],[-106.72977,39.47227],[-106.72942,39.4723],[-106.7295,39.47283],[-106.72985,39.4728],[-106.73009,39.4744],[-106.73114,39.47431],[-106.73122,39.47484],[-106.73227,39.47475]]]}},{"type":"Feature","properties":{"year":2021,"years_since":5,"boost":0.95,"name":"fire2021"},"geometry":{"type":"Polygon","coordinates":[[[-106.77204,39.46835],[-106.772,39.46808],[-106.77235,39.46805],[-106.77227,39.46752],[-106.77192,39.46755],[-106.77184,39.46702],[-106.77149,39.46705],[-106.77165,39.46811],[-106.7713,39.46814],[-106.77134,39.46841],[-106.77204,39.46835]]]}},{"type":"Feature","properties":{"year":2021,"years_since":5,"boost":0.95,"name":"fire2021"},"geometry":{"type":"Polygon","coordinates":[[[-106.77371,39.46766],[-106.77363,39.46713],[-106.77503,39.46701],[-106.77495,39.46648],[-106.77355,39.4666],[-106.77359,39.46687],[-106.77324,39.4669],[-106.77328,39.46716],[-106.77293,39.46719],[-106.77336,39.46769],[-106.77371,39.46766]]]}},{"type":"Feature","properties":{"year":2021,"years_since":5,"boost":0.95,"name":"fire2021"},"geometry":{"type":"Polygon","coordinates":[[[-106.74745,39.46967],[-106.74737,39.46913],[-106.74702,39.46916],[-106.74659,39.46866],[-106.74589,39.46872],[-106.74585,39.46846],[-106.7455,39.46849],[-106.74554,39.46875],[-106.7448,39.46855],[-106.74484,39.46881],[-106.74449,39.46884],[-106.74453,39.46911],[-106.74523,39.46905],[-106.74527,39.46931],[-106.74667,39.46919],[-106.74675,39.46973],[-106.74745,39.46967]]]}},{"type":"Feature","properties":{"year":2021,"years_since":5,"boost":0.95,"name":"fire2021"},"geometry":{"type":"Polygon","coordinates":[[[-106.77557,39.46589],[-106.77549,39.46535],[-106.77514,39.46538],[-106.7751,39.46512],[-106.77545,39.46509],[-106.77541,39.46482],[-106.77436,39.46491],[-106.77432,39.46465],[-106.77467,39.46462],[-106.77463,39.46435],[-106.77393,39.46441],[-106.77397,39.46468],[-106.77323,39.46447],[-106.77331,39.465],[-106.77475,39.46515],[-106.77479,39.46541],[-106.77374,39.4655],[-106.77378,39.46577],[-106.77448,39.46571],[-106.77452,39.46598],[-106.77557,39.46589]]]}},{"type":"Feature","properties":{"year":2021,"years_since":5,"boost":0.95,"name":"fire2021"},"geometry":{"type":"Polygon","coordinates":[[[-106.73284,39.47147],[-106.73276,39.47093],[-106.73311,39.4709],[-106.73307,39.47064],[-106.73342,39.47061],[-106.73338,39.47034],[-106.73408,39.47028],[-106.73392,39.46922],[-106.73326,39.46954],[-106.73334,39.47008],[-106.73299,39.47011],[-106.73295,39.46984],[-106.73225,39.4699],[-106.73217,39.46937],[-106.73322,39.46928],[-106.73314,39.46875],[-106.73174,39.46887],[-106.73166,39.46833],[-106.73096,39.46839],[-106.73092,39.46813],[-106.73127,39.4681],[-106.73123,39.46783],[-106.72918,39.46828],[-106.72922,39.46854],[-106.72957,39.46851],[-106.72968,39.46931],[-106.73042,39.46952],[-106.73046,39.46978],[-106.73011,39.46981],[-106.73015,39.47008],[-106.7305,39.47005],[-106.73058,39.47058],[-106.73093,39.47055],[-106.73105,39.47135],[-106.73175,39.47129],[-106.73179,39.47156],[-106.73284,39.47147]]]}},{"type":"Feature","properties":{"year":2021,"years_since":5,"boost":0.95,"name":"fire2021"},"geometry":{"type":"Polygon","coordinates":[[[-106.77187,39.46486],[-106.77183,39.46459],[-106.77253,39.46453],[-106.77245,39.464],[-106.7721,39.46403],[-106.77202,39.4635],[-106.77136,39.46382],[-106.7714,39.46409],[-106.77105,39.46412],[-106.77101,39.46386],[-106.76997,39.46395],[-106.77005,39.46448],[-106.77078,39.46468],[-106.77082,39.46495],[-106.77187,39.46486]]]}},{"type":"Feature","properties":{"year":2021,"years_since":5,"boost":0.95,"name":"fire2021"},"geometry":{"type":"Polygon","coordinates":[[[-106.77521,39.46349],[-106.77517,39.46323],[-106.77482,39.46326],[-106.77474,39.46272],[-106.77404,39.46278],[-106.77408,39.46305],[-106.77443,39.46302],[-106.77451,39.46355],[-106.77521,39.46349]]]}},{"type":"Feature","properties":{"year":2021,"years_since":5,"boost":0.95,"name":"fire2021"},"geometry":{"type":"Polygon","coordinates":[[[-106.75093,39.46452],[-106.75081,39.46372],[-106.75046,39.46375],[-106.7505,39.46401],[-106.7498,39.46407],[-106.74984,39.46434],[-106.75054,39.46428],[-106.75058,39.46455],[-106.75093,39.46452]]]}},{"type":"Feature","properties":{"year":2021,"years_since":5,"boost":0.95,"name":"fire2021"},"geometry":{"type":"Polygon","coordinates":[[[-106.76762,39.46011],[-106.76719,39.45961],[-106.76649,39.45967],[-106.76692,39.46017],[-106.76762,39.46011]]]}},{"type":"Feature","properties":{"year":2021,"years_since":5,"boost":0.95,"name":"fire2021"},"geometry":{"type":"Polygon","coordinates":[[[-106.72402,39.45983],[-106.72394,39.4593],[-106.72359,39.45933],[-106.72355,39.45907],[-106.72285,39.45913],[-106.72328,39.45963],[-106.72402,39.45983]]]}},{"type":"Feature","properties":{"year":2021,"years_since":5,"boost":0.95,"name":"fire2021"},"geometry":{"type":"Polygon","coordinates":[[[-106.70314,39.45274],[-106.7031,39.45248],[-106.70236,39.45227],[-106.70228,39.45174],[-106.70193,39.45177],[-106.70189,39.4515],[-106.70084,39.45159],[-106.70076,39.45106],[-106.69971,39.45115],[-106.69979,39.45168],[-106.70049,39.45162],[-106.70092,39.45212],[-106.70166,39.45233],[-106.70174,39.45286],[-106.70209,39.45283],[-106.70205,39.45257],[-106.7024,39.45254],[-106.70244,39.4528],[-106.70314,39.45274]]]}},{"type":"Feature","properties":{"year":2021,"years_since":5,"boost":0.95,"name":"fire2021"},"geometry":{"type":"Polygon","coordinates":[[[-106.70814,39.45069],[-106.7081,39.45043],[-106.70845,39.4504],[-106.70841,39.45013],[-106.70768,39.44993],[-106.70772,39.45019],[-106.70737,39.45022],[-106.70779,39.45072],[-106.70814,39.45069]]]}},{"type":"Feature","properties":{"year":2021,"years_since":5,"boost":0.95,"name":"fire2021"},"geometry":{"type":"Polygon","coordinates":[[[-106.69894,39.45068],[-106.69808,39.44967],[-106.69664,39.44953],[-106.69656,39.449],[-106.69551,39.44909],[-106.69547,39.44882],[-106.69477,39.44888],[-106.69481,39.44915],[-106.69555,39.44935],[-106.69559,39.44962],[-106.69629,39.44956],[-106.69672,39.45006],[-106.69742,39.45],[-106.6975,39.45053],[-106.69894,39.45068]]]}},{"type":"Feature","properties":{"year":2021,"years_since":5,"boost":0.95,"name":"fire2021"},"geometry":{"type":"Polygon","coordinates":[[[-106.69962,39.44577],[-106.69958,39.4455],[-106.69993,39.44547],[-106.69989,39.44521],[-106.69954,39.44524],[-106.6995,39.44497],[-106.69877,39.44477],[-106.69884,39.4453],[-106.69919,39.44527],[-106.69927,39.4458],[-106.69962,39.44577]]]}},{"type":"Feature","properties":{"year":2021,"years_since":5,"boost":0.95,"name":"fire2021"},"geometry":{"type":"Polygon","coordinates":[[[-106.68535,39.43784],[-106.68527,39.43731],[-106.68457,39.43737],[-106.68449,39.43683],[-106.68379,39.43689],[-106.68375,39.43663],[-106.6834,39.43666],[-106.68352,39.43746],[-106.68387,39.43743],[-106.68391,39.43769],[-106.68535,39.43784]]]}},{"type":"Feature","properties":{"year":2021,"years_since":5,"boost":0.95,"name":"fire2021"},"geometry":{"type":"Polygon","coordinates":[[[-106.68752,39.43819],[-106.68744,39.43766],[-106.68671,39.43745],[-106.68663,39.43692],[-106.68628,39.43695],[-106.68585,39.43645],[-106.68515,39.43651],[-106.68499,39.43544],[-106.68569,39.43538],[-106.68553,39.43432],[-106.68619,39.43399],[-106.68611,39.43346],[-106.68646,39.43343],[-106.68638,39.4329],[-106.68534,39.43299],[-106.68541,39.43352],[-106.68506,39.43355],[-106.68518,39.43435],[-106.68448,39.43441],[-106.68464,39.43547],[-106.68394,39.43553],[-106.68406,39.43633],[-106.68441,39.4363],[-106.68449,39.43683],[-106.68523,39.43704],[-106.68527,39.43731],[-106.68562,39.43728],[-106.68566,39.43754],[-106.68601,39.43751],[-106.68605,39.43778],[-106.68674,39.43772],[-106.68682,39.43825],[-106.68752,39.43819]]]}},{"type":"Feature","properties":{"year":2021,"years_since":5,"boost":0.95,"name":"fire2021"},"geometry":{"type":"Polygon","coordinates":[[[-106.69434,39.43168],[-106.6943,39.43141],[-106.69465,39.43138],[-106.69461,39.43112],[-106.69357,39.43121],[-106.69361,39.43147],[-106.69291,39.43153],[-106.69248,39.43103],[-106.69182,39.43136],[-106.69186,39.43162],[-106.69256,39.43156],[-106.6926,39.43183],[-106.69434,39.43168]]]}},{"type":"Feature","properties":{"year":2021,"years_since":5,"boost":0.95,"name":"fire2021"},"geometry":{"type":"Polygon","coordinates":[[[-106.68778,39.43278],[-106.68774,39.43251],[-106.68809,39.43248],[-106.68805,39.43222],[-106.68945,39.4321],[-106.68941,39.43183],[-106.68976,39.4318],[-106.68968,39.43127],[-106.68898,39.43133],[-106.68894,39.43106],[-106.68859,39.43109],[-106.68863,39.43136],[-106.68828,39.43139],[-106.68832,39.43166],[-106.68727,39.43175],[-106.68735,39.43228],[-106.6863,39.43237],[-106.68638,39.4329],[-106.68778,39.43278]]]}},{"type":"Feature","properties":{"year":2021,"years_since":5,"boost":0.95,"name":"fire2021"},"geometry":{"type":"Polygon","coordinates":[[[-106.68727,39.43175],[-106.68724,39.43148],[-106.68654,39.43154],[-106.68646,39.43101],[-106.6858,39.43133],[-106.68623,39.43184],[-106.68727,39.43175]]]}},{"type":"Feature","properties":{"year":2021,"years_since":5,"boost":0.95,"name":"fire2021"},"geometry":{"type":"Polygon","coordinates":[[[-106.76096,39.47712],[-106.76092,39.47685],[-106.76127,39.47682],[-106.76119,39.47629],[-106.76185,39.47596],[-106.76165,39.47463],[-106.76091,39.47443],[-106.76095,39.47469],[-106.7606,39.47472],[-106.76056,39.47446],[-106.76021,39.47449],[-106.76005,39.47343],[-106.76071,39.4731],[-106.76059,39.4723],[-106.76094,39.47227],[-106.7609,39.472],[-106.7616,39.47194],[-106.76156,39.47168],[-106.76222,39.47135],[-106.76218,39.47109],[-106.76323,39.471],[-106.76327,39.47126],[-106.76362,39.47123],[-106.7637,39.47176],[-106.7651,39.47164],[-106.76506,39.47138],[-106.76541,39.47135],[-106.76537,39.47108],[-106.76603,39.47075],[-106.76599,39.47049],[-106.76669,39.47043],[-106.76665,39.47016],[-106.767,39.47013],[-106.76696,39.46986],[-106.76765,39.4698],[-106.76758,39.46927],[-106.76614,39.46913],[-106.7661,39.46886],[-106.76676,39.46853],[-106.76672,39.46827],[-106.76777,39.46818],[-106.76781,39.46844],[-106.76746,39.46847],[-106.76754,39.46901],[-106.76893,39.46888],[-106.76885,39.46835],[-106.77095,39.46817],[-106.77079,39.46711],[-106.77044,39.46714],[-106.7704,39.46687],[-106.7711,39.46681],[-106.77098,39.46601],[-106.77028,39.46607],[-106.77032,39.46634],[-106.76997,39.46637],[-106.76986,39.46557],[-106.76846,39.46569],[-106.7685,39.46596],[-106.76815,39.46599],[-106.76807,39.46546],[-106.76733,39.46525],[-106.76729,39.46499],[-106.76799,39.46493],[-106.76787,39.46413],[-106.76822,39.4641],[-106.76802,39.46277],[-106.76837,39.46274],[-106.76825,39.46194],[-106.7679,39.46197],[-106.76782,39.46144],[-106.76817,39.46141],[-106.76813,39.46114],[-106.76739,39.46094],[-106.76731,39.4604],[-106.76661,39.46046],[-106.76665,39.46073],[-106.76591,39.46052],[-106.76599,39.46106],[-106.76494,39.46115],[-106.76486,39.46062],[-106.76382,39.46071],[-106.76378,39.46044],[-106.76343,39.46047],[-106.76339,39.4602],[-106.76265,39.46],[-106.76261,39.45973],[-106.76191,39.45979],[-106.76187,39.45953],[-106.76113,39.45932],[-106.76109,39.45906],[-106.76144,39.45903],[-106.76132,39.45823],[-106.75988,39.45808],[-106.75972,39.45702],[-106.76007,39.45699],[-106.75999,39.45646],[-106.76135,39.45607],[-106.76123,39.45527],[-106.76088,39.4553],[-106.76045,39.4548],[-106.7594,39.45489],[-106.75944,39.45516],[-106.75875,39.45522],[-106.75871,39.45495],[-106.75766,39.45504],[-106.75762,39.45478],[-106.75692,39.45484],[-106.75688,39.45457],[-106.75513,39.45472],[-106.75521,39.45525],[-106.75451,39.45531],[-106.75447,39.45505],[-106.75373,39.45484],[-106.75381,39.45538],[-106.75276,39.45547],[-106.7528,39.45573],[-106.7521,39.45579],[-106.75214,39.45606],[-106.7514,39.45585],[-106.75144,39.45612],[-106.75078,39.45645],[-106.75082,39.45671],[-106.75012,39.45677],[-106.75008,39.45651],[-106.75043,39.45648],[-106.75039,39.45621],[-106.74966,39.456],[-106.74958,39.45547],[-106.74993,39.45544],[-106.74977,39.45438],[-106.75012,39.45435],[-106.75004,39.45382],[-106.75039,39.45379],[-106.75031,39.45325],[-106.74996,39.45328],[-106.74992,39.45302],[-106.74922,39.45308],[-106.74918,39.45281],[-106.74844,39.45261],[-106.74832,39.45181],[-106.74867,39.45178],[-106.74863,39.45151],[-106.74793,39.45157],[-106.74789,39.45131],[-106.74715,39.4511],[-106.74711,39.45084],[-106.74676,39.45087],[-106.74664,39.45007],[-106.74591,39.44986],[-106.74583,39.44933],[-106.74649,39.449],[-106.74641,39.44847],[-106.74676,39.44844],[-106.74672,39.44818],[-106.74707,39.44815],[-106.74703,39.44788],[-106.74668,39.44791],[-106.7466,39.44738],[-106.74625,39.44741],[-106.74621,39.44714],[-106.74516,39.44723],[-106.74524,39.44776],[-106.74384,39.44789],[-106.74368,39.44682],[-106.74403,39.44679],[-106.74399,39.44653],[-106.74364,39.44656],[-106.74352,39.44576],[-106.74317,39.44579],[-106.74301,39.44472],[-106.74232,39.44478],[-106.74228,39.44452],[-106.74158,39.44458],[-106.74115,39.44408],[-106.74045,39.44414],[-106.74033,39.44334],[-106.73998,39.44337],[-106.7399,39.44284],[-106.73955,39.44287],[-106.73947,39.44234],[-106.73877,39.4424],[-106.73881,39.44266],[-106.73776,39.44275],[-106.73772,39.44249],[-106.73633,39.44261],[-106.73637,39.44287],[-106.73532,39.44296],[-106.73536,39.44323],[-106.73501,39.44326],[-106.73505,39.44353],[-106.7347,39.44356],[-106.73482,39.44435],[-106.73412,39.44441],[-106.73408,39.44415],[-106.73338,39.44421],[-106.7333,39.44368],[-106.73295,39.44371],[-106.73275,39.44238],[-106.731,39.44253],[-106.73104,39.44279],[-106.73069,39.44282],[-106.73073,39.44309],[-106.73007,39.44342],[-106.73003,39.44315],[-106.72934,39.44321],[-106.72926,39.44268],[-106.72891,39.44271],[-106.72848,39.44221],[-106.72778,39.44227],[-106.72782,39.44253],[-106.72712,39.44259],[-106.7272,39.44313],[-106.72755,39.4431],[-106.72759,39.44336],[-106.72724,39.44339],[-106.72736,39.44419],[-106.72631,39.44428],[-106.72635,39.44455],[-106.7253,39.44464],[-106.72487,39.44413],[-106.72343,39.44399],[-106.72339,39.44372],[-106.72265,39.44352],[-106.72261,39.44325],[-106.72192,39.44331],[-106.72196,39.44358],[-106.72161,39.44361],[-106.72165,39.44387],[-106.722,39.44384],[-106.72215,39.44491],[-106.7225,39.44488],[-106.72258,39.44541],[-106.72293,39.44538],[-106.72301,39.44591],[-106.72266,39.44594],[-106.72282,39.44701],[-106.72208,39.4468],[-106.72212,39.44707],[-106.72177,39.4471],[-106.72134,39.44659],[-106.72064,39.44665],[-106.7206,39.44639],[-106.71986,39.44618],[-106.71983,39.44592],[-106.71913,39.44598],[-106.71917,39.44624],[-106.71882,39.44627],[-106.71886,39.44654],[-106.71816,39.4466],[-106.71812,39.44633],[-106.71738,39.44613],[-106.71726,39.44533],[-106.71691,39.44536],[-106.71675,39.4443],[-106.7164,39.44433],[-106.71632,39.44379],[-106.71667,39.44376],[-106.71663,39.4435],[-106.71628,39.44353],[-106.71624,39.44326],[-106.71554,39.44332],[-106.71551,39.44306],[-106.71516,39.44309],[-106.71508,39.44255],[-106.71473,39.44258],[-106.71469,39.44232],[-106.71504,39.44229],[-106.71496,39.44176],[-106.71461,39.44179],[-106.71449,39.44099],[-106.71484,39.44096],[-106.71452,39.43883],[-106.71378,39.43862],[-106.71374,39.43836],[-106.71409,39.43833],[-106.71401,39.4378],[-106.71328,39.43759],[-106.7132,39.43706],[-106.71285,39.43709],[-106.71281,39.43682],[-106.71207,39.43662],[-106.71195,39.43582],[-106.7116,39.43585],[-106.71156,39.43558],[-106.71222,39.43526],[-106.71214,39.43473],[-106.71179,39.43476],[-106.71163,39.43369],[-106.71128,39.43372],[-106.71121,39.43319],[-106.71086,39.43322],[-106.71082,39.43295],[-106.70977,39.43304],[-106.70985,39.43358],[-106.70911,39.43337],[-106.70895,39.43231],[-106.7093,39.43228],[-106.70914,39.43121],[-106.70879,39.43124],[-106.70867,39.43044],[-106.70724,39.4303],[-106.70728,39.43056],[-106.70662,39.43089],[-106.70666,39.43116],[-106.706,39.43148],[-106.70615,39.43255],[-106.70545,39.43261],[-106.70557,39.43341],[-106.70522,39.43344],[-106.70503,39.43211],[-106.70538,39.43208],[-106.70526,39.43128],[-106.70491,39.43131],[-106.70483,39.43078],[-106.70409,39.43057],[-106.70401,39.43004],[-106.70296,39.43013],[-106.703,39.43039],[-106.7023,39.43045],[-106.70222,39.42992],[-106.70187,39.42995],[-106.7018,39.42942],[-106.7004,39.42954],[-106.70056,39.4306],[-106.70021,39.43063],[-106.70013,39.4301],[-106.69978,39.43013],[-106.69982,39.4304],[-106.69947,39.43043],[-106.69955,39.43096],[-106.69889,39.43129],[-106.69901,39.43208],[-106.69866,39.43211],[-106.6987,39.43238],[-106.69905,39.43235],[-106.69916,39.43315],[-106.69846,39.43321],[-106.69858,39.43401],[-106.69823,39.43404],[-106.69831,39.43457],[-106.69726,39.43466],[-106.6973,39.43493],[-106.6966,39.43499],[-106.69664,39.43525],[-106.6956,39.43534],[-106.69575,39.43641],[-106.6954,39.43644],[-106.69556,39.4375],[-106.69451,39.43759],[-106.69459,39.43812],[-106.69424,39.43815],[-106.69432,39.43868],[-106.69467,39.43865],[-106.69475,39.43919],[-106.69545,39.43913],[-106.69549,39.43939],[-106.69615,39.43907],[-106.69631,39.44013],[-106.69596,39.44016],[-106.696,39.44043],[-106.6967,39.44037],[-106.69681,39.44116],[-106.69755,39.44137],[-106.69767,39.44217],[-106.69802,39.44214],[-106.69806,39.4424],[-106.69876,39.44234],[-106.6988,39.44261],[-106.69845,39.44264],[-106.69853,39.44317],[-106.69888,39.44314],[-106.69896,39.44367],[-106.6997,39.44388],[-106.69974,39.44414],[-106.70183,39.44396],[-106.70179,39.4437],[-106.70214,39.44367],[-106.70218,39.44393],[-106.70253,39.4439],[-106.70265,39.4447],[-106.703,39.44467],[-106.70304,39.44494],[-106.70269,39.44497],[-106.70281,39.44577],[-106.70246,39.4458],[-106.70242,39.44553],[-106.70102,39.44565],[-106.70106,39.44592],[-106.70036,39.44598],[-106.70032,39.44571],[-106.69997,39.44574],[-106.70005,39.44627],[-106.6997,39.4463],[-106.69966,39.44604],[-106.69892,39.44583],[-106.69884,39.4453],[-106.69811,39.44509],[-106.69768,39.44459],[-106.69698,39.44465],[-106.69655,39.44415],[-106.69585,39.44421],[-106.69577,39.44368],[-106.69507,39.44374],[-106.69519,39.44454],[-106.69554,39.44451],[-106.69558,39.44477],[-106.69663,39.44468],[-106.69706,39.44518],[-106.69776,39.44512],[-106.6978,39.44539],[-106.69815,39.44536],[-106.69838,39.44695],[-106.69873,39.44692],[-106.69897,39.44852],[-106.69932,39.44849],[-106.6994,39.44902],[-106.7001,39.44896],[-106.70053,39.44946],[-106.70157,39.44937],[-106.70154,39.44911],[-106.70219,39.44878],[-106.70227,39.44931],[-106.70297,39.44925],[-106.70309,39.45005],[-106.70453,39.4502],[-106.70457,39.45046],[-106.70562,39.45037],[-106.70574,39.45117],[-106.70644,39.45111],[-106.70636,39.45058],[-106.70671,39.45055],[-106.70663,39.45002],[-106.70593,39.45008],[-106.70585,39.44955],[-106.7062,39.44952],[-106.70624,39.44978],[-106.70694,39.44972],[-106.7069,39.44945],[-106.70725,39.44942],[-106.70682,39.44892],[-106.70717,39.44889],[-106.70709,39.44836],[-106.70744,39.44833],[-106.70732,39.44753],[-106.70837,39.44744],[-106.70833,39.44718],[-106.70868,39.44715],[-106.70864,39.44688],[-106.70829,39.44691],[-106.70821,39.44638],[-106.70856,39.44635],[-106.70848,39.44582],[-106.70918,39.44576],[-106.70922,39.44602],[-106.70957,39.44599],[-106.70973,39.44706],[-106.70907,39.44738],[-106.70911,39.44765],[-106.70876,39.44768],[-106.70888,39.44848],[-106.70853,39.44851],[-106.70865,39.4493],[-106.70795,39.44936],[-106.70799,39.44963],[-106.70834,39.4496],[-106.70838,39.44987],[-106.70942,39.44978],[-106.70954,39.45057],[-106.71059,39.45048],[-106.71051,39.44995],[-106.71016,39.44998],[-106.71,39.44892],[-106.7107,39.44886],[-106.71062,39.44833],[-106.71202,39.44821],[-106.7121,39.44874],[-106.71175,39.44877],[-106.71171,39.4485],[-106.71101,39.44856],[-106.71144,39.44906],[-106.71109,39.44909],[-106.71113,39.44936],[-106.71187,39.44957],[-106.71191,39.44983],[-106.71125,39.45016],[-106.71129,39.45042],[-106.71094,39.45045],[-106.71102,39.45099],[-106.70962,39.45111],[-106.70966,39.45137],[-106.71036,39.45131],[-106.71079,39.45181],[-106.71149,39.45175],[-106.71157,39.45229],[-106.71192,39.45226],[-106.712,39.45279],[-106.7127,39.45273],[-106.71277,39.45326],[-106.71351,39.45346],[-106.71359,39.454],[-106.71289,39.45406],[-106.71281,39.45353],[-106.71215,39.45385],[-106.71208,39.45332],[-106.71138,39.45338],[-106.71142,39.45365],[-106.71107,39.45368],[-106.71103,39.45341],[-106.70928,39.45356],[-106.70924,39.45329],[-106.70854,39.45335],[-106.70846,39.45282],[-106.70881,39.45279],[-106.70877,39.45253],[-106.70807,39.45259],[-106.70803,39.45232],[-106.70873,39.45226],[-106.70865,39.45173],[-106.70795,39.45179],[-106.70799,39.45205],[-106.70764,39.45208],[-106.70776,39.45288],[-106.70741,39.45291],[-106.70749,39.45344],[-106.70714,39.45347],[-106.70722,39.45401],[-106.70687,39.45404],[-106.70703,39.4551],[-106.70738,39.45507],[-106.70742,39.45534],[-106.70812,39.45528],[-106.70816,39.45554],[-106.70886,39.45548],[-106.70894,39.45601],[-106.70929,39.45598],[-106.70932,39.45625],[-106.71002,39.45619],[-106.71006,39.45646],[-106.71072,39.45613],[-106.71084,39.45693],[-106.71158,39.45713],[-106.71162,39.4574],[-106.71197,39.45737],[-106.71201,39.45764],[-106.71306,39.45755],[-106.71298,39.45701],[-106.71333,39.45698],[-106.71345,39.45778],[-106.7131,39.45781],[-106.71318,39.45834],[-106.71353,39.45831],[-106.71361,39.45884],[-106.71396,39.45881],[-106.71403,39.45935],[-106.71547,39.45949],[-106.71551,39.45976],[-106.71621,39.4597],[-106.71664,39.4602],[-106.71734,39.46014],[-106.71738,39.46041],[-106.71878,39.46029],[-106.71874,39.46002],[-106.71944,39.45996],[-106.71952,39.46049],[-106.71987,39.46046],[-106.71991,39.46073],[-106.72061,39.46067],[-106.72053,39.46013],[-106.72123,39.46007],[-106.72119,39.45981],[-106.72084,39.45984],[-106.7208,39.45957],[-106.7201,39.45963],[-106.72002,39.4591],[-106.71967,39.45913],[-106.71959,39.4586],[-106.71924,39.45863],[-106.7192,39.45836],[-106.7199,39.4583],[-106.71998,39.45883],[-106.72068,39.45877],[-106.72111,39.45928],[-106.72146,39.45925],[-106.72138,39.45871],[-106.72208,39.45865],[-106.7225,39.45916],[-106.72285,39.45913],[-106.72278,39.45859],[-106.72417,39.45847],[-106.7246,39.45897],[-106.72495,39.45894],[-106.72491,39.45868],[-106.72557,39.45835],[-106.72553,39.45809],[-106.72697,39.45823],[-106.72701,39.4585],[-106.72736,39.45847],[-106.72744,39.459],[-106.72814,39.45894],[-106.7281,39.45867],[-106.72845,39.45864],[-106.72841,39.45838],[-106.72876,39.45835],[-106.7288,39.45861],[-106.7295,39.45855],[-106.72946,39.45829],[-106.72981,39.45826],[-106.72985,39.45852],[-106.7302,39.45849],[-106.73028,39.45902],[-106.73098,39.45896],[-106.73109,39.45976],[-106.73214,39.45967],[-106.73206,39.45914],[-106.73136,39.4592],[-106.73129,39.45867],[-106.73094,39.4587],[-106.73082,39.4579],[-106.73117,39.45787],[-106.73121,39.45814],[-106.73225,39.45805],[-106.73229,39.45831],[-106.73299,39.45825],[-106.73295,39.45799],[-106.7333,39.45795],[-106.73326,39.45769],[-106.73361,39.45766],[-106.73365,39.45792],[-106.7347,39.45783],[-106.73513,39.45834],[-106.73583,39.45828],[-106.73579,39.45801],[-106.73614,39.45798],[-106.73657,39.45848],[-106.73622,39.45851],[-106.73626,39.45878],[-106.73556,39.45884],[-106.73564,39.45937],[-106.73669,39.45928],[-106.73665,39.45901],[-106.737,39.45898],[-106.73696,39.45872],[-106.73766,39.45866],[-106.73762,39.45839],[-106.73797,39.45836],[-106.73789,39.45783],[-106.73933,39.45797],[-106.73941,39.45851],[-106.73906,39.45854],[-106.7391,39.4588],[-106.73945,39.45877],[-106.73952,39.4593],[-106.73987,39.45927],[-106.73995,39.45981],[-106.73929,39.46013],[-106.73945,39.4612],[-106.7398,39.46117],[-106.73988,39.4617],[-106.73883,39.46179],[-106.73891,39.46232],[-106.73751,39.46244],[-106.73755,39.46271],[-106.73689,39.46303],[-106.73693,39.4633],[-106.73623,39.46336],[-106.73627,39.46363],[-106.73592,39.46366],[-106.73635,39.46416],[-106.7367,39.46413],[-106.73678,39.46466],[-106.73752,39.46486],[-106.7376,39.4654],[-106.73725,39.46543],[-106.73741,39.46649],[-106.73671,39.46655],[-106.73683,39.46735],[-106.73648,39.46738],[-106.73652,39.46765],[-106.73722,39.46759],[-106.7373,39.46812],[-106.7359,39.46824],[-106.73594,39.4685],[-106.73559,39.46853],[-106.73563,39.4688],[-106.73528,39.46883],[-106.7354,39.46963],[-106.73645,39.46954],[-106.73649,39.4698],[-106.73474,39.46995],[-106.73478,39.47022],[-106.73443,39.47025],[-106.73447,39.47052],[-106.73412,39.47055],[-106.73428,39.47161],[-106.73463,39.47158],[-106.73467,39.47185],[-106.73397,39.47191],[-106.73401,39.47217],[-106.73366,39.4722],[-106.73382,39.47327],[-106.73316,39.47359],[-106.73324,39.47413],[-106.73258,39.47445],[-106.73262,39.47472],[-106.73331,39.47466],[-106.73347,39.47572],[-106.73417,39.47566],[-106.73409,39.47513],[-106.73541,39.47448],[-106.73545,39.47474],[-106.7358,39.47471],[-106.73588,39.47524],[-106.73553,39.47527],[-106.73561,39.47581],[-106.73596,39.47578],[-106.736,39.47604],[-106.7367,39.47598],[-106.73666,39.47572],[-106.73701,39.47569],[-106.73705,39.47595],[-106.7381,39.47586],[-106.73806,39.47559],[-106.73876,39.47553],[-106.73868,39.475],[-106.73934,39.47468],[-106.73922,39.47388],[-106.73887,39.47391],[-106.73883,39.47364],[-106.73953,39.47358],[-106.73957,39.47385],[-106.73992,39.47382],[-106.73988,39.47355],[-106.74093,39.47346],[-106.74089,39.4732],[-106.74159,39.47313],[-106.74151,39.4726],[-106.74217,39.47228],[-106.74213,39.47201],[-106.74178,39.47204],[-106.7417,39.47151],[-106.7424,39.47145],[-106.74248,39.47198],[-106.74353,39.47189],[-106.74349,39.47162],[-106.74384,39.47159],[-106.74388,39.47186],[-106.74458,39.4718],[-106.74446,39.471],[-106.7438,39.47133],[-106.74376,39.47106],[-106.74306,39.47112],[-106.7429,39.47006],[-106.74255,39.47009],[-106.74263,39.47062],[-106.74193,39.47068],[-106.74189,39.47041],[-106.74224,39.47038],[-106.74216,39.46985],[-106.74356,39.46973],[-106.74352,39.46947],[-106.74387,39.46944],[-106.74379,39.4689],[-106.74305,39.4687],[-106.74297,39.46817],[-106.74437,39.46805],[-106.74433,39.46778],[-106.74569,39.46739],[-106.74565,39.46713],[-106.74705,39.46701],[-106.74693,39.46621],[-106.74728,39.46618],[-106.7472,39.46565],[-106.74685,39.46568],[-106.74681,39.46541],[-106.74786,39.46532],[-106.74778,39.46479],[-106.74844,39.46446],[-106.74836,39.46393],[-106.74902,39.4636],[-106.74894,39.46307],[-106.74929,39.46304],[-106.74925,39.46277],[-106.74995,39.46271],[-106.74987,39.46218],[-106.75119,39.46153],[-106.75099,39.4602],[-106.75204,39.46011],[-106.752,39.45984],[-106.75235,39.45981],[-106.75243,39.46034],[-106.75348,39.46025],[-106.75356,39.46079],[-106.75426,39.46073],[-106.75469,39.46123],[-106.75538,39.46117],[-106.75542,39.46143],[-106.75717,39.46128],[-106.75721,39.46155],[-106.75826,39.46146],[-106.75822,39.46119],[-106.75962,39.46107],[-106.75958,39.4608],[-106.76028,39.46074],[-106.76024,39.46048],[-106.76098,39.46068],[-106.7611,39.46148],[-106.7618,39.46142],[-106.76184,39.46169],[-106.76219,39.46166],[-106.76223,39.46192],[-106.76153,39.46198],[-106.76169,39.46305],[-106.76239,39.46299],[-106.76246,39.46352],[-106.76103,39.46337],[-106.76095,39.46284],[-106.76021,39.46264],[-106.76025,39.4629],[-106.75955,39.46296],[-106.75963,39.46349],[-106.76033,39.46343],[-106.76037,39.4637],[-106.75967,39.46376],[-106.75979,39.46456],[-106.75944,39.46459],[-106.75936,39.46406],[-106.75901,39.46409],[-106.75893,39.46355],[-106.75858,39.46358],[-106.75854,39.46332],[-106.75819,39.46335],[-106.75815,39.46308],[-106.7578,39.46311],[-106.75776,39.46285],[-106.75702,39.46264],[-106.75694,39.46211],[-106.75624,39.46217],[-106.75628,39.46244],[-106.75593,39.46247],[-106.75597,39.46273],[-106.75562,39.46276],[-106.75558,39.4625],[-106.75488,39.46256],[-106.75484,39.46229],[-106.75414,39.46235],[-106.75411,39.46209],[-106.75267,39.46194],[-106.75271,39.46221],[-106.75236,39.46224],[-106.75244,39.46277],[-106.75209,39.4628],[-106.75221,39.4636],[-106.75256,39.46357],[-106.7526,39.46383],[-106.75329,39.46377],[-106.75337,39.4643],[-106.75407,39.46424],[-106.75411,39.46451],[-106.75446,39.46448],[-106.75442,39.46421],[-106.75617,39.46406],[-106.75613,39.4638],[-106.75683,39.46374],[-106.75691,39.46427],[-106.75796,39.46418],[-106.75804,39.46471],[-106.75874,39.46465],[-106.75878,39.46491],[-106.75843,39.46494],[-106.75847,39.46521],[-106.75672,39.46536],[-106.7568,39.46589],[-106.7575,39.46583],[-106.75758,39.46636],[-106.75614,39.46622],[-106.75618,39.46649],[-106.75548,39.46655],[-106.75552,39.46681],[-106.75447,39.4669],[-106.75443,39.46664],[-106.75373,39.4667],[-106.7533,39.4662],[-106.7519,39.46632],[-106.75198,39.46685],[-106.75128,39.46691],[-106.7512,39.46638],[-106.75047,39.46617],[-106.75051,39.46644],[-106.74946,39.46653],[-106.74962,39.46759],[-106.74822,39.46771],[-106.74818,39.46745],[-106.74888,39.46739],[-106.74884,39.46712],[-106.74849,39.46715],[-106.74841,39.46662],[-106.74767,39.46641],[-106.74771,39.46668],[-106.74736,39.46671],[-106.74752,39.46777],[-106.74686,39.4681],[-106.7469,39.46837],[-106.74655,39.4684],[-106.74659,39.46866],[-106.74729,39.4686],[-106.74733,39.46887],[-106.74768,39.46884],[-106.7478,39.46964],[-106.74849,39.46957],[-106.74857,39.47011],[-106.74892,39.47008],[-106.74896,39.47034],[-106.74966,39.47028],[-106.74974,39.47081],[-106.74939,39.47084],[-106.74947,39.47138],[-106.74912,39.47141],[-106.74908,39.47114],[-106.74873,39.47117],[-106.74861,39.47037],[-106.74826,39.4704],[-106.7483,39.47067],[-106.7476,39.47073],[-106.74768,39.47126],[-106.74733,39.47129],[-106.74737,39.47156],[-106.74772,39.47153],[-106.74776,39.47179],[-106.74741,39.47182],[-106.74745,39.47209],[-106.7485,39.472],[-106.74854,39.47226],[-106.74928,39.47247],[-106.74932,39.47274],[-106.74897,39.47277],[-106.74901,39.47303],[-106.74827,39.47283],[-106.74831,39.47309],[-106.74796,39.47312],[-106.74792,39.47286],[-106.74722,39.47292],[-106.74718,39.47265],[-106.74683,39.47268],[-106.74687,39.47295],[-106.74652,39.47298],[-106.74656,39.47324],[-106.7459,39.47357],[-106.74598,39.4741],[-106.74668,39.47404],[-106.7466,39.47351],[-106.7473,39.47345],[-106.74738,39.47398],[-106.74773,39.47395],[-106.74777,39.47422],[-106.74921,39.47436],[-106.74917,39.4741],[-106.74983,39.47377],[-106.74979,39.4735],[-106.75084,39.47341],[-106.75088,39.47368],[-106.75193,39.47359],[-106.75189,39.47332],[-106.75224,39.47329],[-106.75228,39.47356],[-106.75298,39.4735],[-106.75286,39.4727],[-106.75321,39.47267],[-106.75317,39.4724],[-106.75387,39.47234],[-106.75395,39.47288],[-106.75325,39.47294],[-106.75368,39.47344],[-106.75333,39.47347],[-106.75345,39.47427],[-106.7531,39.4743],[-106.75314,39.47456],[-106.75418,39.47447],[-106.7543,39.47527],[-106.75465,39.47524],[-106.75473,39.47577],[-106.75508,39.47574],[-106.75516,39.47627],[-106.75551,39.47624],[-106.75559,39.47677],[-106.75734,39.47662],[-106.75738,39.47689],[-106.75808,39.47683],[-106.75812,39.47709],[-106.76096,39.47712]]]}},{"type":"Feature","properties":{"year":2021,"years_since":5,"boost":0.95,"name":"fire2021"},"geometry":{"type":"Polygon","coordinates":[[[-106.69562,39.43076],[-106.69558,39.43049],[-106.69593,39.43046],[-106.69589,39.4302],[-106.69554,39.43023],[-106.6955,39.42996],[-106.69477,39.42976],[-106.69492,39.43082],[-106.69562,39.43076]]]}}]}