{"type":"FeatureCollection","features":[{"type":"Feature","properties":{"isolation_m":1614,"note":"nearest other perennial water 1.6 km"},"geometry":{"type":"Point","coordinates":[-106.85704,39.41537]}},{"type":"Feature","properties":{"isolation_m":1606,"note":"nearest other perennial water 1.6 km"},"geometry":{"type":"Point","coordinates":[-106.75956,39.41797]}},{"type":"Feature","properties":{"isolation_m":1477,"note":"nearest other perennial water 1.5 km"},"geometry":{"type":"Point","coordinates":[-106.809,39.41997]}},{"type":"Feature","properties":{"isolation_m":1425,"note":"nearest other perennial water 1.4 km"},"geometry":{"type":"Point","coordinates":[-106.70351,39.27019]}},{"type":"Feature","properties":{"isolation_m":1315,"note":"nearest other perennial water 1.3 km"},"geometry":{"type":"Point","coordinates":[-106.53817,39.2792]}},{"type":"Feature","properties":{"isolation_m":1266,"note":"nearest other perennial water 1.3 km"},"geometry":{"type":"Point","coordinates":[-106.87086,39.33087]}},{"type":"Feature","properties":{"isolation_m":1266,"note":"nearest other perennial water 1.3 km"},"geometry":{"type":"Point","coordinates":[-106.86685,39.31645]}},{"type":"Feature","properties":{"isolation_m":1215,"note":"nearest other perennial water 1.2 km"},"geometry":{"type":"Point","coordinates":[-106.73914,39.41697]}}]}