{"type":"FeatureCollection","features":[{"type":"Feature","properties":{"name":"COLLINS","mtfcc_code":"S1500"},"geometry":{"type":"LineString","coordinates":[[-106.77513,39.28925],[-106.77563,39.28944],[-106.77643,39.28955],[-106.77863,39.28945]]}},{"type":"Feature","properties":{"name":"COYOTE SPUR","mtfcc_code":"S1500"},"geometry":{"type":"LineString","coordinates":[[-106.66837,39.43038],[-106.66854,39.43061],[-106.67012,39.43054],[-106.6728,39.43]]}},{"type":"Feature","properties":{"name":"COYOTE","mtfcc_code":"S1500"},"geometry":{"type":"LineString","coordinates":[[-106.66837,39.43038],[-106.66651,39.43057],[-106.66589,39.43053],[-106.66541,39.43068],[-106.66432,39.43057],[-106.66402,39.43033],[-106.66294,39.42983],[-106.66168,39.42906],[-106.66026,39.4284],[-106.65699,39.42738],[-106.65671,39.42742]]}},{"type":"Feature","properties":{"name":"KOBEY PARK SPUR","mtfcc_code":"S1500"},"geometry":{"type":"LineString","coordinates":[[-106.80274,39.32448],[-106.80308,39.32537],[-106.80304,39.32601],[-106.80296,39.32611],[-106.8027,39.32622],[-106.80251,39.32618],[-106.80234,39.32606]]}},{"type":"Feature","properties":{"name":"MID KOBEY WAYS","mtfcc_code":"S1500"},"geometry":{"type":"LineString","coordinates":[[-106.79161,39.31973],[-106.79219,39.31973],[-106.793,39.31944],[-106.79412,39.31943],[-106.79596,39.3201],[-106.79619,39.31986],[-106.79603,39.31925],[-106.79548,39.31857],[-106.79516,39.31806],[-106.79511,39.31784],[-106.79519,39.31771]]}},{"type":"Feature","properties":{"name":"COLLINS SPUR #3","mtfcc_code":"S1500"},"geometry":{"type":"LineString","coordinates":[[-106.77863,39.28945],[-106.77921,39.28947],[-106.77962,39.2896],[-106.78063,39.28971],[-106.78166,39.28929]]}},{"type":"Feature","properties":{"name":"REDTABLE/COYOTE PARK CUTOFF","mtfcc_code":"S1500"},"geometry":{"type":"LineString","coordinates":[[-106.69531,39.42063],[-106.69528,39.42052],[-106.69503,39.42031],[-106.69421,39.41983],[-106.69402,39.41979],[-106.69405,39.41936],[-106.69382,39.41909],[-106.69343,39.41893],[-106.69328,39.41878],[-106.69326,39.4182],[-106.69319,39.41807],[-106.69321,39.41781]]}},{"type":"Feature","properties":{"name":"REDTABLE/COYOTE PARK CUTOFF","mtfcc_code":"S1500"},"geometry":{"type":"LineString","coordinates":[[-106.70396,39.42732],[-106.70362,39.42699],[-106.70292,39.42598],[-106.70258,39.4256],[-106.70183,39.42526],[-106.70111,39.42464],[-106.70082,39.42408],[-106.70033,39.42379],[-106.70036,39.42347],[-106.70017,39.42321],[-106.70021,39.42289],[-106.70012,39.42281],[-106.69964,39.42252],[-106.69927,39.42247],[-106.69928,39.42231],[-106.69903,39.42217],[-106.69894,39.422],[-106.6987,39.42189],[-106.69692,39.42151],[-106.69619,39.4215],[-106.69599,39.42121],[-106.69556,39.42108],[-106.69531,39.42063]]}},{"type":"Feature","properties":{"name":"COYOTE","mtfcc_code":"S1500"},"geometry":{"type":"LineString","coordinates":[[-106.66485,39.42478],[-106.6645,39.42485],[-106.66362,39.42463],[-106.66194,39.42466],[-106.66036,39.4249],[-106.65996,39.42506],[-106.6599,39.42522],[-106.65991,39.42531],[-106.6601,39.42553],[-106.66113,39.42639],[-106.66149,39.42652],[-106.66269,39.42716],[-106.66288,39.42736],[-106.66351,39.42843],[-106.66444,39.42909],[-106.66584,39.42958],[-106.66618,39.42989],[-106.66649,39.43005],[-106.66705,39.43014],[-106.66836,39.43013],[-106.66843,39.4303],[-106.66837,39.43038]]}},{"type":"Feature","properties":{"name":"COLLINS SPUR #3","mtfcc_code":"S1500"},"geometry":{"type":"LineString","coordinates":[[-106.78271,39.28838],[-106.78292,39.28807],[-106.78362,39.28753]]}},{"type":"Feature","properties":{"mtfcc_code":"S1500"},"geometry":{"type":"LineString","coordinates":[[-106.7876,39.31087],[-106.78662,39.31095],[-106.78592,39.31138],[-106.78563,39.31181],[-106.7856,39.31192],[-106.78566,39.3121],[-106.78584,39.31227],[-106.78677,39.31276],[-106.78702,39.31294],[-106.78713,39.31314],[-106.78689,39.31335],[-106.7857,39.31387],[-106.7854,39.31388],[-106.78506,39.31401],[-106.78492,39.31423],[-106.78513,39.31467],[-106.78499,39.31503],[-106.7853,39.3156],[-106.785,39.31648],[-106.78514,39.31716],[-106.78505,39.31731],[-106.78505,39.3175],[-106.78535,39.31772],[-106.78534,39.31782],[-106.78501,39.31782],[-106.78485,39.31757],[-106.78491,39.3171],[-106.78475,39.31684],[-106.78466,39.31647],[-106.78496,39.31566],[-106.78486,39.3155],[-106.78449,39.31524],[-106.78446,39.31502],[-106.78451,39.31463],[-106.78422,39.31425],[-106.78423,39.31413],[-106.78443,39.31377],[-106.78496,39.31326],[-106.78494,39.31311],[-106.78474,39.31282],[-106.78428,39.31244],[-106.78416,39.31223],[-106.78467,39.31108],[-106.78462,39.31098],[-106.78426,39.31077],[-106.78381,39.3102],[-106.7833,39.31023],[-106.78239,39.3106],[-106.78165,39.31098],[-106.78103,39.31148],[-106.78041,39.3125],[-106.78036,39.31306],[-106.78024,39.31339],[-106.77951,39.31496],[-106.77949,39.31514],[-106.7792,39.31559],[-106.77864,39.31676],[-106.77856,39.3168],[-106.7785,39.31679],[-106.77845,39.31632],[-106.7783,39.31601],[-106.77796,39.31592],[-106.77789,39.31583],[-106.77829,39.31464],[-106.7788,39.3142],[-106.77907,39.31364],[-106.77917,39.31334],[-106.77904,39.31315]]}},{"type":"Feature","properties":{"name":"LEEMAN GULCH","mtfcc_code":"S1500"},"geometry":{"type":"LineString","coordinates":[[-106.73384,39.45016],[-106.73377,39.45015],[-106.73347,39.45037],[-106.73332,39.45037],[-106.7332,39.45028],[-106.73304,39.44992],[-106.73305,39.44967],[-106.73313,39.4495]]}},{"type":"Feature","properties":{"mtfcc_code":"S1500"},"geometry":{"type":"LineString","coordinates":[[-106.79055,39.31722],[-106.78974,39.31656],[-106.78927,39.316],[-106.78854,39.31534],[-106.78841,39.3151],[-106.78842,39.31484],[-106.7892,39.31354],[-106.78929,39.31331],[-106.78931,39.31305],[-106.78923,39.31287],[-106.78904,39.31271],[-106.78828,39.31218],[-106.788,39.31176],[-106.78798,39.3116],[-106.78874,39.31102],[-106.78917,39.31054]]}},{"type":"Feature","properties":{"mtfcc_code":"S1500"},"geometry":{"type":"LineString","coordinates":[[-106.80277,39.32013],[-106.80269,39.31947],[-106.80287,39.31857],[-106.80299,39.31826],[-106.8031,39.31633],[-106.80334,39.31604],[-106.80462,39.31666]]}},{"type":"Feature","properties":{"name":"COLLINS","mtfcc_code":"S1500"},"geometry":{"type":"LineString","coordinates":[[-106.77863,39.28945],[-106.77876,39.28935],[-106.7786,39.28912],[-106.7787,39.28809],[-106.77863,39.28751]]}},{"type":"Feature","properties":{"mtfcc_code":"S1500"},"geometry":{"type":"LineString","coordinates":[[-106.77203,39.49113],[-106.7719,39.49131],[-106.77113,39.49153],[-106.77084,39.49155],[-106.77045,39.49113],[-106.77017,39.49097],[-106.76989,39.49089],[-106.76935,39.49088],[-106.76771,39.48999]]}},{"type":"Feature","properties":{"name":"RED CANYON SPUR #5","mtfcc_code":"S1500"},"geometry":{"type":"LineString","coordinates":[[-106.80207,39.32293],[-106.80273,39.32242],[-106.80314,39.32201],[-106.80324,39.32177],[-106.80328,39.32152],[-106.80324,39.32135],[-106.80278,39.32056],[-106.80277,39.32013]]}},{"type":"Feature","properties":{"name":"KOBEY PARK SPUR","mtfcc_code":"S1500"},"geometry":{"type":"LineString","coordinates":[[-106.80277,39.32366],[-106.80292,39.32405],[-106.80289,39.32429],[-106.80274,39.32448]]}},{"type":"Feature","properties":{"name":"COLLIN SPUR #1","mtfcc_code":"S1500"},"geometry":{"type":"LineString","coordinates":[[-106.77465,39.28892],[-106.7754,39.28912],[-106.77555,39.28906],[-106.77601,39.28905],[-106.77611,39.28897],[-106.77649,39.28887],[-106.77672,39.2886],[-106.77682,39.28821],[-106.77696,39.28654],[-106.77709,39.28589],[-106.77704,39.28538],[-106.77671,39.28484],[-106.77656,39.28448],[-106.77568,39.28345],[-106.77542,39.28302],[-106.77533,39.28268],[-106.77518,39.28251],[-106.77475,39.28211],[-106.77385,39.28145],[-106.77324,39.28083],[-106.77284,39.28062],[-106.77254,39.28056],[-106.77227,39.2806],[-106.77174,39.28099],[-106.77072,39.28151],[-106.77052,39.28172],[-106.77036,39.28204],[-106.77022,39.28213]]}},{"type":"Feature","properties":{"name":"KOBEY PARK SPUR","mtfcc_code":"S1500"},"geometry":{"type":"LineString","coordinates":[[-106.80274,39.32448],[-106.80242,39.32442],[-106.80214,39.32415],[-106.80191,39.32405],[-106.8014,39.32404],[-106.80134,39.32428],[-106.80138,39.32457],[-106.80186,39.32492],[-106.80188,39.32515],[-106.80179,39.32536],[-106.80126,39.32554],[-106.80123,39.32565],[-106.80177,39.3261],[-106.80167,39.32615],[-106.80112,39.32606],[-106.80078,39.32616],[-106.80149,39.32675],[-106.80177,39.32743],[-106.80217,39.32816],[-106.80211,39.32818],[-106.80154,39.32775],[-106.80094,39.32698]]}},{"type":"Feature","properties":{"name":"COLLINS SPUR #3","mtfcc_code":"S1500"},"geometry":{"type":"LineString","coordinates":[[-106.78166,39.28929],[-106.78206,39.2891],[-106.78252,39.2887],[-106.78271,39.28838]]}},{"type":"Feature","properties":{"name":"KOBEY PARK SPUR","mtfcc_code":"S1500"},"geometry":{"type":"LineString","coordinates":[[-106.79204,39.32098],[-106.79326,39.32106],[-106.7943,39.32094],[-106.79473,39.32048],[-106.79494,39.32004],[-106.79503,39.31997],[-106.79522,39.32001],[-106.7957,39.32033],[-106.796,39.32064],[-106.79664,39.32088],[-106.79769,39.32115],[-106.79863,39.32123],[-106.79893,39.32131],[-106.79938,39.32156],[-106.8003,39.32166],[-106.80074,39.32163],[-106.80095,39.32152],[-106.80169,39.3206],[-106.80178,39.31985],[-106.80194,39.31922],[-106.80217,39.31783],[-106.80216,39.31669],[-106.80236,39.31616],[-106.80279,39.31582],[-106.80307,39.31522],[-106.80327,39.31505],[-106.80356,39.3149],[-106.80381,39.31485],[-106.80417,39.31487],[-106.80494,39.31558]]}},{"type":"Feature","properties":{"mtfcc_code":"S1500"},"geometry":{"type":"LineString","coordinates":[[-106.78818,39.30905],[-106.78848,39.30942],[-106.78863,39.30972],[-106.78864,39.30999],[-106.7885,39.31023],[-106.78821,39.31049],[-106.7876,39.31087]]}},{"type":"Feature","properties":{"mtfcc_code":"S1500"},"geometry":{"type":"LineString","coordinates":[[-106.69681,39.35993],[-106.69594,39.35939],[-106.69537,39.35923],[-106.69318,39.3589],[-106.69235,39.35862],[-106.6918,39.35832],[-106.69126,39.35783],[-106.69075,39.35717],[-106.69058,39.35708],[-106.69034,39.35707],[-106.69018,39.35714]]}},{"type":"Feature","properties":{"name":"KOBEY PARK SPUR","mtfcc_code":"S1500"},"geometry":{"type":"LineString","coordinates":[[-106.78671,39.30945],[-106.78621,39.3096],[-106.78558,39.30959],[-106.78464,39.30928],[-106.78403,39.3092],[-106.78333,39.30943],[-106.78234,39.30993]]}},{"type":"Feature","properties":{"name":"KOBEY PARK SPUR","mtfcc_code":"S1500"},"geometry":{"type":"LineString","coordinates":[[-106.79113,39.31685],[-106.79172,39.31657],[-106.79215,39.31625],[-106.79323,39.31598]]}},{"type":"Feature","properties":{"mtfcc_code":"S1500"},"geometry":{"type":"LineString","coordinates":[[-106.74779,39.47558],[-106.74708,39.47563],[-106.74683,39.47552],[-106.7467,39.47523],[-106.74673,39.47456]]}},{"type":"Feature","properties":{"name":"COLLINS","mtfcc_code":"S1500"},"geometry":{"type":"LineString","coordinates":[[-106.77761,39.28433],[-106.77705,39.28225],[-106.77668,39.28166]]}},{"type":"Feature","properties":{"name":"SMITH CREEK","mtfcc_code":"S1500"},"geometry":{"type":"LineString","coordinates":[[-106.77151,39.40502],[-106.7713,39.40544],[-106.77131,39.40557],[-106.77146,39.40601],[-106.77181,39.40646],[-106.77161,39.40678],[-106.77117,39.40688],[-106.77109,39.4071],[-106.77108,39.40737],[-106.77129,39.40816],[-106.7717,39.4087],[-106.77173,39.4091],[-106.77134,39.40941],[-106.77094,39.40954]]}},{"type":"Feature","properties":{"name":"KOBEY PARK SPUR","mtfcc_code":"S1500"},"geometry":{"type":"LineString","coordinates":[[-106.7876,39.31087],[-106.78766,39.31065],[-106.78784,39.31044],[-106.78772,39.30969],[-106.78755,39.30954],[-106.78723,39.30941],[-106.78671,39.30945]]}},{"type":"Feature","properties":{"mtfcc_code":"S1500"},"geometry":{"type":"LineString","coordinates":[[-106.72336,39.27209],[-106.72404,39.27189],[-106.72453,39.27189],[-106.72572,39.27162],[-106.72644,39.2718],[-106.72725,39.27176],[-106.72752,39.2718],[-106.72808,39.27201],[-106.72839,39.27201],[-106.72883,39.27188],[-106.72976,39.27181],[-106.73022,39.27199],[-106.73077,39.2721],[-106.73139,39.27218],[-106.73191,39.27217]]}},{"type":"Feature","properties":{"name":"KOBEY PARK SPUR","mtfcc_code":"S1500"},"geometry":{"type":"LineString","coordinates":[[-106.79055,39.31722],[-106.79056,39.31771],[-106.79113,39.3182],[-106.7912,39.31843],[-106.79122,39.31866],[-106.79115,39.3188],[-106.79095,39.31885],[-106.79078,39.31881],[-106.79073,39.31888]]}},{"type":"Feature","properties":{"name":"COLLINS","mtfcc_code":"S1500"},"geometry":{"type":"LineString","coordinates":[[-106.76651,39.28236],[-106.76663,39.28186],[-106.76707,39.28182],[-106.76747,39.28156],[-106.76798,39.28107],[-106.76841,39.281],[-106.76858,39.28069],[-106.76992,39.28006],[-106.77031,39.27997],[-106.77089,39.28009],[-106.77148,39.2801],[-106.77267,39.2792],[-106.77333,39.2793]]}},{"type":"Feature","properties":{"mtfcc_code":"S1500"},"geometry":{"type":"LineString","coordinates":[[-106.77146,39.48807],[-106.77163,39.48792],[-106.77186,39.48732],[-106.77191,39.48697],[-106.77177,39.48525],[-106.77164,39.48469],[-106.77072,39.48265]]}},{"type":"Feature","properties":{"mtfcc_code":"S1500"},"geometry":{"type":"LineString","coordinates":[[-106.79899,39.3039],[-106.79988,39.3038],[-106.80072,39.30302],[-106.80116,39.30278],[-106.80249,39.30243],[-106.80315,39.30206],[-106.80343,39.30201],[-106.80447,39.30162],[-106.80586,39.30124],[-106.80685,39.30119],[-106.80775,39.30129]]}},{"type":"Feature","properties":{"mtfcc_code":"S1500"},"geometry":{"type":"LineString","coordinates":[[-106.85477,39.32268],[-106.85443,39.3225],[-106.85262,39.32033],[-106.84881,39.31803],[-106.84762,39.31688],[-106.84729,39.31583],[-106.84728,39.3155],[-106.84742,39.31498]]}},{"type":"Feature","properties":{"name":"LEEMAN GULCH","mtfcc_code":"S1500"},"geometry":{"type":"LineString","coordinates":[[-106.72933,39.44739],[-106.72907,39.44764],[-106.72865,39.44781],[-106.72788,39.44878],[-106.72744,39.44893],[-106.72656,39.44892],[-106.7249,39.44802],[-106.72458,39.44798],[-106.72394,39.44808],[-106.72352,39.44827],[-106.72338,39.44843],[-106.72336,39.44868],[-106.72349,39.44918],[-106.72334,39.4494],[-106.7228,39.44968],[-106.72223,39.44972],[-106.72166,39.44937],[-106.72104,39.44922],[-106.72017,39.44907],[-106.71896,39.449],[-106.71868,39.44886],[-106.71829,39.44838],[-106.71825,39.44819],[-106.7183,39.44807],[-106.71942,39.44699],[-106.71998,39.44663],[-106.72038,39.44617]]}},{"type":"Feature","properties":{"mtfcc_code":"S1500"},"geometry":{"type":"LineString","coordinates":[[-106.78757,39.39109],[-106.78739,39.39059],[-106.78786,39.38997],[-106.78789,39.38914],[-106.78765,39.38847],[-106.78743,39.38813],[-106.78723,39.38799],[-106.78706,39.38774],[-106.78673,39.38608]]}},{"type":"Feature","properties":{"name":"RED CANYON SPUR #5","mtfcc_code":"S1500"},"geometry":{"type":"LineString","coordinates":[[-106.80277,39.32013],[-106.80326,39.31958],[-106.80345,39.31949],[-106.80343,39.3193],[-106.80404,39.3189],[-106.80477,39.31781],[-106.80494,39.31697],[-106.80468,39.31628],[-106.80414,39.31546]]}},{"type":"Feature","properties":{"name":"KOBEY PARK SPUR","mtfcc_code":"S1500"},"geometry":{"type":"LineString","coordinates":[[-106.79667,39.32226],[-106.79693,39.32263],[-106.79761,39.32326],[-106.79918,39.32412]]}},{"type":"Feature","properties":{"mtfcc_code":"S1500"},"geometry":{"type":"LineString","coordinates":[[-106.68199,39.36416],[-106.68198,39.36435],[-106.6817,39.36494],[-106.68173,39.36517],[-106.68187,39.36541],[-106.68188,39.36591],[-106.68167,39.3668],[-106.68225,39.36667],[-106.68279,39.36553],[-106.68315,39.36518],[-106.6833,39.36491]]}},{"type":"Feature","properties":{"name":"KOBEY PARK SPUR","mtfcc_code":"S1500"},"geometry":{"type":"LineString","coordinates":[[-106.80494,39.31558],[-106.80551,39.31608],[-106.80578,39.31653],[-106.80586,39.31684],[-106.80581,39.3172],[-106.80539,39.3184],[-106.80551,39.31923],[-106.80521,39.31942]]}},{"type":"Feature","properties":{"name":"MILLER WAY","mtfcc_code":"S1500"},"geometry":{"type":"LineString","coordinates":[[-106.70452,39.28477],[-106.70506,39.28477],[-106.70543,39.28501],[-106.70679,39.28498],[-106.70756,39.2851],[-106.70878,39.28671],[-106.71187,39.288],[-106.71262,39.28881],[-106.71338,39.28899],[-106.7138,39.28934],[-106.71424,39.29109],[-106.71498,39.29204],[-106.71572,39.29255],[-106.71659,39.29281]]}},{"type":"Feature","properties":{"name":"KOBEY PARK SPUR","mtfcc_code":"S1500"},"geometry":{"type":"LineString","coordinates":[[-106.80381,39.32241],[-106.80479,39.32278],[-106.80536,39.32261],[-106.80594,39.32232],[-106.8063,39.32224],[-106.80718,39.32226],[-106.80798,39.32247],[-106.80923,39.32243],[-106.81018,39.3222],[-106.81108,39.32223],[-106.81122,39.32227],[-106.81132,39.32239],[-106.81104,39.32256],[-106.81032,39.32263],[-106.80857,39.32308],[-106.80712,39.32287],[-106.80638,39.32295],[-106.80603,39.32316],[-106.80528,39.32381],[-106.80462,39.32402],[-106.80426,39.32405],[-106.8034,39.32369],[-106.80277,39.32366]]}},{"type":"Feature","properties":{"mtfcc_code":"S1500"},"geometry":{"type":"LineString","coordinates":[[-106.79899,39.3039],[-106.79919,39.30367],[-106.79961,39.30346],[-106.79993,39.30301],[-106.80019,39.30278],[-106.80075,39.30245],[-106.80367,39.30128],[-106.80516,39.30103],[-106.80644,39.30055],[-106.80708,39.30042]]}},{"type":"Feature","properties":{"mtfcc_code":"S1500"},"geometry":{"type":"LineString","coordinates":[[-106.78917,39.31054],[-106.78933,39.31013],[-106.78925,39.30959],[-106.78866,39.3089],[-106.78827,39.30859],[-106.78749,39.30838],[-106.7873,39.308],[-106.78705,39.30776],[-106.78601,39.30736],[-106.78583,39.30739],[-106.78571,39.30756],[-106.78561,39.30821],[-106.78562,39.30835],[-106.78571,39.30847],[-106.78661,39.30857],[-106.78708,39.30848],[-106.78747,39.3087],[-106.7879,39.30881],[-106.78818,39.30905]]}},{"type":"Feature","properties":{"name":"KOBEY PARK SPUR","mtfcc_code":"S1500"},"geometry":{"type":"LineString","coordinates":[[-106.80207,39.32293],[-106.8021,39.32303],[-106.80277,39.32366]]}},{"type":"Feature","properties":{"mtfcc_code":"S1500"},"geometry":{"type":"LineString","coordinates":[[-106.68326,39.36351],[-106.68211,39.36352],[-106.68184,39.3636],[-106.68099,39.36414],[-106.68069,39.36427],[-106.68012,39.36521],[-106.67986,39.36539],[-106.67969,39.3654],[-106.67955,39.36554],[-106.67936,39.36543],[-106.67913,39.36517],[-106.67892,39.36466],[-106.67895,39.36448],[-106.67918,39.36412],[-106.67923,39.36385],[-106.67944,39.36357],[-106.67943,39.36349],[-106.67845,39.36338],[-106.67775,39.36337],[-106.67735,39.36343],[-106.67662,39.36369],[-106.67659,39.36378],[-106.67665,39.36386],[-106.67732,39.36413],[-106.67773,39.36457],[-106.67818,39.36492],[-106.6791,39.36627],[-106.67939,39.36655],[-106.67943,39.36687],[-106.67959,39.36716],[-106.67986,39.36725],[-106.67972,39.36768],[-106.67979,39.36795]]}},{"type":"Feature","properties":{"name":"COLLINS","mtfcc_code":"S1500"},"geometry":{"type":"LineString","coordinates":[[-106.77863,39.28751],[-106.77832,39.28668],[-106.77843,39.28619],[-106.77826,39.28533],[-106.77775,39.28469],[-106.77761,39.28433]]}},{"type":"Feature","properties":{"mtfcc_code":"S1500"},"geometry":{"type":"LineString","coordinates":[[-106.79218,39.31849],[-106.79184,39.31815],[-106.79091,39.31753],[-106.79055,39.31722]]}},{"type":"Feature","properties":{"name":"REDTABLE/COYOTE PARK CUTOFF","mtfcc_code":"S1500"},"geometry":{"type":"LineString","coordinates":[[-106.69321,39.41781],[-106.69283,39.41752],[-106.69269,39.41748],[-106.69249,39.41753],[-106.69208,39.41783],[-106.69019,39.41792],[-106.68633,39.41723],[-106.68387,39.41638],[-106.68329,39.41624],[-106.68213,39.41553],[-106.6807,39.41509]]}},{"type":"Feature","properties":{"name":"SMITH CREEK","mtfcc_code":"S1500"},"geometry":{"type":"LineString","coordinates":[[-106.7701,39.39859],[-106.76968,39.39874],[-106.76961,39.3989],[-106.77064,39.39917],[-106.77127,39.39949],[-106.77169,39.3998],[-106.77172,39.40002],[-106.77166,39.4001],[-106.77067,39.40047],[-106.77065,39.4006],[-106.77078,39.40085],[-106.77098,39.40106],[-106.77151,39.40134],[-106.77152,39.40178],[-106.77188,39.40234],[-106.77237,39.40257],[-106.77301,39.40315],[-106.77341,39.40332],[-106.7735,39.40349],[-106.77342,39.40374],[-106.77308,39.40379],[-106.77256,39.40376],[-106.77203,39.40403],[-106.7717,39.4044],[-106.77151,39.40502]]}},{"type":"Feature","properties":{"name":"LEEMAN GULCH","mtfcc_code":"S1500"},"geometry":{"type":"LineString","coordinates":[[-106.73313,39.4495],[-106.73323,39.44932],[-106.73316,39.44914],[-106.73237,39.44883],[-106.73186,39.44827],[-106.73094,39.44801],[-106.73038,39.44799],[-106.72999,39.44789],[-106.72978,39.44779],[-106.72946,39.44743],[-106.72933,39.44739]]}},{"type":"Feature","properties":{"mtfcc_code":"S1500"},"geometry":{"type":"LineString","coordinates":[[-106.79413,39.30642],[-106.79517,39.30622],[-106.79674,39.30548],[-106.79824,39.30494],[-106.79855,39.30489],[-106.79874,39.30455],[-106.79889,39.30443],[-106.79899,39.3039]]}},{"type":"Feature","properties":{"name":"COLLIN SPUR #1","mtfcc_code":"S1500"},"geometry":{"type":"LineString","coordinates":[[-106.77022,39.28213],[-106.76957,39.28197],[-106.76902,39.28195],[-106.76877,39.28175],[-106.76869,39.28124]]}},{"type":"Feature","properties":{"name":"LITTLE DEADMAN TOO","mtfcc_code":"S1500"},"geometry":{"type":"LineString","coordinates":[[-106.7093,39.3429],[-106.71025,39.34256],[-106.71067,39.34229],[-106.71116,39.34184]]}},{"type":"Feature","properties":{"name":"LITTLE DEADMAN TOO","mtfcc_code":"S1500"},"geometry":{"type":"LineString","coordinates":[[-106.71116,39.34184],[-106.71134,39.34156],[-106.71133,39.34145],[-106.71116,39.34135]]}},{"type":"Feature","properties":{"name":"LITTLE DEADMAN TOO","mtfcc_code":"S1500"},"geometry":{"type":"LineString","coordinates":[[-106.71116,39.34135],[-106.71104,39.34127]]}},{"type":"Feature","properties":{"name":"LITTLE DEADMAN TOO","mtfcc_code":"S1500"},"geometry":{"type":"LineString","coordinates":[[-106.71104,39.34127],[-106.71068,39.34101],[-106.71012,39.34075],[-106.70889,39.33914],[-106.70887,39.33901],[-106.70938,39.3382],[-106.70948,39.33791],[-106.70948,39.33753]]}},{"type":"Feature","properties":{"name":"LITTLE DEADMAN TOO","mtfcc_code":"S1500"},"geometry":{"type":"LineString","coordinates":[[-106.70948,39.33753],[-106.70916,39.33725]]}},{"type":"Feature","properties":{"name":"LITTLE DEADMAN TOO","mtfcc_code":"S1500"},"geometry":{"type":"LineString","coordinates":[[-106.70916,39.33725],[-106.70907,39.33716]]}},{"type":"Feature","properties":{"name":"LITTLE DEADMAN TOO","mtfcc_code":"S1500"},"geometry":{"type":"LineString","coordinates":[[-106.70907,39.33716],[-106.70901,39.33704],[-106.70903,39.33685],[-106.70952,39.33579],[-106.70958,39.33554],[-106.70953,39.33535],[-106.70942,39.33522],[-106.70874,39.33487],[-106.70741,39.33383],[-106.70486,39.33041],[-106.70454,39.33015],[-106.70439,39.32994]]}},{"type":"Feature","properties":{"name":"SUICIDE","mtfcc_code":"S1500"},"geometry":{"type":"LineString","coordinates":[[-106.69642,39.38599],[-106.69651,39.38606],[-106.69661,39.38597],[-106.69665,39.38599],[-106.69659,39.38625],[-106.69645,39.38632],[-106.69647,39.38639],[-106.69692,39.38649],[-106.69716,39.3864],[-106.69724,39.38616],[-106.69735,39.38608]]}},{"type":"Feature","properties":{"name":"SUICIDE","mtfcc_code":"S1500"},"geometry":{"type":"LineString","coordinates":[[-106.69735,39.38608],[-106.69746,39.38608],[-106.69751,39.38638],[-106.69774,39.38656],[-106.69805,39.38648],[-106.69839,39.38664],[-106.69875,39.38667],[-106.69914,39.38643],[-106.70006,39.38645],[-106.70101,39.38612],[-106.70185,39.38606],[-106.70209,39.38598],[-106.70244,39.38571],[-106.70355,39.38564],[-106.70495,39.38543],[-106.70517,39.38533],[-106.70523,39.38504],[-106.70488,39.38484],[-106.70478,39.38454],[-106.7051,39.38399],[-106.70509,39.38363],[-106.70516,39.3834],[-106.70501,39.38316],[-106.70522,39.38302],[-106.70537,39.38256],[-106.70557,39.38153],[-106.70545,39.38135],[-106.70575,39.3807],[-106.70619,39.38009],[-106.70665,39.37967],[-106.70668,39.37958],[-106.70664,39.37936],[-106.70673,39.37924],[-106.70686,39.3787],[-106.70665,39.37841],[-106.70654,39.37788],[-106.70643,39.37765],[-106.70642,39.37708],[-106.70621,39.37616],[-106.70566,39.37593],[-106.70537,39.3757]]}},{"type":"Feature","properties":{"name":"SPRING CREEK","mtfcc_code":"S1500"},"geometry":{"type":"LineString","coordinates":[[-106.69642,39.38599],[-106.69638,39.38557],[-106.69661,39.38527],[-106.69639,39.38506],[-106.69641,39.38489],[-106.69586,39.38491],[-106.69564,39.38485],[-106.69574,39.3844],[-106.6958,39.38355],[-106.69574,39.38338],[-106.69582,39.38301],[-106.69567,39.38267],[-106.69516,39.38238],[-106.69391,39.38198],[-106.69358,39.38124],[-106.69359,39.381],[-106.6933,39.38075],[-106.69308,39.38037],[-106.69298,39.3803],[-106.69295,39.38009],[-106.69327,39.37934],[-106.69325,39.37925],[-106.69291,39.37901],[-106.69291,39.37828],[-106.69301,39.37797],[-106.6929,39.37742]]}},{"type":"Feature","properties":{"name":"SPRING CREEK","mtfcc_code":"S1500"},"geometry":{"type":"LineString","coordinates":[[-106.6929,39.37742],[-106.69272,39.37692],[-106.69265,39.37645],[-106.69269,39.37619]]}},{"type":"Feature","properties":{"name":"SPRING CREEK","mtfcc_code":"S1500"},"geometry":{"type":"LineString","coordinates":[[-106.69269,39.37619],[-106.69276,39.37594],[-106.69268,39.37512],[-106.69253,39.3746],[-106.69229,39.37436],[-106.69229,39.37416],[-106.69238,39.37397],[-106.69232,39.37374]]}},{"type":"Feature","properties":{"mtfcc_code":"S1500"},"geometry":{"type":"LineString","coordinates":[[-106.62795,39.42714],[-106.62759,39.42832],[-106.6276,39.42855],[-106.62773,39.42885],[-106.62764,39.42943],[-106.62774,39.42953]]}},{"type":"Feature","properties":{"mtfcc_code":"S1500"},"geometry":{"type":"LineString","coordinates":[[-106.62817,39.42854],[-106.62924,39.42838]]}},{"type":"Feature","properties":{"mtfcc_code":"S1500"},"geometry":{"type":"LineString","coordinates":[[-106.62774,39.42953],[-106.62783,39.42948],[-106.62777,39.42916],[-106.6278,39.42899],[-106.62817,39.42854]]}},{"type":"Feature","properties":{"name":"WOODS LAKE SPECIAL USE L","mtfcc_code":"S1500"},"geometry":{"type":"LineString","coordinates":[[-106.62175,39.43214],[-106.62115,39.43313]]}},{"type":"Feature","properties":{"name":"WOODS LAKE SPECIAL USE L","mtfcc_code":"S1500"},"geometry":{"type":"LineString","coordinates":[[-106.62795,39.42714],[-106.6274,39.42766],[-106.62687,39.42787],[-106.62617,39.42839],[-106.626,39.42877],[-106.62473,39.42903],[-106.62402,39.42981],[-106.62396,39.43034]]}},{"type":"Feature","properties":{"name":"WOODS LAKE SPECIAL USE L","mtfcc_code":"S1500"},"geometry":{"type":"LineString","coordinates":[[-106.62396,39.43034],[-106.62368,39.43103],[-106.62338,39.43116],[-106.62308,39.43121]]}},{"type":"Feature","properties":{"name":"WOODS LAKE SPECIAL USE L","mtfcc_code":"S1500"},"geometry":{"type":"LineString","coordinates":[[-106.62308,39.43121],[-106.62273,39.43125],[-106.62256,39.43134],[-106.62184,39.43199],[-106.62175,39.43214]]}},{"type":"Feature","properties":{"name":"SMITH CREEK","mtfcc_code":"S1500"},"geometry":{"type":"LineString","coordinates":[[-106.77779,39.37751],[-106.77791,39.37766],[-106.77821,39.37782],[-106.77816,39.37804],[-106.77826,39.37822],[-106.77819,39.37838],[-106.77798,39.37849],[-106.77778,39.37871],[-106.77775,39.3793],[-106.77768,39.37952],[-106.77779,39.37981],[-106.77818,39.38026],[-106.77924,39.38102],[-106.77954,39.38135],[-106.77962,39.38161],[-106.77963,39.38197],[-106.77938,39.38308],[-106.77922,39.38337],[-106.77895,39.3836],[-106.77775,39.38414],[-106.77731,39.38444],[-106.77721,39.38465],[-106.77712,39.38523],[-106.77703,39.38539],[-106.77685,39.3855],[-106.7762,39.38571],[-106.77601,39.38593],[-106.77582,39.3864],[-106.77552,39.38769],[-106.77522,39.38827],[-106.7748,39.3887],[-106.7741,39.38901],[-106.77259,39.3906],[-106.77227,39.3927],[-106.77163,39.39366],[-106.77123,39.39384],[-106.77105,39.39412],[-106.77104,39.39511],[-106.77116,39.39784],[-106.77097,39.39832],[-106.77067,39.39847],[-106.7701,39.39859]]}},{"type":"Feature","properties":{"name":"SMITH CREEK","mtfcc_code":"S1500"},"geometry":{"type":"LineString","coordinates":[[-106.78585,39.36759],[-106.78578,39.36758]]}},{"type":"Feature","properties":{"name":"SMITH CREEK","mtfcc_code":"S1500"},"geometry":{"type":"LineString","coordinates":[[-106.78578,39.36758],[-106.78552,39.3672],[-106.78512,39.36739],[-106.78469,39.36737],[-106.78372,39.36697],[-106.783,39.36685],[-106.78282,39.36684],[-106.78271,39.3669],[-106.78284,39.3671],[-106.78283,39.36722],[-106.78264,39.36733],[-106.78232,39.3674],[-106.78146,39.36737],[-106.78087,39.36695],[-106.78062,39.36688],[-106.78035,39.36692],[-106.78008,39.3671],[-106.77981,39.36763],[-106.77955,39.36855],[-106.77979,39.36894],[-106.77979,39.36927],[-106.77914,39.36974],[-106.7791,39.36989],[-106.77915,39.37013],[-106.77938,39.37063],[-106.77941,39.37095],[-106.77969,39.37141],[-106.77969,39.37164],[-106.7794,39.372],[-106.77908,39.37255],[-106.77908,39.37315],[-106.77878,39.37415],[-106.77859,39.37427],[-106.77847,39.37452],[-106.7782,39.37477],[-106.77764,39.3757],[-106.77755,39.37628],[-106.77779,39.37703],[-106.77787,39.37708],[-106.77779,39.37751]]}},{"type":"Feature","properties":{"name":"SPRING CREEK","mtfcc_code":"S1500"},"geometry":{"type":"LineString","coordinates":[[-106.69616,39.3904],[-106.69619,39.39007]]}},{"type":"Feature","properties":{"name":"SPRING CREEK","mtfcc_code":"S1500"},"geometry":{"type":"LineString","coordinates":[[-106.69619,39.39007],[-106.6964,39.3878],[-106.69602,39.38695],[-106.69642,39.38599]]}}]}