{"type":"FeatureCollection","features":[{"type":"Feature","properties":{"name":"Meredith","kind":"place"},"geometry":{"type":"Point","coordinates":[-106.73005,39.36305]}},{"type":"Feature","properties":{"name":"Thomasville","kind":"place"},"geometry":{"type":"Point","coordinates":[-106.70255,39.36027]}},{"type":"Feature","properties":{"name":"Norrie","kind":"place"},"geometry":{"type":"Point","coordinates":[-106.6556,39.32471]}},{"type":"Feature","properties":{"name":"Nast","kind":"place"},"geometry":{"type":"Point","coordinates":[-106.60143,39.29166]}},{"type":"Feature","properties":{"name":"Biglow","kind":"place"},"geometry":{"type":"Point","coordinates":[-106.66727,39.3436]}},{"type":"Feature","properties":{"name":"Norrie Census Designated Place","kind":"place"},"geometry":{"type":"Point","coordinates":[-106.65629,39.32814]}},{"type":"Feature","properties":{"name":"Sellar Peak","kind":"summit","ft":12068},"geometry":{"type":"Point","coordinates":[-106.5636,39.31172]}},{"type":"Feature","properties":{"name":"Sneve Gulch","kind":"land"},"geometry":{"type":"Point","coordinates":[-106.73474,39.48124]}},{"type":"Feature","properties":{"name":"Lamont Pasture","kind":"land"},"geometry":{"type":"Point","coordinates":[-106.66949,39.31527]}},{"type":"Feature","properties":{"name":"Leeman Gulch","kind":"land"},"geometry":{"type":"Point","coordinates":[-106.72627,39.46664]}},{"type":"Feature","properties":{"name":"Burnt Mountain","kind":"summit","ft":11174},"geometry":{"type":"Point","coordinates":[-106.62809,39.38471]}},{"type":"Feature","properties":{"name":"Missouri Pass","kind":"land"},"geometry":{"type":"Point","coordinates":[-106.51688,39.40348]}},{"type":"Feature","properties":{"name":"Trentaz Gulch","kind":"land"},"geometry":{"type":"Point","coordinates":[-106.88073,39.25478]}},{"type":"Feature","properties":{"name":"Coffeepot Park","kind":"land"},"geometry":{"type":"Point","coordinates":[-106.5754,39.37498]}},{"type":"Feature","properties":{"name":"Schoolhouse Gulch","kind":"land"},"geometry":{"type":"Point","coordinates":[-106.87008,39.4972]}},{"type":"Feature","properties":{"name":"Kobey Park","kind":"land"},"geometry":{"type":"Point","coordinates":[-106.79227,39.30221]}},{"type":"Feature","properties":{"name":"Mount Yeckel","kind":"summit","ft":11755},"geometry":{"type":"Point","coordinates":[-106.69991,39.28658]}},{"type":"Feature","properties":{"name":"Red Canyon","kind":"land"},"geometry":{"type":"Point","coordinates":[-106.89636,39.2996]}},{"type":"Feature","properties":{"name":"Ford Peak","kind":"summit","ft":10392},"geometry":{"type":"Point","coordinates":[-106.79331,39.34373]}},{"type":"Feature","properties":{"name":"Sawmill Park","kind":"land"},"geometry":{"type":"Point","coordinates":[-106.69199,39.27944]}},{"type":"Feature","properties":{"name":"Teetum Ridge","kind":"land"},"geometry":{"type":"Point","coordinates":[-106.67581,39.29931]}},{"type":"Feature","properties":{"name":"Montgomery Flats","kind":"land"},"geometry":{"type":"Point","coordinates":[-106.65893,39.35749]}},{"type":"Feature","properties":{"name":"Slim Jim Gulch","kind":"land"},"geometry":{"type":"Point","coordinates":[-106.6555,39.40655]}},{"type":"Feature","properties":{"name":"Suicide Gulch","kind":"land"},"geometry":{"type":"Point","coordinates":[-106.70463,39.36361]}},{"type":"Feature","properties":{"name":"Gold Dust Basin","kind":"land"},"geometry":{"type":"Point","coordinates":[-106.62004,39.4786]}},{"type":"Feature","properties":{"name":"Chapman Gulch","kind":"land"},"geometry":{"type":"Point","coordinates":[-106.63752,39.30423]}},{"type":"Feature","properties":{"name":"Saloon Gulch","kind":"land"},"geometry":{"type":"Point","coordinates":[-106.86154,39.36941]}},{"type":"Feature","properties":{"name":"Gold Dust Peak","kind":"summit","ft":13353},"geometry":{"type":"Point","coordinates":[-106.5946,39.47894]}},{"type":"Feature","properties":{"name":"Tellurium Park","kind":"land"},"geometry":{"type":"Point","coordinates":[-106.60949,39.39527]}},{"type":"Feature","properties":{"name":"Stockyard Gulch","kind":"land"},"geometry":{"type":"Point","coordinates":[-106.75321,39.3612]}},{"type":"Feature","properties":{"name":"Mount Nast","kind":"summit","ft":12468},"geometry":{"type":"Point","coordinates":[-106.61174,39.25118]}},{"type":"Feature","properties":{"name":"Larkspur Mountain","kind":"summit","ft":11448},"geometry":{"type":"Point","coordinates":[-106.75354,39.27289]}},{"type":"Feature","properties":{"name":"Mount Thomas","kind":"summit","ft":11972},"geometry":{"type":"Point","coordinates":[-106.74358,39.4196]}},{"type":"Feature","properties":{"name":"Savage Peak","kind":"summit","ft":13108},"geometry":{"type":"Point","coordinates":[-106.52022,39.38032]}},{"type":"Feature","properties":{"name":"Conroy Gulch","kind":"land"},"geometry":{"type":"Point","coordinates":[-106.74846,39.35588]}},{"type":"Feature","properties":{"name":"Williams Mountains","kind":"range"},"geometry":{"type":"Point","coordinates":[-106.63263,39.1674]}},{"type":"Feature","properties":{"name":"Craig Peak","kind":"summit","ft":11892},"geometry":{"type":"Point","coordinates":[-106.63816,39.49582]}},{"type":"Feature","properties":{"name":"Middle Mountain","kind":"summit","ft":12589},"geometry":{"type":"Point","coordinates":[-106.52437,39.44063]}},{"type":"Feature","properties":{"name":"Continental Divide","kind":"land"},"geometry":{"type":"Point","coordinates":[-106.59726,39.00028]}},{"type":"Feature","properties":{"name":"Bessie Park","kind":"land"},"geometry":{"type":"Point","coordinates":[-106.70755,39.35333]}},{"type":"Feature","properties":{"name":"Dry Gulch","kind":"land"},"geometry":{"type":"Point","coordinates":[-106.81366,39.37621]}},{"type":"Feature","properties":{"name":"Snyder Gulch","kind":"land"},"geometry":{"type":"Point","coordinates":[-106.84657,39.36258]}},{"type":"Feature","properties":{"name":"Borah Gulch","kind":"land"},"geometry":{"type":"Point","coordinates":[-106.74506,39.48513]}},{"type":"Feature","properties":{"name":"Nelson Gulch","kind":"land"},"geometry":{"type":"Point","coordinates":[-106.70324,39.36633]}},{"type":"Feature","properties":{"name":"Burke Gulch","kind":"land"},"geometry":{"type":"Point","coordinates":[-106.86573,39.36896]}},{"type":"Feature","properties":{"name":"Crowley Point","kind":"summit","ft":9041},"geometry":{"type":"Point","coordinates":[-106.71139,39.37198]}},{"type":"Feature","properties":{"name":"Dry Gulch","kind":"land"},"geometry":{"type":"Point","coordinates":[-106.84163,39.49371]}},{"type":"Feature","properties":{"name":"Lime Creek Canyon","kind":"land"},"geometry":{"type":"Point","coordinates":[-106.67976,39.36284]}},{"type":"Feature","properties":{"name":"Negro Basin","kind":"land"},"geometry":{"type":"Point","coordinates":[-106.60115,39.4711]}},{"type":"Feature","properties":{"name":"Wildcat Mountain","kind":"summit","ft":12096},"geometry":{"type":"Point","coordinates":[-106.54272,39.27942]}},{"type":"Feature","properties":{"name":"Red Table Mountain","kind":"summit","ft":12042},"geometry":{"type":"Point","coordinates":[-106.77105,39.41815]}},{"type":"Feature","properties":{"name":"Hell Gap","kind":"land"},"geometry":{"type":"Point","coordinates":[-106.55421,39.28999]}},{"type":"Feature","properties":{"name":"Corral Gulch","kind":"land"},"geometry":{"type":"Point","coordinates":[-106.65937,39.4121]}},{"type":"Feature","properties":{"name":"Sellar Park","kind":"land"},"geometry":{"type":"Point","coordinates":[-106.6056,39.31916]}},{"type":"Feature","properties":{"name":"Lime Park","kind":"land"},"geometry":{"type":"Point","coordinates":[-106.65504,39.40971]}},{"type":"Feature","properties":{"name":"Avalanche Peak","kind":"summit","ft":12791},"geometry":{"type":"Point","coordinates":[-106.58022,39.41608]}},{"type":"Feature","properties":{"name":"Foster Gulch","kind":"land"},"geometry":{"type":"Point","coordinates":[-106.65257,39.29385]}},{"type":"Feature","properties":{"name":"Eagle Peak","kind":"summit","ft":13009},"geometry":{"type":"Point","coordinates":[-106.58136,39.44534]}},{"type":"Feature","properties":{"name":"Twin Meadows","kind":"land"},"geometry":{"type":"Point","coordinates":[-106.65254,39.30027]}},{"type":"Feature","properties":{"name":"Mount Eve","kind":"summit","ft":11155},"geometry":{"type":"Point","coordinates":[-106.70157,39.49234]}},{"type":"Feature","properties":{"name":"Crooked Creek Pass","kind":"land"},"geometry":{"type":"Point","coordinates":[-106.68532,39.44138]}},{"type":"Feature","properties":{"name":"Crooked Creek Park","kind":"land"},"geometry":{"type":"Point","coordinates":[-106.66227,39.4311]}},{"type":"Feature","properties":{"name":"Henderson Park","kind":"land"},"geometry":{"type":"Point","coordinates":[-106.57532,39.36888]}},{"type":"Feature","properties":{"name":"Vagneur Mountain","kind":"summit","ft":10373},"geometry":{"type":"Point","coordinates":[-106.81848,39.28317]}},{"type":"Feature","properties":{"name":"Alkali Gulch","kind":"land"},"geometry":{"type":"Point","coordinates":[-106.75026,39.49194]}},{"type":"Feature","properties":{"name":"Mount Jackson","kind":"summit","ft":13673},"geometry":{"type":"Point","coordinates":[-106.53666,39.4853]}},{"type":"Feature","properties":{"name":"Fancy Pass","kind":"land"},"geometry":{"type":"Point","coordinates":[-106.50643,39.41055]}},{"type":"Feature","properties":{"name":"Sawatch Range","kind":"range"},"geometry":{"type":"Point","coordinates":[-106.44534,39.11774]}},{"type":"Feature","properties":{"name":"Bear Gulch","kind":"land"},"geometry":{"type":"Point","coordinates":[-106.75346,39.49738]}},{"type":"Feature","properties":{"name":"Holy Cross Ridge","kind":"land"},"geometry":{"type":"Point","coordinates":[-106.48192,39.46665]}},{"type":"Feature","properties":{"name":"Bear Gulch","kind":"land"},"geometry":{"type":"Point","coordinates":[-106.81962,39.48291]}},{"type":"Feature","properties":{"name":"Cyclone Mountain","kind":"summit","ft":10462},"geometry":{"type":"Point","coordinates":[-106.70405,39.32236]}},{"type":"Feature","properties":{"name":"Hanson Gulch","kind":"land"},"geometry":{"type":"Point","coordinates":[-106.80465,39.37053]}},{"type":"Feature","properties":{"name":"Middle Gulch","kind":"land"},"geometry":{"type":"Point","coordinates":[-106.70312,39.36888]}},{"type":"Feature","properties":{"name":"Fools Peak","kind":"summit","ft":12934},"geometry":{"type":"Point","coordinates":[-106.59945,39.45082]}},{"type":"Feature","properties":{"name":"Yeoman Park","kind":"land"},"geometry":{"type":"Point","coordinates":[-106.6756,39.50277]}},{"type":"Feature","properties":{"name":"Fence Gulch","kind":"land"},"geometry":{"type":"Point","coordinates":[-106.86004,39.4948]}},{"type":"Feature","properties":{"name":"Red Hill","kind":"summit","ft":9122},"geometry":{"type":"Point","coordinates":[-106.83192,39.37636]}},{"type":"Feature","properties":{"name":"Gyp Hill","kind":"summit","ft":8802},"geometry":{"type":"Point","coordinates":[-106.79741,39.37809]}},{"type":"Feature","properties":{"name":"Riley Mountain","kind":"summit","ft":10353},"geometry":{"type":"Point","coordinates":[-106.69422,39.33074]}},{"type":"Feature","properties":{"name":"Alldred Spring","kind":"spring"},"geometry":{"type":"Point","coordinates":[-106.82197,39.48926]}},{"type":"Feature","properties":{"name":"Billings Spring","kind":"spring"},"geometry":{"type":"Point","coordinates":[-106.6869,39.44146]}},{"type":"Feature","properties":{"name":"Adam Mountain Spring","kind":"spring"},"geometry":{"type":"Point","coordinates":[-106.74847,39.49129]}},{"type":"Feature","properties":{"name":"Soap Spring","kind":"spring"},"geometry":{"type":"Point","coordinates":[-106.7338,39.48498]}},{"type":"Feature","properties":{"name":"Fulford Cave Spring","kind":"spring"},"geometry":{"type":"Point","coordinates":[-106.65537,39.49416]}},{"type":"Feature","properties":{"name":"Caliente Spring","kind":"spring"},"geometry":{"type":"Point","coordinates":[-106.66057,39.49628]}},{"type":"Feature","properties":{"name":"Antones Spring","kind":"spring"},"geometry":{"type":"Point","coordinates":[-106.75875,39.46219]}}]}