{"type":"FeatureCollection","features":[{"type":"Feature","properties":{"name":"Little Mattie Campground","kind":"campground"},"geometry":{"type":"Point","coordinates":[-106.807481,39.376755]}},{"type":"Feature","properties":{"name":"Crooked Creek Pass / Sylvan Lake","kind":"rec"},"geometry":{"type":"Point","coordinates":[-106.72786,39.478313]}},{"type":"Feature","properties":{"name":"Eagle - Thomasville Road","kind":"rec","trail_no":"400"},"geometry":{"type":"Point","coordinates":[-106.73035,39.480433]}},{"type":"Feature","properties":{"name":"Freeman Mesa Picnic Site","kind":"picnic"},"geometry":{"type":"Point","coordinates":[-106.777963,39.36207]}},{"type":"Feature","properties":{"name":"Holy Cross Wilderness - White River","kind":"wilderness"},"geometry":{"type":"Point","coordinates":[-106.511856,39.448602]}},{"type":"Feature","properties":{"name":"Aspen-Norrie TH","kind":"trailhead","trail_no":"1927","trail":"ASPEN-NORRIE"},"geometry":{"type":"Point","coordinates":[-106.65301,39.302981]}},{"type":"Feature","properties":{"name":"Chapman Campground and Group Campground","kind":"campground"},"geometry":{"type":"Point","coordinates":[-106.63307,39.308336]}},{"type":"Feature","properties":{"name":"Black Bess Picnic Site","kind":"picnic"},"geometry":{"type":"Point","coordinates":[-106.744087,39.359337]}},{"type":"Feature","properties":{"name":"Chapman Gulch TH","kind":"trailhead","trail_no":"1920","trail":"CHAPMAN GULCH"},"geometry":{"type":"Point","coordinates":[-106.63001,39.2631]}},{"type":"Feature","properties":{"name":"Chapman Lake","kind":"rec","trail_no":"1923","trail":"CHAPMAN LAKE"},"geometry":{"type":"Point","coordinates":[-106.63601,39.285545]}},{"type":"Feature","properties":{"name":"Dearhamer Campground","kind":"campground"},"geometry":{"type":"Point","coordinates":[-106.7387,39.360886]}},{"type":"Feature","properties":{"name":"Elk Wallow Campground","kind":"campground"},"geometry":{"type":"Point","coordinates":[-106.613728,39.343949]}},{"type":"Feature","properties":{"name":"Last Chance TH","kind":"trailhead","trail_no":"1945","trail":"LAST CHANCE CREEK"},"geometry":{"type":"Point","coordinates":[-106.63301,39.365402]}},{"type":"Feature","properties":{"name":"Granite Lake TH","kind":"trailhead","trail_no":"1922","trail":"GRANITE LAKE"},"geometry":{"type":"Point","coordinates":[-106.60301,39.294804]}},{"type":"Feature","properties":{"name":"Henderson Park TH","kind":"trailhead","trail_no":"1972"},"geometry":{"type":"Point","coordinates":[-106.587571,39.349971]}},{"type":"Feature","properties":{"name":"Josephine Lake TH","kind":"trailhead","trail_no":"1916","trail":"JOSEPHINE LAKE"},"geometry":{"type":"Point","coordinates":[-106.583013,39.378791]}},{"type":"Feature","properties":{"name":"Antones","kind":"rec","trail_no":"1871","trail":"ANTONES"},"geometry":{"type":"Point","coordinates":[-106.776121,39.46695]}},{"type":"Feature","properties":{"name":"Lyle/Morman Lake TH","kind":"trailhead","trail_no":"1919","trail":"LYLE LAKE"},"geometry":{"type":"Point","coordinates":[-106.52701,39.291942]}},{"type":"Feature","properties":{"name":"Little Maud Campground","kind":"campground"},"geometry":{"type":"Point","coordinates":[-106.81576,39.377081]}},{"type":"Feature","properties":{"name":"Miller Divide","kind":"rec","trail_no":"1930"},"geometry":{"type":"Point","coordinates":[-106.738461,39.357959]}},{"type":"Feature","properties":{"name":"Fulford Cave Campground","kind":"campground"},"geometry":{"type":"Point","coordinates":[-106.658899,39.49195]}},{"type":"Feature","properties":{"name":"Fulford Cave TH","kind":"trailhead","trail_no":"1875","trail":"FULFORD CAVE"},"geometry":{"type":"Point","coordinates":[-106.658481,39.492357]}},{"type":"Feature","properties":{"name":"Mollie B Campground","kind":"campground"},"geometry":{"type":"Point","coordinates":[-106.8139,39.376676]}},{"type":"Feature","properties":{"name":"Rocky Fork Picnic Site","kind":"picnic"},"geometry":{"type":"Point","coordinates":[-106.82538,39.365186]}},{"type":"Feature","properties":{"name":"Rocky Fork TH","kind":"trailhead","trail_no":"1931","trail":"ROCKY FORK"},"geometry":{"type":"Point","coordinates":[-106.81901,39.356394]}},{"type":"Feature","properties":{"name":"Ironedge TH","kind":"trailhead","trail_no":"1873","trail":"IRONEDGE"},"geometry":{"type":"Point","coordinates":[-106.657451,39.491902]}},{"type":"Feature","properties":{"name":"Lake Charles TH","kind":"trailhead","trail_no":"1899","trail":"LAKE CHARLES"},"geometry":{"type":"Point","coordinates":[-106.658304,39.492303]}},{"type":"Feature","properties":{"name":"Lost Lake TH","kind":"trailhead","trail_no":"2224","trail":"LOST LAKE"},"geometry":{"type":"Point","coordinates":[-106.795903,39.471986]}},{"type":"Feature","properties":{"name":"Ruedi Marina Boat Ramp","kind":"rec"},"geometry":{"type":"Point","coordinates":[-106.811399,39.37195]}},{"type":"Feature","properties":{"name":"Ruedi Marina Campground","kind":"campground","open":"May","close":"Early Oct."},"geometry":{"type":"Point","coordinates":[-106.813188,39.373721]}},{"type":"Feature","properties":{"name":"Mount Thomas TH","kind":"trailhead","trail_no":"1870","trail":"MOUNT THOMAS"},"geometry":{"type":"Point","coordinates":[-106.685757,39.438519]}},{"type":"Feature","properties":{"name":"Savage Lakes","kind":"rec","trail_no":"1918","trail":"SAVAGE LAKES"},"geometry":{"type":"Point","coordinates":[-106.54101,39.359231]}},{"type":"Feature","properties":{"name":"Ruedi Overlook","kind":"rec","trail_no":"1912","trail":"RUEDI OVERLOOK"},"geometry":{"type":"Point","coordinates":[-106.81701,39.375797]}},{"type":"Feature","properties":{"name":"Sawyer Lake","kind":"rec","trail_no":"1926","trail":"SAWYER LAKE"},"geometry":{"type":"Point","coordinates":[-106.65201,39.299218]}},{"type":"Feature","properties":{"name":"South Fork Fryingpan","kind":"rec","trail_no":"1922","trail":"GRANITE LAKE"},"geometry":{"type":"Point","coordinates":[-106.603072,39.2947]}},{"type":"Feature","properties":{"name":"Sneve Gulch TH","kind":"trailhead","trail_no":"1872","trail":"SNEVE GULCH"},"geometry":{"type":"Point","coordinates":[-106.732878,39.481394]}},{"type":"Feature","properties":{"name":"Tellurium Lake TH","kind":"trailhead","trail_no":"1917","trail":"TELLURIUM LAKE"},"geometry":{"type":"Point","coordinates":[-106.64901,39.379736]}}]}