{"type": "FeatureCollection", "features": [{"type": "Feature", "properties": {"rank": 1, "acres": 320, "span_mi": 1.59, "lat": 39.388080592651264, "lon": -106.73397703942594, "ft_lo": 8809, "ft_hi": 10608, "ft_mean": 9696, "canopy": 50, "road_m": 2200, "forage": "Aspen", "bed": 0.782, "feed": 0.71, "water": 0.867, "sec": 0.993, "score": 0.776, "on_hotspot_pct": 99, "on_red_pct": 51, "walk_h": 1.4, "round_h": 2.7, "trail_pct": 0, "confidence": "agrees with the old hotspot layer"}, "geometry": {"type": "Polygon", "coordinates": [[[-106.743346, 39.399248], [-106.743246, 39.398948], [-106.742945, 39.398848], [-106.742745, 39.399048], [-106.742345, 39.399048], [-106.742245, 39.398748], [-106.742245, 39.398347], [-106.742345, 39.398047], [-106.742645, 39.397947], [-106.742645, 39.397546], [-106.742345, 39.397446], [-106.741945, 39.397446], [-106.741844, 39.397747], [-106.741744, 39.398047], [-106.741344, 39.398047], [-106.741144, 39.398247], [-106.740944, 39.398447], [-106.740643, 39.398548], [-106.740443, 39.398548], [-106.740243, 39.398347], [-106.740243, 39.397947], [-106.740243, 39.397546], [-106.740143, 39.397246], [-106.740143, 39.397046], [-106.740143, 39.396845], [-106.740043, 39.396545], [-106.739843, 39.396345], [-106.739743, 39.396045], [-106.739643, 39.395744], [-106.739843, 39.395544], [-106.739643, 39.395544], [-106.739442, 39.395544], [-106.739542, 39.395244], [-106.739542, 39.395043], [-106.739442, 39.394743], [-106.739442, 39.394342], [-106.739743, 39.394242], [-106.739843, 39.393942], [-106.740143, 39.393842], [-106.740443, 39.393742], [-106.740643, 39.393542], [-106.740443, 39.393341], [-106.740243, 39.393141], [-106.740043, 39.392941], [-106.740243, 39.392741], [-106.740243, 39.39234], [-106.739943, 39.39224], [-106.739643, 39.39214], [-106.739943, 39.39204], [-106.740343, 39.39204], [-106.740643, 39.39194], [-106.740744, 39.391639], [-106.740944, 39.391439], [-106.741244, 39.391339], [-106.741244, 39.390938], [-106.741044, 39.390738], [-106.740744, 39.390638], [-106.740543, 39.390438], [-106.740343, 39.390238], [-106.740143, 39.390037], [-106.739843, 39.389937], [-106.739643, 39.389737], [-106.739542, 39.389437], [-106.739142, 39.389437], [-106.738942, 39.389236], [-106.738542, 39.389236], [-106.738141, 39.389236], [-106.737941, 39.389036], [-106.737741, 39.389236], [-106.737341, 39.389236], [-106.73714, 39.389437], [-106.73674, 39.389437], [-106.73654, 39.389236], [-106.73644, 39.389537], [-106.73634, 39.389837], [-106.73624, 39.390137], [-106.73624, 39.390538], [-106.73614, 39.390838], [-106.735839, 39.390938], [-106.735539, 39.391039], [-106.735239, 39.391139], [-106.735039, 39.391139], [-106.734738, 39.391039], [-106.734438, 39.391139], [-106.734138, 39.391239], [-106.733737, 39.391239], [-106.733537, 39.391039], [-106.733137, 39.391039], [-106.732837, 39.390938], [-106.732636, 39.390738], [-106.732636, 39.390338], [-106.732536, 39.390037], [-106.732336, 39.390238], [-106.731936, 39.390238], [-106.731636, 39.390137], [-106.731636, 39.389737], [-106.731536, 39.389437], [-106.731135, 39.389437], [-106.730935, 39.389236], [-106.730535, 39.389236], [-106.730234, 39.389336], [-106.729934, 39.389437], [-106.729634, 39.389336], [-106.729334, 39.389236], [-106.729033, 39.389336], [-106.728833, 39.389336], [-106.728733, 39.389036], [-106.728333, 39.389036], [-106.728032, 39.388936], [-106.727832, 39.388936], [-106.727532, 39.389036], [-106.727232, 39.388936], [-106.727132, 39.388636], [-106.726932, 39.388836], [-106.726631, 39.388736], [-106.726431, 39.388536], [-106.726431, 39.388135], [-106.726131, 39.388035], [-106.725831, 39.387935], [-106.72563, 39.387935], [-106.72543, 39.387935], [-106.72513, 39.387835], [-106.72503, 39.387534], [-106.72483, 39.387534], [-106.72463, 39.387534], [-106.72463, 39.387134], [-106.724429, 39.387134], [-106.724229, 39.387134], [-106.724129, 39.386833], [-106.724029, 39.387134], [-106.724229, 39.387334], [-106.723929, 39.387434], [-106.723629, 39.387334], [-106.723529, 39.387034], [-106.723328, 39.386833], [-106.723128, 39.387034], [-106.722728, 39.387034], [-106.722528, 39.386833], [-106.722127, 39.386833], [-106.721927, 39.386633], [-106.721827, 39.386333], [-106.721627, 39.386133], [-106.721327, 39.386033], [-106.721327, 39.385832], [-106.721627, 39.385732], [-106.721827, 39.385532], [-106.721827, 39.385131], [-106.721627, 39.384931], [-106.721327, 39.384831], [-106.721227, 39.384531], [-106.721427, 39.38433], [-106.721227, 39.38413], [-106.721527, 39.38403], [-106.721727, 39.38423], [-106.722127, 39.38423], [-106.722528, 39.38423], [-106.722728, 39.38403], [-106.722828, 39.38433], [-106.723128, 39.384431], [-106.723228, 39.384731], [-106.723428, 39.384931], [-106.723328, 39.385232], [-106.722928, 39.385232], [-106.722628, 39.385332], [-106.722728, 39.385632], [-106.723128, 39.385632], [-106.723529, 39.385632], [-106.723929, 39.385632], [-106.724329, 39.385632], [-106.72463, 39.385732], [-106.724329, 39.385832], [-106.724229, 39.386133], [-106.724229, 39.386533], [-106.724529, 39.386633], [-106.72493, 39.386633], [-106.72533, 39.386633], [-106.72543, 39.386333], [-106.72563, 39.386333], [-106.725931, 39.386433], [-106.726231, 39.386333], [-106.726031, 39.386133], [-106.726031, 39.385732], [-106.726231, 39.385532], [-106.726031, 39.385332], [-106.725931, 39.385031], [-106.72553, 39.385031], [-106.72513, 39.385031], [-106.72493, 39.384831], [-106.72483, 39.384531], [-106.72473, 39.38423], [-106.724529, 39.384431], [-106.724129, 39.384431], [-106.723829, 39.38433], [-106.723529, 39.38423], [-106.723428, 39.38393], [-106.723328, 39.38363], [-106.722928, 39.38363], [-106.722728, 39.383429], [-106.722428, 39.383329], [-106.722227, 39.383129], [-106.722528, 39.383029], [-106.722828, 39.382929], [-106.722828, 39.382528], [-106.722728, 39.382228], [-106.722528, 39.382428], [-106.722227, 39.382328], [-106.722027, 39.382128], [-106.721927, 39.381827], [-106.721927, 39.381627], [-106.722027, 39.381327], [-106.722227, 39.381327], [-106.722528, 39.381427], [-106.722828, 39.381527], [-106.723128, 39.381627], [-106.723328, 39.381827], [-106.723729, 39.381827], [-106.724129, 39.381827], [-106.724329, 39.382028], [-106.724329, 39.381827], [-106.724229, 39.381527], [-106.724329, 39.381227], [-106.72463, 39.381127], [-106.72463, 39.380726], [-106.72483, 39.380526], [-106.72483, 39.380125], [-106.72463, 39.379925], [-106.72473, 39.379625], [-106.72503, 39.379525], [-106.72473, 39.379425], [-106.72473, 39.379224], [-106.72513, 39.379224], [-106.72553, 39.379224], [-106.72573, 39.379024], [-106.725931, 39.378824], [-106.726131, 39.378624], [-106.726531, 39.378624], [-106.726631, 39.378323], [-106.726331, 39.378223], [-106.726231, 39.377923], [-106.726231, 39.377522], [-106.726331, 39.377222], [-106.726531, 39.377022], [-106.726631, 39.376721], [-106.726731, 39.376421], [-106.727032, 39.376321], [-106.727332, 39.376221], [-106.727632, 39.376121], [-106.727832, 39.37592], [-106.728032, 39.37592], [-106.728032, 39.376321], [-106.727832, 39.376521], [-106.727832, 39.376922], [-106.727932, 39.377222], [-106.727932, 39.377422], [-106.727832, 39.377723], [-106.727832, 39.378123], [-106.727732, 39.378423], [-106.727632, 39.378724], [-106.727432, 39.378924], [-106.727132, 39.379024], [-106.727132, 39.379224], [-106.727432, 39.379324], [-106.727232, 39.379525], [-106.727032, 39.379725], [-106.727032, 39.380125], [-106.726831, 39.380326], [-106.726831, 39.380726], [-106.726631, 39.380926], [-106.726831, 39.381127], [-106.726631, 39.381327], [-106.726731, 39.381627], [-106.726932, 39.381427], [-106.727132, 39.381227], [-106.727332, 39.381027], [-106.727532, 39.380826], [-106.727932, 39.380826], [-106.728133, 39.380626], [-106.728433, 39.380726], [-106.728433, 39.381127], [-106.728133, 39.381227], [-106.727732, 39.381227], [-106.727632, 39.381527], [-106.727532, 39.381827], [-106.727232, 39.381928], [-106.726932, 39.382028], [-106.726631, 39.382128], [-106.726932, 39.382228], [-106.727032, 39.382528], [-106.727132, 39.382829], [-106.727532, 39.382829], [-106.727832, 39.382929], [-106.728032, 39.383129], [-106.728333, 39.383229], [-106.728533, 39.383429], [-106.728833, 39.383329], [-106.729033, 39.383129], [-106.729133, 39.382829], [-106.729534, 39.382829], [-106.729834, 39.382929], [-106.730134, 39.383029], [-106.730334, 39.382829], [-106.730735, 39.382829], [-106.731135, 39.382829], [-106.731536, 39.382829], [-106.731736, 39.383029], [-106.732036, 39.382929], [-106.732136, 39.382628], [-106.732536, 39.382628], [-106.732937, 39.382628], [-106.733337, 39.382628], [-106.733637, 39.382729], [-106.733938, 39.382829], [-106.734138, 39.383029], [-106.734538, 39.383029], [-106.734838, 39.383129], [-106.734938, 39.383429], [-106.735239, 39.38353], [-106.735339, 39.38383], [-106.735439, 39.38413], [-106.735639, 39.38433], [-106.735439, 39.384531], [-106.735539, 39.384831], [-106.735639, 39.384531], [-106.735839, 39.384531], [-106.735839, 39.384931], [-106.736039, 39.385131], [-106.73614, 39.385432], [-106.73644, 39.385532], [-106.73634, 39.385832], [-106.73624, 39.386133], [-106.73654, 39.386233], [-106.73674, 39.386033], [-106.73704, 39.386133], [-106.73704, 39.386533], [-106.73684, 39.386733], [-106.73704, 39.386733], [-106.73724, 39.386733], [-106.73714, 39.387034], [-106.73704, 39.387334], [-106.73724, 39.387334], [-106.737341, 39.387034], [-106.737741, 39.387034], [-106.737941, 39.387234], [-106.738341, 39.387234], [-106.738542, 39.387434], [-106.738942, 39.387434], [-106.739242, 39.387534], [-106.739542, 39.387634], [-106.739943, 39.387634], [-106.740143, 39.387835], [-106.740443, 39.387935], [-106.740343, 39.388235], [-106.739943, 39.388235], [-106.739643, 39.388135], [-106.739442, 39.388135], [-106.739542, 39.388435], [-106.739943, 39.388435], [-106.740243, 39.388536], [-106.740543, 39.388636], [-106.740944, 39.388636], [-106.741244, 39.388536], [-106.741344, 39.388235], [-106.741544, 39.388435], [-106.741844, 39.388536], [-106.742145, 39.388636], [-106.742345, 39.388836], [-106.742645, 39.388936], [-106.742845, 39.389136], [-106.743046, 39.389336], [-106.743246, 39.389537], [-106.743446, 39.389737], [-106.743546, 39.390037], [-106.743546, 39.390238], [-106.743246, 39.390338], [-106.743446, 39.390538], [-106.743446, 39.390938], [-106.743546, 39.391239], [-106.743646, 39.390938], [-106.743646, 39.390538], [-106.743846, 39.390538], [-106.744046, 39.390738], [-106.744146, 39.391039], [-106.744247, 39.391339], [-106.743946, 39.391439], [-106.743646, 39.391539], [-106.743846, 39.391739], [-106.743946, 39.39204], [-106.744146, 39.39224], [-106.744447, 39.39214], [-106.744647, 39.39214], [-106.744547, 39.39244], [-106.744547, 39.39264], [-106.744747, 39.392841], [-106.744947, 39.393041], [-106.745047, 39.393341], [-106.745147, 39.393642], [-106.745548, 39.393642], [-106.745648, 39.393341], [-106.745948, 39.393241], [-106.746148, 39.393441], [-106.746348, 39.393642], [-106.746448, 39.393942], [-106.746549, 39.394242], [-106.746549, 39.394443], [-106.746549, 39.394643], [-106.746549, 39.394843], [-106.746448, 39.395143], [-106.746248, 39.395344], [-106.746448, 39.395544], [-106.746248, 39.395744], [-106.746048, 39.395744], [-106.745948, 39.395444], [-106.745548, 39.395444], [-106.745147, 39.395444], [-106.744947, 39.395644], [-106.744847, 39.395944], [-106.744547, 39.396045], [-106.744547, 39.396245], [-106.744847, 39.396345], [-106.745147, 39.396445], [-106.745247, 39.396145], [-106.745047, 39.395944], [-106.745348, 39.395844], [-106.745648, 39.395944], [-106.745848, 39.396145], [-106.745848, 39.396545], [-106.745648, 39.396745], [-106.745448, 39.396946], [-106.745348, 39.397246], [-106.745147, 39.397046], [-106.745047, 39.396745], [-106.744747, 39.396645], [-106.744447, 39.396745], [-106.744547, 39.397046], [-106.744947, 39.397046], [-106.745047, 39.397346], [-106.744847, 39.397546], [-106.744847, 39.397947], [-106.744747, 39.398247], [-106.744347, 39.398247], [-106.744046, 39.398347], [-106.743746, 39.398447], [-106.743546, 39.398247], [-106.743446, 39.398548], [-106.743446, 39.398948], [-106.743346, 39.399248]]]}}, {"type": "Feature", "properties": {"rank": 2, "acres": 320, "span_mi": 2.05, "lat": 39.42387708381954, "lon": -106.57450608156766, "ft_lo": 10401, "ft_hi": 11498, "ft_mean": 10839, "canopy": 43, "road_m": 4496, "forage": "Dense conifer", "bed": 0.76, "feed": 0.6, "water": 0.904, "sec": 0.992, "score": 0.738, "on_hotspot_pct": 67, "on_red_pct": 12, "walk_h": 1.9, "round_h": 3.8, "trail_pct": 1, "confidence": "partly corroborated"}, "geometry": {"type": "Polygon", "coordinates": [[[-106.588211, 39.431087], [-106.587811, 39.431087], [-106.587511, 39.430986], [-106.587511, 39.430586], [-106.587811, 39.430486], [-106.587811, 39.430286], [-106.587411, 39.430286], [-106.58731, 39.429985], [-106.58701, 39.429885], [-106.58661, 39.429885], [-106.586209, 39.429885], [-106.585809, 39.429885], [-106.585509, 39.429985], [-106.585209, 39.430085], [-106.585008, 39.430286], [-106.584808, 39.430085], [-106.584808, 39.430286], [-106.584808, 39.430486], [-106.584408, 39.430486], [-106.584208, 39.430686], [-106.583807, 39.430686], [-106.583507, 39.430586], [-106.583507, 39.430185], [-106.583407, 39.429885], [-106.583007, 39.429885], [-106.582606, 39.429885], [-106.582406, 39.429685], [-106.582006, 39.429685], [-106.581806, 39.429485], [-106.581405, 39.429485], [-106.581405, 39.429284], [-106.581706, 39.429184], [-106.581405, 39.429084], [-106.581105, 39.428984], [-106.581105, 39.428584], [-106.581305, 39.428383], [-106.581005, 39.428283], [-106.580805, 39.428483], [-106.580404, 39.428483], [-106.580404, 39.428684], [-106.580505, 39.428984], [-106.580605, 39.429284], [-106.580705, 39.429585], [-106.580905, 39.429785], [-106.580605, 39.429885], [-106.580404, 39.430085], [-106.580004, 39.430085], [-106.579704, 39.430185], [-106.579504, 39.430185], [-106.579504, 39.429785], [-106.579303, 39.429585], [-106.579404, 39.429284], [-106.579504, 39.428984], [-106.579704, 39.428784], [-106.579604, 39.428483], [-106.579303, 39.428383], [-106.579203, 39.428083], [-106.578903, 39.427983], [-106.579203, 39.427883], [-106.579203, 39.427682], [-106.578803, 39.427682], [-106.578403, 39.427682], [-106.578403, 39.427883], [-106.578703, 39.427983], [-106.578603, 39.428283], [-106.578203, 39.428283], [-106.577802, 39.428283], [-106.577602, 39.428483], [-106.577302, 39.428584], [-106.577302, 39.428984], [-106.577102, 39.429184], [-106.576801, 39.429284], [-106.576601, 39.429485], [-106.576301, 39.429385], [-106.576401, 39.429084], [-106.576601, 39.428884], [-106.576701, 39.428584], [-106.576601, 39.428283], [-106.576501, 39.428584], [-106.576301, 39.428784], [-106.576001, 39.428884], [-106.5756, 39.428884], [-106.5754, 39.429084], [-106.5753, 39.428784], [-106.5751, 39.428584], [-106.5754, 39.428483], [-106.5758, 39.428483], [-106.576001, 39.428684], [-106.576201, 39.428483], [-106.576201, 39.428283], [-106.575901, 39.428183], [-106.576001, 39.427883], [-106.576401, 39.427883], [-106.576601, 39.427682], [-106.576701, 39.427382], [-106.576401, 39.427282], [-106.576001, 39.427282], [-106.5758, 39.427482], [-106.5757, 39.427182], [-106.5755, 39.427182], [-106.5753, 39.427382], [-106.5751, 39.427382], [-106.5748, 39.427282], [-106.574599, 39.427482], [-106.574299, 39.427582], [-106.574199, 39.427883], [-106.573799, 39.427883], [-106.573498, 39.427783], [-106.573498, 39.427382], [-106.573799, 39.427282], [-106.573999, 39.427082], [-106.574099, 39.426781], [-106.574099, 39.426381], [-106.573999, 39.426081], [-106.573599, 39.426081], [-106.573498, 39.42578], [-106.573298, 39.42558], [-106.573398, 39.42528], [-106.573398, 39.425079], [-106.572998, 39.425079], [-106.572698, 39.424979], [-106.572498, 39.424779], [-106.572197, 39.424679], [-106.571897, 39.424579], [-106.571697, 39.424379], [-106.571397, 39.424278], [-106.570996, 39.424278], [-106.570596, 39.424278], [-106.570596, 39.424479], [-106.570896, 39.424579], [-106.570596, 39.424679], [-106.570496, 39.424979], [-106.570596, 39.42528], [-106.570896, 39.42538], [-106.570896, 39.42578], [-106.570996, 39.426081], [-106.571096, 39.426381], [-106.570996, 39.426681], [-106.570796, 39.426882], [-106.570596, 39.426681], [-106.570496, 39.426982], [-106.570796, 39.427082], [-106.571096, 39.427182], [-106.570796, 39.427282], [-106.570496, 39.427382], [-106.570296, 39.427582], [-106.570096, 39.427582], [-106.569995, 39.427282], [-106.569895, 39.426982], [-106.570096, 39.426781], [-106.570296, 39.426581], [-106.570096, 39.426581], [-106.569795, 39.426681], [-106.569395, 39.426681], [-106.568995, 39.426681], [-106.568694, 39.426581], [-106.568594, 39.426281], [-106.568294, 39.426181], [-106.567994, 39.426081], [-106.567794, 39.426281], [-106.567693, 39.42598], [-106.567693, 39.42558], [-106.567894, 39.42538], [-106.567693, 39.425179], [-106.567994, 39.425079], [-106.568094, 39.424779], [-106.568294, 39.424579], [-106.568194, 39.424278], [-106.567994, 39.424479], [-106.567593, 39.424479], [-106.567493, 39.424779], [-106.567693, 39.424979], [-106.567393, 39.425079], [-106.567093, 39.425179], [-106.566793, 39.42528], [-106.566492, 39.425179], [-106.566793, 39.425079], [-106.566793, 39.424879], [-106.566492, 39.424779], [-106.566192, 39.424679], [-106.566092, 39.424379], [-106.566292, 39.424178], [-106.566492, 39.423978], [-106.566192, 39.423878], [-106.565792, 39.423878], [-106.565492, 39.423978], [-106.565692, 39.424178], [-106.565592, 39.424479], [-106.565191, 39.424479], [-106.565091, 39.424178], [-106.565091, 39.423778], [-106.565191, 39.423477], [-106.565492, 39.423377], [-106.565592, 39.423077], [-106.565592, 39.422877], [-106.565391, 39.422676], [-106.564991, 39.422676], [-106.564591, 39.422676], [-106.564491, 39.422376], [-106.56419, 39.422276], [-106.56389, 39.422376], [-106.56369, 39.422376], [-106.56359, 39.422076], [-106.56349, 39.421775], [-106.56379, 39.421675], [-106.56389, 39.421375], [-106.56399, 39.421075], [-106.56419, 39.420874], [-106.564491, 39.420974], [-106.564791, 39.421075], [-106.564991, 39.420874], [-106.565391, 39.420874], [-106.565492, 39.420574], [-106.565492, 39.420173], [-106.565692, 39.419973], [-106.565492, 39.419973], [-106.565191, 39.420073], [-106.564891, 39.419973], [-106.564691, 39.419973], [-106.564391, 39.420073], [-106.56409, 39.420173], [-106.56379, 39.420274], [-106.56369, 39.420574], [-106.56339, 39.420674], [-106.56329, 39.420974], [-106.563089, 39.420974], [-106.563089, 39.420574], [-106.562989, 39.420274], [-106.562689, 39.420173], [-106.562489, 39.419973], [-106.562189, 39.419873], [-106.561888, 39.419773], [-106.561688, 39.419773], [-106.561488, 39.419773], [-106.561388, 39.419473], [-106.561188, 39.419272], [-106.561188, 39.419072], [-106.561188, 39.418872], [-106.560888, 39.418772], [-106.560888, 39.418371], [-106.561088, 39.418171], [-106.561388, 39.418071], [-106.561488, 39.417771], [-106.561388, 39.41747], [-106.561088, 39.41757], [-106.560988, 39.417871], [-106.560587, 39.417871], [-106.560287, 39.417771], [-106.559987, 39.41767], [-106.559586, 39.41767], [-106.559386, 39.417871], [-106.559286, 39.41757], [-106.559086, 39.41737], [-106.559286, 39.41717], [-106.559286, 39.416769], [-106.559586, 39.416669], [-106.559586, 39.416469], [-106.559286, 39.416369], [-106.559386, 39.416069], [-106.559787, 39.416069], [-106.560087, 39.416169], [-106.560387, 39.416269], [-106.560687, 39.416169], [-106.560687, 39.415768], [-106.560888, 39.415568], [-106.560988, 39.415268], [-106.561188, 39.415067], [-106.561388, 39.415268], [-106.561688, 39.415167], [-106.561688, 39.414767], [-106.561988, 39.414667], [-106.562189, 39.414467], [-106.562489, 39.414366], [-106.562689, 39.414366], [-106.562989, 39.414467], [-106.562989, 39.414667], [-106.562689, 39.414767], [-106.562989, 39.414867], [-106.56339, 39.414867], [-106.56369, 39.414967], [-106.56369, 39.415368], [-106.56389, 39.415568], [-106.56359, 39.415668], [-106.56319, 39.415668], [-106.563089, 39.415968], [-106.563089, 39.416369], [-106.56329, 39.416569], [-106.56359, 39.416669], [-106.56389, 39.416569], [-106.56399, 39.416269], [-106.56409, 39.415968], [-106.56419, 39.415668], [-106.564491, 39.415568], [-106.564691, 39.415568], [-106.564691, 39.415968], [-106.564791, 39.416269], [-106.564791, 39.416469], [-106.564491, 39.416569], [-106.564591, 39.41687], [-106.564791, 39.41707], [-106.565091, 39.41697], [-106.565191, 39.416669], [-106.565492, 39.416569], [-106.565792, 39.416469], [-106.566092, 39.416569], [-106.566292, 39.416769], [-106.565992, 39.41687], [-106.565692, 39.41697], [-106.565892, 39.41717], [-106.565592, 39.41727], [-106.565191, 39.41727], [-106.564891, 39.41737], [-106.564691, 39.41737], [-106.564391, 39.41727], [-106.56409, 39.41737], [-106.564391, 39.41747], [-106.564491, 39.417771], [-106.56419, 39.417871], [-106.56419, 39.418071], [-106.564591, 39.418071], [-106.564791, 39.418271], [-106.565091, 39.418171], [-106.565391, 39.418071], [-106.565492, 39.417771], [-106.565592, 39.41747], [-106.565992, 39.41747], [-106.566392, 39.41747], [-106.566793, 39.41747], [-106.566993, 39.41727], [-106.567093, 39.41757], [-106.567393, 39.41767], [-106.567693, 39.41757], [-106.567894, 39.41757], [-106.568094, 39.417771], [-106.567994, 39.418071], [-106.567994, 39.418271], [-106.568194, 39.418071], [-106.568594, 39.418071], [-106.568594, 39.417871], [-106.568494, 39.41757], [-106.568694, 39.41757], [-106.568995, 39.41767], [-106.569195, 39.417871], [-106.569495, 39.417771], [-106.569695, 39.417771], [-106.569895, 39.417971], [-106.569795, 39.418271], [-106.569495, 39.418371], [-106.569795, 39.418471], [-106.569795, 39.418672], [-106.569495, 39.418772], [-106.569795, 39.418872], [-106.569995, 39.418672], [-106.570196, 39.418872], [-106.570596, 39.418872], [-106.570896, 39.418972], [-106.571196, 39.419072], [-106.571597, 39.419072], [-106.571697, 39.419373], [-106.571597, 39.419673], [-106.571196, 39.419673], [-106.570796, 39.419673], [-106.570496, 39.419773], [-106.570596, 39.420073], [-106.570996, 39.420073], [-106.571096, 39.420374], [-106.571196, 39.420674], [-106.571497, 39.420574], [-106.571497, 39.420173], [-106.571196, 39.420073], [-106.571196, 39.419873], [-106.571597, 39.419873], [-106.571797, 39.420073], [-106.571897, 39.419773], [-106.571997, 39.419473], [-106.572297, 39.419573], [-106.572598, 39.419673], [-106.572698, 39.419973], [-106.572698, 39.420374], [-106.572798, 39.420674], [-106.573198, 39.420674], [-106.573498, 39.420774], [-106.573198, 39.420874], [-106.572798, 39.420874], [-106.572598, 39.421075], [-106.572197, 39.421075], [-106.571997, 39.420874], [-106.571797, 39.421075], [-106.571497, 39.421175], [-106.571797, 39.421275], [-106.571997, 39.421475], [-106.572297, 39.421575], [-106.572398, 39.421876], [-106.572598, 39.421675], [-106.572998, 39.421675], [-106.573098, 39.421976], [-106.572798, 39.422076], [-106.572598, 39.422276], [-106.572598, 39.422476], [-106.572998, 39.422476], [-106.573298, 39.422576], [-106.573599, 39.422676], [-106.573999, 39.422676], [-106.574299, 39.422777], [-106.574599, 39.422877], [-106.5748, 39.423077], [-106.575, 39.423277], [-106.5753, 39.423377], [-106.5753, 39.423778], [-106.5755, 39.423978], [-106.5753, 39.424178], [-106.5753, 39.424579], [-106.5754, 39.424879], [-106.5758, 39.424879], [-106.575901, 39.425179], [-106.575901, 39.42558], [-106.576201, 39.42568], [-106.576401, 39.42588], [-106.576501, 39.42558], [-106.576701, 39.42538], [-106.577001, 39.42528], [-106.577402, 39.42528], [-106.577702, 39.42538], [-106.578002, 39.42548], [-106.578203, 39.42528], [-106.578303, 39.424979], [-106.578403, 39.424679], [-106.578703, 39.424579], [-106.578803, 39.424278], [-106.579003, 39.424078], [-106.579303, 39.423978], [-106.579103, 39.423778], [-106.579303, 39.423578], [-106.579604, 39.423477], [-106.579804, 39.423678], [-106.580204, 39.423678], [-106.580304, 39.423978], [-106.580204, 39.424278], [-106.580204, 39.424479], [-106.580505, 39.424379], [-106.580505, 39.423978], [-106.580705, 39.423978], [-106.580905, 39.424178], [-106.581005, 39.424479], [-106.581305, 39.424579], [-106.581405, 39.424879], [-106.581806, 39.424879], [-106.581806, 39.425079], [-106.581605, 39.42528], [-106.581605, 39.42548], [-106.582006, 39.42548], [-106.582206, 39.42568], [-106.582506, 39.42578], [-106.582406, 39.426081], [-106.582006, 39.426081], [-106.581806, 39.42588], [-106.581405, 39.42588], [-106.581305, 39.426181], [-106.581605, 39.426281], [-106.581906, 39.426381], [-106.582106, 39.426581], [-106.581906, 39.426781], [-106.582106, 39.426982], [-106.582406, 39.427082], [-106.582706, 39.426982], [-106.582807, 39.426681], [-106.583107, 39.426581], [-106.583307, 39.426381], [-106.583407, 39.426081], [-106.583507, 39.42578], [-106.583507, 39.42538], [-106.583707, 39.42538], [-106.583707, 39.42578], [-106.584008, 39.42588], [-106.584208, 39.426081], [-106.584408, 39.426281], [-106.584808, 39.426281], [-106.584908, 39.426581], [-106.584908, 39.426982], [-106.585109, 39.427182], [-106.585209, 39.427482], [-106.585509, 39.427382], [-106.585809, 39.427282], [-106.586209, 39.427282], [-106.58631, 39.426982], [-106.58651, 39.426982], [-106.58661, 39.427282], [-106.58691, 39.427182], [-106.58711, 39.427182], [-106.58721, 39.427482], [-106.58731, 39.427182], [-106.58731, 39.426781], [-106.587611, 39.426681], [-106.587911, 39.426781], [-106.588011, 39.427082], [-106.588111, 39.427382], [-106.588011, 39.427682], [-106.587611, 39.427682], [-106.58721, 39.427682], [-106.58701, 39.427883], [-106.58681, 39.428083], [-106.58651, 39.428183], [-106.58651, 39.428584], [-106.58681, 39.428684], [-106.58701, 39.428483], [-106.587411, 39.428483], [-106.587811, 39.428483], [-106.588111, 39.428383], [-106.588411, 39.428283], [-106.588712, 39.428383], [-106.589012, 39.428483], [-106.589312, 39.428383], [-106.589612, 39.428283], [-106.589913, 39.428183], [-106.590013, 39.427883], [-106.590313, 39.427783], [-106.590613, 39.427682], [-106.591014, 39.427682], [-106.591314, 39.427582], [-106.591514, 39.427382], [-106.591714, 39.427382], [-106.591914, 39.427382], [-106.592115, 39.427182], [-106.592015, 39.426882], [-106.591914, 39.426581], [-106.592015, 39.426281], [-106.592115, 39.426581], [-106.592315, 39.426581], [-106.592515, 39.426381], [-106.592215, 39.426281], [-106.592215, 39.426081], [-106.592615, 39.426081], [-106.592815, 39.426281], [-106.593015, 39.426481], [-106.593316, 39.426581], [-106.593115, 39.426781], [-106.593316, 39.426982], [-106.593216, 39.427282], [-106.592915, 39.427182], [-106.592715, 39.427182], [-106.592815, 39.427482], [-106.592915, 39.427783], [-106.592815, 39.428083], [-106.592715, 39.427783], [-106.592515, 39.427783], [-106.592215, 39.427883], [-106.591914, 39.427983], [-106.592115, 39.428183], [-106.592115, 39.428584], [-106.592415, 39.428684], [-106.592815, 39.428684], [-106.593015, 39.428483], [-106.593316, 39.428383], [-106.593516, 39.428183], [-106.593516, 39.427783], [-106.593716, 39.427582], [-106.593916, 39.427382], [-106.593716, 39.427182], [-106.593516, 39.426982], [-106.593616, 39.426681], [-106.594016, 39.426681], [-106.594216, 39.426882], [-106.594517, 39.426982], [-106.594817, 39.427082], [-106.594917, 39.427382], [-106.594617, 39.427482], [-106.594216, 39.427482], [-106.594216, 39.427682], [-106.594617, 39.427682], [-106.594817, 39.427883], [-106.595117, 39.427783], [-106.595317, 39.427582], [-106.595417, 39.427282], [-106.595818, 39.427282], [-106.596218, 39.427282], [-106.596619, 39.427282], [-106.596719, 39.426982], [-106.597019, 39.426882], [-106.597219, 39.427082], [-106.597419, 39.427282], [-106.597419, 39.427482], [-106.597419, 39.427682], [-106.597719, 39.427783], [-106.597519, 39.427983], [-106.597319, 39.428183], [-106.597119, 39.428383], [-106.596919, 39.428584], [-106.596719, 39.428584], [-106.596418, 39.428483], [-106.596218, 39.428684], [-106.595918, 39.428584], [-106.595818, 39.428283], [-106.595618, 39.428083], [-106.595317, 39.428183], [-106.595217, 39.428483], [-106.595117, 39.428183], [-106.594917, 39.428183], [-106.594817, 39.428483], [-106.594617, 39.428684], [-106.594216, 39.428684], [-106.594016, 39.428884], [-106.593816, 39.428684], [-106.593616, 39.428483], [-106.593416, 39.428684], [-106.593115, 39.428784], [-106.592815, 39.428884], [-106.592415, 39.428884], [-106.592015, 39.428884], [-106.591614, 39.428884], [-106.591314, 39.428984], [-106.591214, 39.429284], [-106.590813, 39.429284], [-106.590413, 39.429284], [-106.590013, 39.429284], [-106.589813, 39.429084], [-106.589612, 39.429284], [-106.589512, 39.429585], [-106.589312, 39.429785], [-106.589012, 39.429885], [-106.588712, 39.429985], [-106.588411, 39.430085], [-106.588211, 39.430286], [-106.588211, 39.430486], [-106.588612, 39.430486], [-106.588612, 39.430686], [-106.588311, 39.430786], [-106.588211, 39.431087]]]}}, {"type": "Feature", "properties": {"rank": 3, "acres": 320, "span_mi": 0.99, "lat": 39.4014621755453, "lon": -106.86737617784384, "ft_lo": 8510, "ft_hi": 10788, "ft_mean": 9702, "canopy": 41, "road_m": 2019, "forage": "Aspen", "bed": 0.681, "feed": 0.798, "water": 0.724, "sec": 0.978, "score": 0.713, "on_hotspot_pct": 86, "on_red_pct": 40, "walk_h": 1.5, "round_h": 3.0, "trail_pct": 0, "confidence": "agrees with the old hotspot layer"}, "geometry": {"type": "Polygon", "coordinates": [[[-106.87506, 39.404855], [-106.87496, 39.404555], [-106.87466, 39.404455], [-106.874259, 39.404455], [-106.874159, 39.404755], [-106.873859, 39.404855], [-106.873559, 39.404755], [-106.873559, 39.404354], [-106.873258, 39.404254], [-106.872958, 39.404354], [-106.872858, 39.404655], [-106.872558, 39.404755], [-106.872858, 39.404855], [-106.873058, 39.404655], [-106.873359, 39.404755], [-106.873258, 39.405055], [-106.872858, 39.405055], [-106.872658, 39.405256], [-106.872258, 39.405256], [-106.871857, 39.405256], [-106.871557, 39.405155], [-106.871257, 39.405055], [-106.871157, 39.405356], [-106.871257, 39.405656], [-106.871557, 39.405756], [-106.871757, 39.405956], [-106.871757, 39.406357], [-106.871557, 39.406557], [-106.871557, 39.406958], [-106.871457, 39.407258], [-106.871157, 39.407358], [-106.870956, 39.407558], [-106.870956, 39.407959], [-106.870856, 39.408259], [-106.870656, 39.408459], [-106.870256, 39.408459], [-106.869956, 39.408359], [-106.869655, 39.408259], [-106.869455, 39.408059], [-106.869055, 39.408059], [-106.868654, 39.408059], [-106.868254, 39.408059], [-106.867954, 39.407959], [-106.867954, 39.407558], [-106.867954, 39.407158], [-106.867654, 39.407058], [-106.867253, 39.407058], [-106.867153, 39.407358], [-106.866853, 39.407458], [-106.866653, 39.407658], [-106.866252, 39.407658], [-106.866052, 39.407458], [-106.865652, 39.407458], [-106.865251, 39.407458], [-106.865051, 39.407658], [-106.864651, 39.407658], [-106.864451, 39.407458], [-106.864351, 39.407759], [-106.86405, 39.407859], [-106.86375, 39.407959], [-106.86395, 39.408159], [-106.86385, 39.408459], [-106.86345, 39.408459], [-106.86325, 39.408259], [-106.862949, 39.408159], [-106.862649, 39.408059], [-106.862549, 39.407759], [-106.862449, 39.407458], [-106.862149, 39.407358], [-106.862349, 39.407158], [-106.862349, 39.406757], [-106.862049, 39.406657], [-106.861849, 39.406857], [-106.861648, 39.406657], [-106.861548, 39.406357], [-106.861748, 39.406157], [-106.861949, 39.405956], [-106.862049, 39.405656], [-106.862349, 39.405556], [-106.862249, 39.405256], [-106.862049, 39.405055], [-106.861949, 39.404755], [-106.862149, 39.404555], [-106.861949, 39.404354], [-106.861849, 39.404054], [-106.861748, 39.403754], [-106.861448, 39.403654], [-106.861148, 39.403554], [-106.861448, 39.403453], [-106.861849, 39.403453], [-106.862249, 39.403453], [-106.862649, 39.403453], [-106.862949, 39.403353], [-106.862649, 39.403253], [-106.862549, 39.402953], [-106.862849, 39.402853], [-106.86315, 39.402753], [-106.86335, 39.402552], [-106.86345, 39.402252], [-106.86375, 39.402152], [-106.86395, 39.401952], [-106.86405, 39.401651], [-106.864351, 39.401551], [-106.864551, 39.401351], [-106.864251, 39.401251], [-106.86385, 39.401251], [-106.86345, 39.401251], [-106.86305, 39.401251], [-106.862949, 39.401551], [-106.862649, 39.401651], [-106.862449, 39.401851], [-106.862049, 39.401851], [-106.861949, 39.402152], [-106.861748, 39.402352], [-106.861949, 39.402552], [-106.861648, 39.402652], [-106.861348, 39.402552], [-106.861048, 39.402452], [-106.860948, 39.402753], [-106.861248, 39.402853], [-106.861348, 39.403153], [-106.861048, 39.403253], [-106.860648, 39.403253], [-106.860347, 39.403153], [-106.860147, 39.402953], [-106.860447, 39.402853], [-106.860748, 39.402753], [-106.860748, 39.402352], [-106.860748, 39.401952], [-106.860748, 39.401551], [-106.861048, 39.401451], [-106.861348, 39.401351], [-106.861348, 39.40095], [-106.861448, 39.40065], [-106.861849, 39.40065], [-106.862049, 39.40045], [-106.862349, 39.40055], [-106.862449, 39.40085], [-106.862749, 39.40075], [-106.862949, 39.40075], [-106.86315, 39.40075], [-106.86315, 39.40035], [-106.86345, 39.40025], [-106.86385, 39.40025], [-106.86395, 39.399949], [-106.86405, 39.399649], [-106.864351, 39.399549], [-106.864251, 39.399248], [-106.86395, 39.399348], [-106.86365, 39.399449], [-106.86325, 39.399449], [-106.862949, 39.399348], [-106.862649, 39.399248], [-106.862349, 39.399348], [-106.862249, 39.399649], [-106.861849, 39.399649], [-106.861648, 39.399849], [-106.861548, 39.400149], [-106.861248, 39.40025], [-106.860848, 39.40025], [-106.860848, 39.400049], [-106.861248, 39.400049], [-106.861348, 39.399749], [-106.861048, 39.399649], [-106.860748, 39.399549], [-106.860948, 39.399348], [-106.860948, 39.398948], [-106.860748, 39.398748], [-106.860447, 39.398648], [-106.860447, 39.398447], [-106.860848, 39.398447], [-106.861248, 39.398447], [-106.861348, 39.398147], [-106.861548, 39.397947], [-106.861849, 39.397847], [-106.862249, 39.397847], [-106.862349, 39.397546], [-106.862549, 39.397346], [-106.862849, 39.397246], [-106.862949, 39.396946], [-106.86305, 39.396645], [-106.86305, 39.396445], [-106.862749, 39.396345], [-106.86305, 39.396245], [-106.86315, 39.395944], [-106.862849, 39.395844], [-106.862549, 39.395944], [-106.862249, 39.396045], [-106.861949, 39.396145], [-106.861748, 39.396345], [-106.861748, 39.396745], [-106.861949, 39.396946], [-106.861648, 39.397046], [-106.861548, 39.397346], [-106.861248, 39.397446], [-106.860848, 39.397446], [-106.860447, 39.397446], [-106.860447, 39.397246], [-106.860547, 39.396946], [-106.860748, 39.396745], [-106.860948, 39.396545], [-106.861048, 39.396245], [-106.861348, 39.396145], [-106.861348, 39.395744], [-106.861448, 39.395444], [-106.861748, 39.395344], [-106.861748, 39.394943], [-106.861748, 39.394543], [-106.861949, 39.394342], [-106.862249, 39.394242], [-106.862649, 39.394242], [-106.862949, 39.394342], [-106.86325, 39.394443], [-106.86345, 39.394242], [-106.86365, 39.394042], [-106.86385, 39.394242], [-106.864251, 39.394242], [-106.864351, 39.393942], [-106.864651, 39.393842], [-106.865051, 39.393842], [-106.865452, 39.393842], [-106.865852, 39.393842], [-106.866152, 39.393942], [-106.866352, 39.394142], [-106.866352, 39.394543], [-106.866352, 39.394943], [-106.866352, 39.395344], [-106.866653, 39.395444], [-106.866853, 39.395244], [-106.867253, 39.395244], [-106.867654, 39.395244], [-106.867954, 39.395143], [-106.868154, 39.395143], [-106.868454, 39.395244], [-106.868654, 39.395444], [-106.869055, 39.395444], [-106.869355, 39.395544], [-106.869155, 39.395744], [-106.869455, 39.395844], [-106.869855, 39.395844], [-106.870056, 39.395644], [-106.870156, 39.395944], [-106.870456, 39.396045], [-106.870456, 39.396245], [-106.870156, 39.396345], [-106.869956, 39.396545], [-106.869655, 39.396645], [-106.869555, 39.396946], [-106.869555, 39.397346], [-106.869555, 39.397747], [-106.869855, 39.397847], [-106.870256, 39.397847], [-106.870356, 39.398147], [-106.870556, 39.398147], [-106.870856, 39.398047], [-106.871057, 39.398247], [-106.871157, 39.397947], [-106.871057, 39.397646], [-106.870956, 39.397346], [-106.871257, 39.397246], [-106.871557, 39.397346], [-106.871757, 39.397346], [-106.871857, 39.397046], [-106.872157, 39.397146], [-106.872258, 39.397446], [-106.872658, 39.397446], [-106.872858, 39.397646], [-106.873158, 39.397747], [-106.872958, 39.397947], [-106.872858, 39.398247], [-106.872558, 39.398347], [-106.872558, 39.398748], [-106.872358, 39.398948], [-106.872157, 39.399148], [-106.872157, 39.399549], [-106.872258, 39.399849], [-106.872558, 39.399949], [-106.872458, 39.40025], [-106.872157, 39.40035], [-106.872258, 39.40065], [-106.872358, 39.40095], [-106.872458, 39.401251], [-106.872658, 39.401451], [-106.872958, 39.401351], [-106.873158, 39.401151], [-106.873258, 39.40085], [-106.873359, 39.40055], [-106.873058, 39.40045], [-106.872658, 39.40045], [-106.872658, 39.40025], [-106.873058, 39.40025], [-106.873359, 39.400149], [-106.873158, 39.399949], [-106.873258, 39.399649], [-106.873659, 39.399649], [-106.873959, 39.399549], [-106.873959, 39.399148], [-106.873659, 39.399048], [-106.873559, 39.398748], [-106.873359, 39.398548], [-106.873359, 39.398147], [-106.873559, 39.398147], [-106.873659, 39.398447], [-106.874059, 39.398447], [-106.874259, 39.398648], [-106.87456, 39.398748], [-106.87456, 39.399148], [-106.87456, 39.399549], [-106.87486, 39.399649], [-106.87506, 39.404855]]]}}, {"type": "Feature", "properties": {"rank": 4, "acres": 320, "span_mi": 1.18, "lat": 39.26890840068747, "lon": -106.82015336582297, "ft_lo": 8182, "ft_hi": 9543, "ft_mean": 8799, "canopy": 47, "road_m": 1986, "forage": "Aspen", "bed": 0.73, "feed": 0.702, "water": 0.787, "sec": 0.956, "score": 0.708, "on_hotspot_pct": 61, "on_red_pct": 21, "walk_h": 1.3, "round_h": 2.6, "trail_pct": 5, "confidence": "partly corroborated"}, "geometry": {"type": "Polygon", "coordinates": [[[-106.825017, 39.274699], [-106.824716, 39.274599], [-106.824816, 39.274298], [-106.824816, 39.274098], [-106.824516, 39.274198], [-106.824216, 39.274298], [-106.823916, 39.274198], [-106.824216, 39.274098], [-106.824216, 39.273898], [-106.823916, 39.273998], [-106.823615, 39.274098], [-106.823515, 39.274399], [-106.823415, 39.274699], [-106.823315, 39.274399], [-106.823215, 39.274098], [-106.822915, 39.274198], [-106.822815, 39.274499], [-106.822414, 39.274499], [-106.822014, 39.274499], [-106.821614, 39.274499], [-106.821213, 39.274499], [-106.820913, 39.274399], [-106.820713, 39.274399], [-106.820413, 39.274499], [-106.820112, 39.274399], [-106.820212, 39.274098], [-106.820413, 39.273898], [-106.820813, 39.273898], [-106.820813, 39.273698], [-106.820513, 39.273598], [-106.820313, 39.273598], [-106.820212, 39.273898], [-106.820012, 39.274098], [-106.819712, 39.273998], [-106.819512, 39.273798], [-106.819612, 39.273498], [-106.819812, 39.273297], [-106.820212, 39.273297], [-106.820613, 39.273297], [-106.820913, 39.273197], [-106.821213, 39.273097], [-106.821514, 39.272997], [-106.821614, 39.272697], [-106.821914, 39.272596], [-106.822214, 39.272496], [-106.822514, 39.272396], [-106.822815, 39.272296], [-106.823015, 39.272096], [-106.823315, 39.271996], [-106.823515, 39.271795], [-106.823816, 39.271695], [-106.824116, 39.271795], [-106.823916, 39.271996], [-106.824216, 39.272096], [-106.824416, 39.271896], [-106.824516, 39.271595], [-106.824216, 39.271495], [-106.823916, 39.271395], [-106.823916, 39.270995], [-106.823916, 39.270594], [-106.823615, 39.270494], [-106.823315, 39.270394], [-106.823015, 39.270294], [-106.822615, 39.270294], [-106.822514, 39.270594], [-106.822214, 39.270694], [-106.821914, 39.270794], [-106.821614, 39.270894], [-106.821313, 39.270794], [-106.821013, 39.270694], [-106.820613, 39.270694], [-106.820613, 39.270494], [-106.820913, 39.270394], [-106.821213, 39.270294], [-106.821514, 39.270194], [-106.821413, 39.269893], [-106.821113, 39.269793], [-106.820813, 39.269693], [-106.820513, 39.269793], [-106.820413, 39.270093], [-106.820112, 39.270194], [-106.819812, 39.270294], [-106.819712, 39.270594], [-106.819512, 39.270794], [-106.819512, 39.271195], [-106.819612, 39.271495], [-106.819612, 39.271695], [-106.819312, 39.271795], [-106.819011, 39.271896], [-106.818811, 39.272096], [-106.818711, 39.272396], [-106.818611, 39.272697], [-106.818211, 39.272697], [-106.818211, 39.272496], [-106.818511, 39.272396], [-106.818511, 39.271996], [-106.818711, 39.271795], [-106.818611, 39.271495], [-106.818511, 39.271195], [-106.818511, 39.270794], [-106.818611, 39.270494], [-106.818711, 39.270194], [-106.818811, 39.269893], [-106.819011, 39.269693], [-106.819111, 39.269393], [-106.819212, 39.269092], [-106.819512, 39.268992], [-106.819212, 39.268892], [-106.818911, 39.268992], [-106.818711, 39.269192], [-106.818611, 39.269493], [-106.818411, 39.269693], [-106.818011, 39.269693], [-106.818011, 39.269493], [-106.818011, 39.269292], [-106.81761, 39.269292], [-106.81741, 39.269493], [-106.81731, 39.269793], [-106.81711, 39.269993], [-106.81701, 39.270294], [-106.816609, 39.270294], [-106.816609, 39.270494], [-106.816709, 39.270794], [-106.81701, 39.270894], [-106.81711, 39.270594], [-106.81731, 39.270594], [-106.81731, 39.270995], [-106.81701, 39.271095], [-106.816709, 39.271195], [-106.816709, 39.271595], [-106.816409, 39.271695], [-106.816209, 39.271896], [-106.815809, 39.271896], [-106.815508, 39.271996], [-106.815608, 39.272296], [-106.816009, 39.272296], [-106.816009, 39.272496], [-106.815608, 39.272496], [-106.815408, 39.272697], [-106.815108, 39.272596], [-106.815308, 39.272396], [-106.815208, 39.272096], [-106.815108, 39.272396], [-106.814908, 39.272596], [-106.814908, 39.272997], [-106.814908, 39.273397], [-106.814908, 39.273798], [-106.814608, 39.273898], [-106.814407, 39.274098], [-106.814007, 39.274098], [-106.813607, 39.274098], [-106.813407, 39.273898], [-106.813206, 39.274098], [-106.812906, 39.273998], [-106.812606, 39.273898], [-106.812306, 39.273798], [-106.812306, 39.273397], [-106.812606, 39.273297], [-106.812706, 39.272997], [-106.813006, 39.272897], [-106.813206, 39.272697], [-106.813607, 39.272697], [-106.813607, 39.272496], [-106.813306, 39.272396], [-106.813607, 39.272296], [-106.813607, 39.272096], [-106.813206, 39.272096], [-106.812806, 39.272096], [-106.812706, 39.272396], [-106.812506, 39.272596], [-106.812205, 39.272697], [-106.811905, 39.272596], [-106.811905, 39.272196], [-106.812005, 39.271896], [-106.812306, 39.271795], [-106.812506, 39.271595], [-106.812806, 39.271495], [-106.813006, 39.271695], [-106.813106, 39.271395], [-106.813106, 39.270995], [-106.813407, 39.270894], [-106.813407, 39.270694], [-106.813006, 39.270694], [-106.812606, 39.270694], [-106.812406, 39.270894], [-106.812306, 39.271195], [-106.812205, 39.271495], [-106.811905, 39.271395], [-106.811805, 39.271095], [-106.811405, 39.271095], [-106.811004, 39.271095], [-106.810904, 39.271395], [-106.810704, 39.271595], [-106.810404, 39.271695], [-106.810104, 39.271795], [-106.809803, 39.271896], [-106.809703, 39.271595], [-106.809703, 39.271195], [-106.809703, 39.270794], [-106.809903, 39.270594], [-106.809603, 39.270494], [-106.809303, 39.270394], [-106.809303, 39.269993], [-106.809403, 39.269693], [-106.809703, 39.269593], [-106.809703, 39.269192], [-106.809503, 39.268992], [-106.809703, 39.268792], [-106.809403, 39.268692], [-106.809003, 39.268692], [-106.809003, 39.268492], [-106.809403, 39.268492], [-106.809703, 39.268391], [-106.810004, 39.268291], [-106.810204, 39.268091], [-106.810504, 39.267991], [-106.810804, 39.267891], [-106.811004, 39.267691], [-106.811305, 39.26759], [-106.811605, 39.26749], [-106.811805, 39.26729], [-106.812005, 39.26749], [-106.812105, 39.26719], [-106.811905, 39.26699], [-106.812005, 39.266689], [-106.812205, 39.266489], [-106.812205, 39.266289], [-106.812205, 39.266089], [-106.812406, 39.265888], [-106.812606, 39.265688], [-106.812806, 39.265488], [-106.813006, 39.265288], [-106.813206, 39.265087], [-106.813407, 39.264887], [-106.813707, 39.264787], [-106.813907, 39.264587], [-106.814207, 39.264487], [-106.814407, 39.264286], [-106.814808, 39.264286], [-106.815208, 39.264286], [-106.815608, 39.264286], [-106.815909, 39.264186], [-106.816109, 39.264186], [-106.816409, 39.264286], [-106.816809, 39.264286], [-106.81711, 39.264186], [-106.81721, 39.263886], [-106.81741, 39.264086], [-106.81781, 39.264086], [-106.818211, 39.264086], [-106.818511, 39.264186], [-106.818711, 39.264186], [-106.819011, 39.264086], [-106.819412, 39.264086], [-106.819612, 39.263886], [-106.819812, 39.263686], [-106.820212, 39.263686], [-106.820513, 39.263586], [-106.820613, 39.263285], [-106.821013, 39.263285], [-106.821213, 39.263085], [-106.821514, 39.262985], [-106.821313, 39.262785], [-106.821614, 39.262685], [-106.821914, 39.262584], [-106.822114, 39.262584], [-106.822014, 39.262885], [-106.821914, 39.263185], [-106.821914, 39.263586], [-106.821914, 39.263986], [-106.821714, 39.264186], [-106.821714, 39.264587], [-106.821914, 39.264587], [-106.822214, 39.264487], [-106.822214, 39.264687], [-106.822014, 39.264887], [-106.822014, 39.265087], [-106.822214, 39.265288], [-106.822414, 39.265087], [-106.822514, 39.264787], [-106.822815, 39.264687], [-106.823215, 39.264687], [-106.823515, 39.264787], [-106.823315, 39.264987], [-106.823315, 39.265388], [-106.823615, 39.265488], [-106.823615, 39.265688], [-106.823215, 39.265688], [-106.822915, 39.265788], [-106.823215, 39.265888], [-106.823415, 39.266089], [-106.823615, 39.266289], [-106.823816, 39.266489], [-106.823916, 39.266189], [-106.824116, 39.265989], [-106.824316, 39.265788], [-106.824616, 39.265688], [-106.824816, 39.265888], [-106.825117, 39.265989], [-106.825417, 39.266089], [-106.825717, 39.266189], [-106.826017, 39.266289], [-106.826418, 39.266289], [-106.826818, 39.266289], [-106.827219, 39.266289], [-106.827619, 39.266289], [-106.828019, 39.266289], [-106.82842, 39.266289], [-106.82862, 39.266089], [-106.82902, 39.266089], [-106.82932, 39.266189], [-106.829621, 39.266289], [-106.829821, 39.266089], [-106.830221, 39.266089], [-106.830521, 39.266189], [-106.830221, 39.266289], [-106.830021, 39.266489], [-106.829621, 39.266489], [-106.82932, 39.266589], [-106.82912, 39.266789], [-106.82932, 39.26699], [-106.82922, 39.26729], [-106.82882, 39.26729], [-106.82842, 39.26729], [-106.828019, 39.26729], [-106.827919, 39.26759], [-106.827619, 39.267691], [-106.827319, 39.267791], [-106.827319, 39.268191], [-106.827319, 39.268592], [-106.827219, 39.268892], [-106.826918, 39.268992], [-106.826818, 39.269292], [-106.826518, 39.269393], [-106.826518, 39.269793], [-106.826518, 39.270194], [-106.826718, 39.270394], [-106.826918, 39.270594], [-106.827219, 39.270694], [-106.827519, 39.270594], [-106.827819, 39.270494], [-106.827919, 39.270194], [-106.828119, 39.269993], [-106.828119, 39.269593], [-106.828119, 39.269192], [-106.828019, 39.268892], [-106.827619, 39.268892], [-106.827619, 39.268692], [-106.828019, 39.268692], [-106.828119, 39.268391], [-106.828319, 39.268191], [-106.828019, 39.268091], [-106.828019, 39.267891], [-106.828319, 39.267791], [-106.828119, 39.26759], [-106.82842, 39.26749], [-106.82882, 39.26749], [-106.82902, 39.267691], [-106.82942, 39.267691], [-106.829721, 39.26759], [-106.829921, 39.26739], [-106.830021, 39.26709], [-106.830321, 39.26699], [-106.830621, 39.26689], [-106.830922, 39.26699], [-106.831122, 39.26719], [-106.831122, 39.26759], [-106.830822, 39.267691], [-106.830621, 39.267891], [-106.830321, 39.267991], [-106.830521, 39.268191], [-106.830521, 39.268592], [-106.830321, 39.268792], [-106.830321, 39.269192], [-106.830321, 39.269593], [-106.830321, 39.269993], [-106.830421, 39.270294], [-106.830521, 39.270594], [-106.830521, 39.270995], [-106.830722, 39.271195], [-106.830722, 39.271595], [-106.830521, 39.271795], [-106.830621, 39.272096], [-106.830722, 39.272396], [-106.830421, 39.272496], [-106.830221, 39.272296], [-106.830021, 39.272496], [-106.829721, 39.272596], [-106.829721, 39.272997], [-106.829721, 39.273397], [-106.829521, 39.273598], [-106.82932, 39.273598], [-106.82932, 39.273197], [-106.82922, 39.272897], [-106.82882, 39.272897], [-106.82882, 39.273097], [-106.82912, 39.273197], [-106.82892, 39.273397], [-106.82912, 39.273598], [-106.82902, 39.273898], [-106.82882, 39.273698], [-106.82862, 39.273498], [-106.828319, 39.273397], [-106.828019, 39.273297], [-106.827619, 39.273297], [-106.827619, 39.273498], [-106.828019, 39.273498], [-106.828119, 39.273798], [-106.827919, 39.273798], [-106.827719, 39.273798], [-106.827519, 39.273998], [-106.827219, 39.274098], [-106.826918, 39.273998], [-106.826918, 39.273598], [-106.826818, 39.273297], [-106.826518, 39.273397], [-106.826718, 39.273598], [-106.826618, 39.273898], [-106.826418, 39.273698], [-106.826218, 39.273498], [-106.826017, 39.273297], [-106.825917, 39.273598], [-106.825817, 39.273898], [-106.825617, 39.274098], [-106.825417, 39.274298], [-106.825117, 39.274399], [-106.825017, 39.274699]]]}}, {"type": "Feature", "properties": {"rank": 5, "acres": 320, "span_mi": 1.85, "lat": 39.390308749809996, "lon": -106.57248865363208, "ft_lo": 10200, "ft_hi": 11498, "ft_mean": 10791, "canopy": 49, "road_m": 3393, "forage": "Dense conifer", "bed": 0.787, "feed": 0.486, "water": 0.887, "sec": 0.98, "score": 0.684, "on_hotspot_pct": 82, "on_red_pct": 3, "walk_h": 1.4, "round_h": 2.8, "trail_pct": 14, "confidence": "agrees with the old hotspot layer"}, "geometry": {"type": "Polygon", "coordinates": [[[-106.570796, 39.396845], [-106.570396, 39.396845], [-106.570096, 39.396745], [-106.569895, 39.396545], [-106.570096, 39.396345], [-106.569795, 39.396245], [-106.569495, 39.396145], [-106.569795, 39.396045], [-106.570096, 39.395944], [-106.569995, 39.395644], [-106.569695, 39.395744], [-106.569495, 39.395744], [-106.569495, 39.395344], [-106.569495, 39.394943], [-106.569795, 39.394843], [-106.569895, 39.394543], [-106.570096, 39.394342], [-106.570196, 39.394042], [-106.570296, 39.393742], [-106.569995, 39.393642], [-106.569595, 39.393642], [-106.569395, 39.393842], [-106.569295, 39.393542], [-106.568995, 39.393441], [-106.568594, 39.393441], [-106.568194, 39.393441], [-106.567894, 39.393341], [-106.568194, 39.393241], [-106.568494, 39.393141], [-106.568394, 39.392841], [-106.568094, 39.392741], [-106.567794, 39.39264], [-106.567693, 39.392941], [-106.567493, 39.393141], [-106.567293, 39.393141], [-106.567093, 39.393141], [-106.566893, 39.393141], [-106.566592, 39.393041], [-106.566292, 39.392941], [-106.566292, 39.39254], [-106.566392, 39.39224], [-106.566793, 39.39224], [-106.566893, 39.39194], [-106.566592, 39.391839], [-106.566492, 39.391539], [-106.566793, 39.391439], [-106.567093, 39.391339], [-106.566893, 39.391139], [-106.566592, 39.391039], [-106.566392, 39.391239], [-106.565992, 39.391239], [-106.565692, 39.391339], [-106.565492, 39.391339], [-106.565391, 39.391039], [-106.564991, 39.391039], [-106.564791, 39.390838], [-106.564491, 39.390938], [-106.56419, 39.391039], [-106.56389, 39.390938], [-106.56389, 39.390538], [-106.56369, 39.390338], [-106.56339, 39.390238], [-106.563089, 39.390338], [-106.563089, 39.390738], [-106.562789, 39.390838], [-106.562489, 39.390938], [-106.562289, 39.391139], [-106.562289, 39.391539], [-106.562089, 39.391539], [-106.561988, 39.391239], [-106.561688, 39.391139], [-106.561688, 39.390738], [-106.561588, 39.390438], [-106.561488, 39.390738], [-106.561188, 39.390838], [-106.560988, 39.391039], [-106.560787, 39.391239], [-106.560387, 39.391239], [-106.560187, 39.391439], [-106.559987, 39.391239], [-106.559586, 39.391239], [-106.559286, 39.391339], [-106.559086, 39.391339], [-106.558986, 39.391039], [-106.558686, 39.391139], [-106.558586, 39.391439], [-106.558185, 39.391439], [-106.557885, 39.391539], [-106.557685, 39.391539], [-106.557384, 39.391439], [-106.556984, 39.391439], [-106.556784, 39.391239], [-106.556684, 39.391539], [-106.556384, 39.391639], [-106.556284, 39.391339], [-106.556384, 39.391039], [-106.556384, 39.390838], [-106.556384, 39.390638], [-106.556784, 39.390638], [-106.556884, 39.390338], [-106.556884, 39.389937], [-106.556984, 39.389637], [-106.557184, 39.389837], [-106.557384, 39.389637], [-106.557685, 39.389537], [-106.557985, 39.389437], [-106.558285, 39.389537], [-106.558285, 39.389937], [-106.558185, 39.390238], [-106.557885, 39.390338], [-106.557585, 39.390438], [-106.557284, 39.390538], [-106.557384, 39.390838], [-106.557685, 39.390938], [-106.557885, 39.390938], [-106.557885, 39.390538], [-106.558185, 39.390438], [-106.558485, 39.390338], [-106.558485, 39.389937], [-106.558586, 39.389637], [-106.558586, 39.389437], [-106.558385, 39.389236], [-106.557985, 39.389236], [-106.557685, 39.389136], [-106.557885, 39.388936], [-106.558185, 39.388836], [-106.558586, 39.388836], [-106.558886, 39.388736], [-106.559186, 39.388636], [-106.559186, 39.388836], [-106.559186, 39.389036], [-106.559386, 39.388836], [-106.559386, 39.388636], [-106.559186, 39.388435], [-106.559086, 39.388135], [-106.559386, 39.388035], [-106.559686, 39.388135], [-106.559787, 39.388435], [-106.559887, 39.388736], [-106.559987, 39.389036], [-106.560387, 39.389036], [-106.560787, 39.389036], [-106.560988, 39.388836], [-106.561388, 39.388836], [-106.561788, 39.388836], [-106.562089, 39.388936], [-106.562089, 39.389336], [-106.562389, 39.389437], [-106.562489, 39.389136], [-106.562789, 39.389036], [-106.56319, 39.389036], [-106.56359, 39.389036], [-106.56399, 39.389036], [-106.56399, 39.388836], [-106.56399, 39.388636], [-106.564391, 39.388636], [-106.564591, 39.388435], [-106.564691, 39.388135], [-106.564591, 39.387835], [-106.56419, 39.387835], [-106.56409, 39.388135], [-106.56379, 39.388235], [-106.56369, 39.387935], [-106.56359, 39.387634], [-106.56319, 39.387634], [-106.563089, 39.387935], [-106.562789, 39.388035], [-106.562489, 39.387935], [-106.562689, 39.387735], [-106.562589, 39.387434], [-106.562289, 39.387334], [-106.562389, 39.387034], [-106.562489, 39.386733], [-106.562389, 39.386433], [-106.562289, 39.386733], [-106.562089, 39.386934], [-106.561788, 39.387034], [-106.561588, 39.387234], [-106.561288, 39.387334], [-106.561088, 39.387334], [-106.561088, 39.386934], [-106.560888, 39.386733], [-106.561088, 39.386533], [-106.560888, 39.386333], [-106.560687, 39.386133], [-106.560387, 39.386033], [-106.560387, 39.386233], [-106.560387, 39.386433], [-106.560187, 39.386633], [-106.559787, 39.386633], [-106.559386, 39.386633], [-106.559186, 39.386433], [-106.559086, 39.386733], [-106.558986, 39.387034], [-106.558786, 39.386833], [-106.558586, 39.387034], [-106.558485, 39.387334], [-106.558185, 39.387434], [-106.557785, 39.387434], [-106.557685, 39.387134], [-106.557885, 39.386934], [-106.557885, 39.386533], [-106.557985, 39.386233], [-106.558285, 39.386133], [-106.557985, 39.386033], [-106.557885, 39.385732], [-106.558085, 39.385732], [-106.558285, 39.385732], [-106.558485, 39.385732], [-106.558586, 39.386033], [-106.558786, 39.386233], [-106.559086, 39.386133], [-106.558886, 39.385932], [-106.559186, 39.385832], [-106.559586, 39.385832], [-106.559887, 39.385732], [-106.560187, 39.385632], [-106.560587, 39.385632], [-106.560988, 39.385632], [-106.561288, 39.385532], [-106.561488, 39.385332], [-106.561588, 39.385031], [-106.561788, 39.385232], [-106.562089, 39.385332], [-106.562389, 39.385432], [-106.562689, 39.385532], [-106.562889, 39.385732], [-106.56319, 39.385832], [-106.56339, 39.386033], [-106.56379, 39.386033], [-106.56399, 39.386233], [-106.56429, 39.386333], [-106.564591, 39.386433], [-106.564791, 39.386633], [-106.565191, 39.386633], [-106.565391, 39.386833], [-106.565792, 39.386833], [-106.566192, 39.386833], [-106.566592, 39.386833], [-106.566993, 39.386833], [-106.567193, 39.387034], [-106.567593, 39.387034], [-106.567794, 39.387234], [-106.568194, 39.387234], [-106.568594, 39.387234], [-106.568995, 39.387234], [-106.569295, 39.387334], [-106.569495, 39.387334], [-106.569695, 39.387334], [-106.569995, 39.387434], [-106.570396, 39.387434], [-106.570796, 39.387434], [-106.571196, 39.387434], [-106.571397, 39.387634], [-106.571497, 39.387935], [-106.571196, 39.388035], [-106.570896, 39.388135], [-106.570996, 39.388435], [-106.571397, 39.388435], [-106.571597, 39.388235], [-106.571697, 39.387935], [-106.571797, 39.387634], [-106.571997, 39.387835], [-106.572398, 39.387835], [-106.572798, 39.387835], [-106.572998, 39.388035], [-106.573398, 39.388035], [-106.573799, 39.388035], [-106.574199, 39.388035], [-106.574499, 39.388135], [-106.5748, 39.388235], [-106.5752, 39.388235], [-106.5754, 39.388035], [-106.5758, 39.388035], [-106.576201, 39.388035], [-106.576501, 39.388135], [-106.576701, 39.388335], [-106.576901, 39.388335], [-106.577202, 39.388235], [-106.577402, 39.388435], [-106.577602, 39.388235], [-106.578002, 39.388235], [-106.578303, 39.388335], [-106.578503, 39.388335], [-106.578803, 39.388235], [-106.579203, 39.388235], [-106.579404, 39.388435], [-106.579804, 39.388435], [-106.580204, 39.388435], [-106.580605, 39.388435], [-106.581005, 39.388435], [-106.581405, 39.388435], [-106.581806, 39.388435], [-106.582006, 39.388636], [-106.582306, 39.388536], [-106.582506, 39.388536], [-106.582807, 39.388636], [-106.582907, 39.388936], [-106.583207, 39.389036], [-106.583607, 39.389036], [-106.584008, 39.389036], [-106.584208, 39.389236], [-106.584608, 39.389236], [-106.585008, 39.389236], [-106.585209, 39.389036], [-106.585609, 39.389036], [-106.585909, 39.389136], [-106.586109, 39.389336], [-106.58641, 39.389437], [-106.58681, 39.389437], [-106.58721, 39.389437], [-106.587611, 39.389437], [-106.587611, 39.389236], [-106.587611, 39.389036], [-106.588011, 39.389036], [-106.588311, 39.388936], [-106.588612, 39.388836], [-106.588912, 39.388736], [-106.589212, 39.388636], [-106.589612, 39.388636], [-106.589612, 39.388435], [-106.589612, 39.388235], [-106.589813, 39.388035], [-106.590113, 39.388135], [-106.590413, 39.388235], [-106.590813, 39.388235], [-106.591014, 39.388435], [-106.591114, 39.388736], [-106.590914, 39.388936], [-106.590713, 39.389136], [-106.590413, 39.389236], [-106.590013, 39.389236], [-106.589612, 39.389236], [-106.589312, 39.389336], [-106.589112, 39.389537], [-106.589012, 39.389837], [-106.588912, 39.390137], [-106.588812, 39.390438], [-106.588612, 39.390638], [-106.588511, 39.390938], [-106.588311, 39.390938], [-106.588011, 39.390838], [-106.587611, 39.390838], [-106.58731, 39.390938], [-106.58731, 39.391339], [-106.58711, 39.391539], [-106.58681, 39.391639], [-106.58681, 39.391839], [-106.58711, 39.39194], [-106.58681, 39.39204], [-106.58651, 39.39214], [-106.586209, 39.39224], [-106.585909, 39.39234], [-106.585709, 39.39234], [-106.585509, 39.39214], [-106.585209, 39.39204], [-106.585109, 39.39234], [-106.584808, 39.39244], [-106.584408, 39.39244], [-106.584008, 39.39244], [-106.583607, 39.39244], [-106.583407, 39.39264], [-106.583307, 39.39234], [-106.583207, 39.39204], [-106.582807, 39.39204], [-106.582606, 39.391839], [-106.582206, 39.391839], [-106.581806, 39.391839], [-106.581405, 39.391839], [-106.581205, 39.391639], [-106.581105, 39.39194], [-106.581105, 39.39234], [-106.580805, 39.39244], [-106.580505, 39.39234], [-106.580304, 39.39214], [-106.580505, 39.39194], [-106.580805, 39.391839], [-106.580805, 39.391639], [-106.580505, 39.391539], [-106.580204, 39.391439], [-106.580004, 39.391639], [-106.579704, 39.391739], [-106.579804, 39.39204], [-106.580104, 39.39214], [-106.579904, 39.39234], [-106.579604, 39.39244], [-106.579303, 39.39234], [-106.579003, 39.39224], [-106.578803, 39.39204], [-106.578403, 39.39204], [-106.578203, 39.39224], [-106.577902, 39.39214], [-106.577702, 39.39214], [-106.577402, 39.39224], [-106.577302, 39.39254], [-106.577502, 39.392741], [-106.577702, 39.392941], [-106.577402, 39.393041], [-106.577202, 39.392841], [-106.577001, 39.393041], [-106.576601, 39.393041], [-106.576401, 39.392841], [-106.576101, 39.392941], [-106.575901, 39.392941], [-106.5756, 39.392841], [-106.5756, 39.39264], [-106.576001, 39.39264], [-106.576301, 39.39254], [-106.576301, 39.39214], [-106.576001, 39.39204], [-106.5757, 39.39214], [-106.576001, 39.39224], [-106.576001, 39.39244], [-106.5756, 39.39244], [-106.5754, 39.39264], [-106.5753, 39.39234], [-106.5752, 39.39204], [-106.575, 39.39224], [-106.574699, 39.39234], [-106.575, 39.39244], [-106.5752, 39.39264], [-106.5752, 39.392841], [-106.5749, 39.392941], [-106.575, 39.393241], [-106.575, 39.393441], [-106.574699, 39.393542], [-106.5749, 39.393742], [-106.5749, 39.394142], [-106.574699, 39.394142], [-106.574399, 39.394042], [-106.574199, 39.394242], [-106.574099, 39.394543], [-106.573899, 39.394743], [-106.573599, 39.394843], [-106.573298, 39.394743], [-106.572998, 39.394643], [-106.572698, 39.394743], [-106.572398, 39.394843], [-106.572297, 39.395143], [-106.571997, 39.395244], [-106.571697, 39.395344], [-106.571597, 39.395644], [-106.571397, 39.395444], [-106.570996, 39.395444], [-106.570896, 39.395744], [-106.571196, 39.395844], [-106.571497, 39.395944], [-106.571797, 39.396045], [-106.571997, 39.395844], [-106.572297, 39.395944], [-106.572197, 39.396245], [-106.571897, 39.396345], [-106.571697, 39.396345], [-106.571397, 39.396245], [-106.570996, 39.396245], [-106.570596, 39.396245], [-106.570596, 39.396445], [-106.570896, 39.396545], [-106.570796, 39.396845]]]}}, {"type": "Feature", "properties": {"rank": 6, "acres": 320, "span_mi": 2.07, "lat": 39.46027264943233, "lon": -106.86954699777151, "ft_lo": 9431, "ft_hi": 10864, "ft_mean": 10008, "canopy": 54, "road_m": 2268, "forage": "Dense conifer", "bed": 0.815, "feed": 0.455, "water": 0.822, "sec": 0.961, "score": 0.651, "on_hotspot_pct": 77, "on_red_pct": 8, "walk_h": 1.3, "round_h": 2.6, "trail_pct": 0, "confidence": "agrees with the old hotspot layer"}, "geometry": {"type": "Polygon", "coordinates": [[[-106.87506, 39.469733], [-106.87486, 39.469933], [-106.87456, 39.470033], [-106.874259, 39.470133], [-106.873859, 39.470133], [-106.873659, 39.470334], [-106.873359, 39.470234], [-106.873258, 39.469933], [-106.873058, 39.469733], [-106.872758, 39.469833], [-106.872458, 39.469933], [-106.872157, 39.469833], [-106.871857, 39.469733], [-106.871657, 39.469933], [-106.871457, 39.470133], [-106.871357, 39.470434], [-106.871057, 39.470534], [-106.870856, 39.470734], [-106.870656, 39.470934], [-106.870456, 39.471135], [-106.870356, 39.471435], [-106.870256, 39.471735], [-106.870156, 39.471435], [-106.869956, 39.471235], [-106.869855, 39.470934], [-106.869655, 39.471135], [-106.869255, 39.471135], [-106.869155, 39.470834], [-106.868855, 39.470734], [-106.868654, 39.470934], [-106.868554, 39.470634], [-106.868354, 39.470434], [-106.868254, 39.470133], [-106.867954, 39.470234], [-106.867854, 39.470534], [-106.867654, 39.470334], [-106.867453, 39.470534], [-106.867453, 39.470734], [-106.867553, 39.471034], [-106.867553, 39.471435], [-106.867353, 39.471435], [-106.867153, 39.471235], [-106.867353, 39.471034], [-106.867153, 39.471034], [-106.866953, 39.471034], [-106.866753, 39.470834], [-106.866753, 39.470434], [-106.866753, 39.470033], [-106.866453, 39.469933], [-106.866252, 39.469733], [-106.866252, 39.469533], [-106.866352, 39.469232], [-106.866352, 39.468832], [-106.866152, 39.468832], [-106.865952, 39.468832], [-106.865852, 39.468531], [-106.865552, 39.468431], [-106.865352, 39.468231], [-106.865151, 39.468031], [-106.865151, 39.46763], [-106.865151, 39.46723], [-106.865151, 39.466829], [-106.865251, 39.466529], [-106.865452, 39.466329], [-106.865552, 39.466028], [-106.865552, 39.465628], [-106.865752, 39.465428], [-106.865852, 39.465127], [-106.865952, 39.464827], [-106.866252, 39.464727], [-106.866453, 39.464527], [-106.866653, 39.464326], [-106.866753, 39.464026], [-106.866653, 39.463726], [-106.866553, 39.463425], [-106.866553, 39.463025], [-106.866753, 39.462825], [-106.866753, 39.462424], [-106.866753, 39.462024], [-106.866753, 39.461623], [-106.866953, 39.461423], [-106.866953, 39.461022], [-106.866853, 39.460722], [-106.866753, 39.460422], [-106.866753, 39.460021], [-106.866453, 39.459921], [-106.866152, 39.459821], [-106.865952, 39.459621], [-106.865752, 39.459421], [-106.865752, 39.45902], [-106.865552, 39.45882], [-106.865452, 39.458519], [-106.865251, 39.45872], [-106.865051, 39.45892], [-106.864751, 39.45902], [-106.864551, 39.45922], [-106.864251, 39.45932], [-106.86405, 39.459521], [-106.86375, 39.459421], [-106.86385, 39.45912], [-106.86395, 39.45882], [-106.864151, 39.45862], [-106.864351, 39.458419], [-106.864451, 39.458119], [-106.864751, 39.458019], [-106.864951, 39.457819], [-106.865151, 39.457618], [-106.865251, 39.457318], [-106.865352, 39.457618], [-106.865452, 39.457919], [-106.865552, 39.457618], [-106.865652, 39.457318], [-106.865952, 39.457218], [-106.866152, 39.457018], [-106.866152, 39.456617], [-106.866152, 39.456217], [-106.866352, 39.456016], [-106.866252, 39.455716], [-106.866152, 39.455416], [-106.866152, 39.455015], [-106.865952, 39.455015], [-106.865652, 39.455115], [-106.865352, 39.455215], [-106.865151, 39.455215], [-106.864951, 39.455215], [-106.864751, 39.455416], [-106.864451, 39.455516], [-106.86405, 39.455516], [-106.86405, 39.455316], [-106.864351, 39.455215], [-106.864351, 39.454815], [-106.86405, 39.454715], [-106.86375, 39.454815], [-106.86345, 39.454915], [-106.86325, 39.455115], [-106.86305, 39.455316], [-106.862849, 39.455115], [-106.862549, 39.455015], [-106.862349, 39.454815], [-106.862349, 39.454415], [-106.862149, 39.454214], [-106.862349, 39.454014], [-106.862549, 39.453814], [-106.862849, 39.453714], [-106.86315, 39.453614], [-106.86315, 39.453213], [-106.86335, 39.453013], [-106.86335, 39.452612], [-106.86335, 39.452212], [-106.86365, 39.452112], [-106.86375, 39.451811], [-106.86375, 39.451411], [-106.86355, 39.451211], [-106.86335, 39.45101], [-106.86315, 39.45081], [-106.86315, 39.45041], [-106.86345, 39.45031], [-106.86375, 39.450209], [-106.86385, 39.449909], [-106.864251, 39.449909], [-106.864451, 39.449709], [-106.864551, 39.449409], [-106.864651, 39.449108], [-106.864751, 39.448808], [-106.864551, 39.448608], [-106.864851, 39.448507], [-106.865151, 39.448407], [-106.865251, 39.448107], [-106.865452, 39.447907], [-106.865552, 39.447606], [-106.865852, 39.447506], [-106.866152, 39.447406], [-106.866152, 39.447006], [-106.866352, 39.446805], [-106.866653, 39.446705], [-106.866953, 39.446605], [-106.867053, 39.446305], [-106.867353, 39.446405], [-106.867654, 39.446505], [-106.867854, 39.446305], [-106.868254, 39.446305], [-106.868654, 39.446305], [-106.868755, 39.446004], [-106.868654, 39.445704], [-106.868554, 39.445404], [-106.868354, 39.445203], [-106.868254, 39.444903], [-106.867854, 39.444903], [-106.867654, 39.444703], [-106.867553, 39.444403], [-106.867854, 39.444302], [-106.867854, 39.444102], [-106.867854, 39.443902], [-106.868254, 39.443902], [-106.868254, 39.443702], [-106.867954, 39.443602], [-106.868254, 39.443501], [-106.868454, 39.443301], [-106.868654, 39.443101], [-106.868755, 39.442801], [-106.868855, 39.4425], [-106.869155, 39.4424], [-106.869255, 39.4421], [-106.869355, 39.441799], [-106.869355, 39.441399], [-106.869555, 39.441399], [-106.869855, 39.441499], [-106.869956, 39.441799], [-106.870256, 39.4419], [-106.870556, 39.442], [-106.870556, 39.4424], [-106.870556, 39.442801], [-106.870256, 39.442901], [-106.870156, 39.443201], [-106.870256, 39.443501], [-106.870656, 39.443501], [-106.870856, 39.443702], [-106.871157, 39.443802], [-106.871457, 39.443902], [-106.871757, 39.444002], [-106.871857, 39.444302], [-106.872157, 39.444202], [-106.872358, 39.444002], [-106.872658, 39.443902], [-106.872958, 39.444002], [-106.873158, 39.444202], [-106.873258, 39.444503], [-106.873559, 39.444403], [-106.873559, 39.444002], [-106.873859, 39.443902], [-106.874159, 39.444002], [-106.874459, 39.444102], [-106.87466, 39.444302], [-106.87476, 39.444603], [-106.87506, 39.444703], [-106.87506, 39.469733]]]}}, {"type": "Feature", "properties": {"rank": 7, "acres": 320, "span_mi": 1.23, "lat": 39.414946288942886, "lon": -106.5976358308459, "ft_lo": 10093, "ft_hi": 11499, "ft_mean": 10840, "canopy": 50, "road_m": 2996, "forage": "Dense conifer", "bed": 0.79, "feed": 0.448, "water": 0.804, "sec": 0.993, "score": 0.649, "on_hotspot_pct": 76, "on_red_pct": 0, "walk_h": 1.5, "round_h": 3.0, "trail_pct": 0, "confidence": "agrees with the old hotspot layer"}, "geometry": {"type": "Polygon", "coordinates": [[[-106.592815, 39.421075], [-106.592415, 39.421075], [-106.592115, 39.420974], [-106.591914, 39.420774], [-106.591614, 39.420674], [-106.591314, 39.420574], [-106.591414, 39.420274], [-106.591814, 39.420274], [-106.591914, 39.419973], [-106.591714, 39.419773], [-106.592015, 39.419673], [-106.592415, 39.419673], [-106.592815, 39.419673], [-106.592915, 39.419373], [-106.592815, 39.419072], [-106.592615, 39.419272], [-106.592515, 39.418972], [-106.592715, 39.418772], [-106.592515, 39.418572], [-106.592515, 39.418171], [-106.592415, 39.417871], [-106.592115, 39.417771], [-106.592015, 39.41747], [-106.591614, 39.41747], [-106.591314, 39.41737], [-106.591014, 39.41727], [-106.590813, 39.41707], [-106.590413, 39.41707], [-106.590113, 39.41697], [-106.590313, 39.416769], [-106.590113, 39.416769], [-106.589913, 39.416769], [-106.589913, 39.416369], [-106.589612, 39.416269], [-106.589512, 39.415968], [-106.589512, 39.415568], [-106.589312, 39.415368], [-106.589312, 39.414967], [-106.589212, 39.414667], [-106.589012, 39.414467], [-106.588912, 39.414166], [-106.589212, 39.414066], [-106.589212, 39.413866], [-106.588812, 39.413866], [-106.588411, 39.413866], [-106.588311, 39.413566], [-106.588311, 39.413165], [-106.588511, 39.412965], [-106.588311, 39.412765], [-106.588111, 39.412564], [-106.588111, 39.412164], [-106.588311, 39.411964], [-106.588612, 39.411863], [-106.588712, 39.411563], [-106.588712, 39.411163], [-106.588812, 39.410862], [-106.588912, 39.410562], [-106.588912, 39.410161], [-106.589212, 39.410061], [-106.589612, 39.410061], [-106.589913, 39.409961], [-106.590213, 39.409861], [-106.590413, 39.410061], [-106.590613, 39.409861], [-106.591014, 39.409861], [-106.591414, 39.409861], [-106.591614, 39.409661], [-106.592015, 39.409661], [-106.592215, 39.409461], [-106.592615, 39.409461], [-106.593015, 39.409461], [-106.593416, 39.409461], [-106.593716, 39.409561], [-106.593816, 39.409861], [-106.594216, 39.409861], [-106.594617, 39.409861], [-106.594917, 39.409961], [-106.595117, 39.410161], [-106.595417, 39.410262], [-106.595818, 39.410262], [-106.596018, 39.410462], [-106.596218, 39.410262], [-106.596619, 39.410262], [-106.596819, 39.410061], [-106.597019, 39.410262], [-106.597419, 39.410262], [-106.597619, 39.410462], [-106.59802, 39.410462], [-106.59822, 39.410662], [-106.59842, 39.410862], [-106.59872, 39.410962], [-106.59882, 39.411263], [-106.599021, 39.411463], [-106.599321, 39.411563], [-106.599621, 39.411663], [-106.599621, 39.411863], [-106.599621, 39.412064], [-106.600021, 39.412064], [-106.600222, 39.411863], [-106.600622, 39.411863], [-106.600822, 39.412064], [-106.601022, 39.412264], [-106.601423, 39.412264], [-106.601623, 39.412464], [-106.601923, 39.412564], [-106.602123, 39.412765], [-106.602424, 39.412865], [-106.602624, 39.413065], [-106.603024, 39.413065], [-106.603424, 39.413065], [-106.603524, 39.413365], [-106.603625, 39.413666], [-106.604025, 39.413666], [-106.604225, 39.413866], [-106.604625, 39.413866], [-106.605026, 39.413866], [-106.605426, 39.413866], [-106.605826, 39.413866], [-106.606127, 39.413766], [-106.606327, 39.413766], [-106.606627, 39.413866], [-106.606927, 39.413766], [-106.607228, 39.413666], [-106.607428, 39.413866], [-106.607628, 39.413666], [-106.608028, 39.413666], [-106.608128, 39.413365], [-106.608329, 39.413165], [-106.608629, 39.413065], [-106.608829, 39.412865], [-106.609029, 39.413065], [-106.609229, 39.413265], [-106.60963, 39.413265], [-106.60983, 39.413465], [-106.61013, 39.413566], [-106.61013, 39.413966], [-106.61023, 39.414266], [-106.61043, 39.414467], [-106.610831, 39.414467], [-106.611231, 39.414467], [-106.611231, 39.414667], [-106.610831, 39.414667], [-106.61043, 39.414667], [-106.61013, 39.414767], [-106.60993, 39.414967], [-106.60993, 39.415368], [-106.60993, 39.415768], [-106.60963, 39.415868], [-106.60943, 39.415668], [-106.609229, 39.415868], [-106.608929, 39.415968], [-106.608729, 39.416169], [-106.608829, 39.416469], [-106.608829, 39.416669], [-106.608429, 39.416669], [-106.608028, 39.416669], [-106.607828, 39.41687], [-106.607428, 39.41687], [-106.607228, 39.41707], [-106.606927, 39.41717], [-106.606627, 39.41727], [-106.606427, 39.41707], [-106.606227, 39.41727], [-106.606027, 39.41707], [-106.605826, 39.41727], [-106.605626, 39.41707], [-106.605226, 39.41707], [-106.604826, 39.41707], [-106.604726, 39.41737], [-106.604525, 39.41737], [-106.604225, 39.41727], [-106.604225, 39.41747], [-106.604325, 39.417771], [-106.604025, 39.417871], [-106.603825, 39.418071], [-106.603524, 39.418171], [-106.603224, 39.418271], [-106.603024, 39.418071], [-106.602924, 39.418371], [-106.602824, 39.418672], [-106.602424, 39.418672], [-106.602123, 39.418772], [-106.601923, 39.418772], [-106.601623, 39.418672], [-106.601623, 39.418872], [-106.601623, 39.419072], [-106.601323, 39.418972], [-106.601122, 39.418972], [-106.601122, 39.419373], [-106.600822, 39.419473], [-106.600422, 39.419473], [-106.600021, 39.419473], [-106.599821, 39.419272], [-106.599621, 39.419473], [-106.599221, 39.419473], [-106.59882, 39.419473], [-106.59842, 39.419473], [-106.59802, 39.419473], [-106.59782, 39.419673], [-106.597419, 39.419673], [-106.597219, 39.419473], [-106.596919, 39.419573], [-106.596819, 39.419873], [-106.596418, 39.419873], [-106.596218, 39.420073], [-106.595818, 39.420073], [-106.595417, 39.420073], [-106.595217, 39.420274], [-106.595017, 39.420474], [-106.594617, 39.420474], [-106.594317, 39.420574], [-106.594016, 39.420674], [-106.593616, 39.420674], [-106.593216, 39.420674], [-106.592915, 39.420774], [-106.592815, 39.421075]]]}}, {"type": "Feature", "properties": {"rank": 8, "acres": 320, "span_mi": 1.76, "lat": 39.38060756518643, "lon": -106.50465924367538, "ft_lo": 10930, "ft_hi": 11730, "ft_mean": 11266, "canopy": 39, "road_m": 1906, "forage": "Dense conifer", "bed": 0.669, "feed": 0.567, "water": 0.852, "sec": 0.734, "score": 0.538, "on_hotspot_pct": 46, "on_red_pct": 1, "walk_h": 2.2, "round_h": 4.4, "trail_pct": 62, "confidence": "untested \u2014 the old layer does not rate this"}, "geometry": {"type": "Polygon", "coordinates": [[[-106.500335, 39.368812], [-106.500735, 39.368812], [-106.500936, 39.368612], [-106.501236, 39.368511], [-106.501536, 39.368411], [-106.501636, 39.368111], [-106.501836, 39.367911], [-106.502137, 39.367811], [-106.502337, 39.36761], [-106.502637, 39.36751], [-106.502937, 39.36741], [-106.503338, 39.36741], [-106.503738, 39.36741], [-106.504138, 39.36741], [-106.504238, 39.367711], [-106.504539, 39.367811], [-106.504739, 39.368011], [-106.505039, 39.368111], [-106.505139, 39.368411], [-106.505139, 39.368612], [-106.504839, 39.368712], [-106.504839, 39.369112], [-106.504539, 39.369212], [-106.504238, 39.369312], [-106.504338, 39.369613], [-106.504739, 39.369613], [-106.504839, 39.369913], [-106.505039, 39.370113], [-106.504739, 39.370214], [-106.504739, 39.370414], [-106.505039, 39.370514], [-106.504839, 39.370714], [-106.504639, 39.370914], [-106.504338, 39.371014], [-106.504038, 39.370914], [-106.504138, 39.370614], [-106.504138, 39.370414], [-106.503738, 39.370414], [-106.503438, 39.370314], [-106.503238, 39.370314], [-106.503137, 39.370614], [-106.502737, 39.370614], [-106.502337, 39.370614], [-106.502137, 39.370814], [-106.501836, 39.370914], [-106.501836, 39.371315], [-106.502137, 39.371415], [-106.502437, 39.371515], [-106.502237, 39.371715], [-106.501936, 39.371815], [-106.501836, 39.372116], [-106.502137, 39.372216], [-106.502437, 39.372116], [-106.502537, 39.371815], [-106.502937, 39.371815], [-106.503338, 39.371815], [-106.503338, 39.372016], [-106.503238, 39.372316], [-106.503438, 39.372316], [-106.503738, 39.372216], [-106.504038, 39.372316], [-106.503938, 39.372616], [-106.503538, 39.372616], [-106.503238, 39.372717], [-106.502937, 39.372817], [-106.502937, 39.373017], [-106.503238, 39.373117], [-106.503438, 39.373317], [-106.503137, 39.373417], [-106.502837, 39.373517], [-106.503137, 39.373618], [-106.503438, 39.373517], [-106.503738, 39.373417], [-106.503938, 39.373217], [-106.504338, 39.373217], [-106.504639, 39.373117], [-106.504839, 39.372917], [-106.505039, 39.372717], [-106.505239, 39.372516], [-106.505339, 39.372216], [-106.50574, 39.372216], [-106.50574, 39.372416], [-106.50574, 39.372616], [-106.50594, 39.372416], [-106.50614, 39.372616], [-106.50644, 39.372516], [-106.50654, 39.372216], [-106.50664, 39.371916], [-106.506941, 39.371815], [-106.507241, 39.371715], [-106.507341, 39.371415], [-106.507641, 39.371315], [-106.507942, 39.371215], [-106.508042, 39.370914], [-106.507842, 39.370714], [-106.508042, 39.370514], [-106.508242, 39.370314], [-106.508042, 39.370113], [-106.508342, 39.370013], [-106.508642, 39.369913], [-106.508742, 39.369613], [-106.508842, 39.369913], [-106.509043, 39.370113], [-106.509143, 39.370414], [-106.509443, 39.370514], [-106.509643, 39.370514], [-106.509943, 39.370414], [-106.510244, 39.370514], [-106.510144, 39.370814], [-106.510144, 39.371014], [-106.510444, 39.370914], [-106.510544, 39.370614], [-106.510744, 39.370414], [-106.511044, 39.370514], [-106.511345, 39.370614], [-106.511645, 39.370714], [-106.511645, 39.371115], [-106.511345, 39.371215], [-106.511244, 39.371515], [-106.510944, 39.371615], [-106.510644, 39.371715], [-106.510944, 39.371815], [-106.511044, 39.372116], [-106.511345, 39.372216], [-106.511745, 39.372216], [-106.512045, 39.372116], [-106.512345, 39.372016], [-106.512646, 39.372116], [-106.512446, 39.372316], [-106.512145, 39.372416], [-106.511945, 39.372616], [-106.511845, 39.372917], [-106.511645, 39.373117], [-106.511345, 39.373217], [-106.510944, 39.373217], [-106.510544, 39.373217], [-106.510144, 39.373217], [-106.510043, 39.372917], [-106.510244, 39.372717], [-106.510544, 39.372616], [-106.510644, 39.372316], [-106.510844, 39.372116], [-106.510544, 39.372016], [-106.510144, 39.372016], [-106.509743, 39.372016], [-106.509443, 39.372116], [-106.509243, 39.372116], [-106.509043, 39.372116], [-106.509143, 39.372416], [-106.509543, 39.372416], [-106.509743, 39.372216], [-106.510043, 39.372316], [-106.510244, 39.372516], [-106.509943, 39.372616], [-106.509543, 39.372616], [-106.509143, 39.372616], [-106.509143, 39.372817], [-106.509443, 39.372917], [-106.509343, 39.373217], [-106.509043, 39.373317], [-106.509343, 39.373417], [-106.509443, 39.373718], [-106.509243, 39.373918], [-106.509243, 39.374318], [-106.508942, 39.374419], [-106.508842, 39.374118], [-106.509043, 39.373918], [-106.508842, 39.373718], [-106.508642, 39.373517], [-106.508342, 39.373417], [-106.508242, 39.373117], [-106.507942, 39.373017], [-106.507942, 39.373217], [-106.507942, 39.373417], [-106.507741, 39.373618], [-106.507541, 39.373818], [-106.507141, 39.373818], [-106.506741, 39.373818], [-106.50654, 39.374018], [-106.50634, 39.373818], [-106.50634, 39.374018], [-106.50644, 39.374318], [-106.50624, 39.374519], [-106.50644, 39.374519], [-106.506741, 39.374419], [-106.507041, 39.374318], [-106.507241, 39.374118], [-106.507541, 39.374018], [-106.507942, 39.374018], [-106.508142, 39.373818], [-106.508342, 39.373618], [-106.508642, 39.373718], [-106.508842, 39.373918], [-106.508642, 39.374118], [-106.508342, 39.374218], [-106.507942, 39.374218], [-106.507842, 39.374519], [-106.507541, 39.374619], [-106.507541, 39.374819], [-106.507842, 39.374919], [-106.507641, 39.375119], [-106.507541, 39.37542], [-106.507141, 39.37542], [-106.506941, 39.37562], [-106.50664, 39.37572], [-106.50634, 39.37582], [-106.50604, 39.37592], [-106.50574, 39.376021], [-106.50554, 39.376221], [-106.505339, 39.376421], [-106.505039, 39.376521], [-106.504839, 39.376521], [-106.504739, 39.376221], [-106.504739, 39.376021], [-106.504939, 39.37582], [-106.505139, 39.376021], [-106.505139, 39.37582], [-106.504939, 39.37562], [-106.504739, 39.37582], [-106.504338, 39.37582], [-106.504138, 39.376021], [-106.503838, 39.376121], [-106.503538, 39.376221], [-106.503338, 39.376421], [-106.503137, 39.376621], [-106.502737, 39.376621], [-106.502737, 39.376821], [-106.503137, 39.376821], [-106.503338, 39.376621], [-106.503738, 39.376621], [-106.504138, 39.376621], [-106.504338, 39.376821], [-106.504338, 39.377022], [-106.504238, 39.377322], [-106.504038, 39.377522], [-106.504038, 39.377923], [-106.503938, 39.378223], [-106.503738, 39.378023], [-106.503338, 39.378023], [-106.503338, 39.378223], [-106.503638, 39.378323], [-106.503338, 39.378423], [-106.502937, 39.378423], [-106.502937, 39.378624], [-106.503238, 39.378724], [-106.503438, 39.378924], [-106.503238, 39.379124], [-106.503438, 39.379324], [-106.503438, 39.379725], [-106.503338, 39.380025], [-106.503238, 39.380326], [-106.503538, 39.380426], [-106.503838, 39.380526], [-106.504038, 39.380726], [-106.504238, 39.380926], [-106.504338, 39.381227], [-106.504639, 39.381327], [-106.504439, 39.381527], [-106.504338, 39.381827], [-106.504138, 39.382028], [-106.503938, 39.382228], [-106.503738, 39.382428], [-106.503438, 39.382528], [-106.503238, 39.382729], [-106.502937, 39.382829], [-106.502637, 39.382729], [-106.502337, 39.382628], [-106.502337, 39.382829], [-106.502337, 39.383029], [-106.502036, 39.383129], [-106.501736, 39.383229], [-106.501636, 39.38353], [-106.501936, 39.38363], [-106.502237, 39.38373], [-106.502437, 39.38393], [-106.502337, 39.38423], [-106.501936, 39.38423], [-106.501536, 39.38423], [-106.501236, 39.38433], [-106.501536, 39.384431], [-106.501936, 39.384431], [-106.502237, 39.384531], [-106.502337, 39.384831], [-106.502437, 39.384531], [-106.502737, 39.384431], [-106.503137, 39.384431], [-106.503238, 39.384731], [-106.503338, 39.385031], [-106.503638, 39.384931], [-106.503438, 39.384731], [-106.503538, 39.384431], [-106.503838, 39.38433], [-106.504038, 39.38433], [-106.504038, 39.384731], [-106.504338, 39.384831], [-106.504639, 39.384731], [-106.504739, 39.384431], [-106.505139, 39.384431], [-106.505339, 39.38423], [-106.50564, 39.38433], [-106.50594, 39.384431], [-106.50614, 39.384631], [-106.50614, 39.384831], [-106.50574, 39.384831], [-106.505339, 39.384831], [-106.505139, 39.385031], [-106.504939, 39.385232], [-106.504839, 39.385532], [-106.505039, 39.385532], [-106.505339, 39.385432], [-106.50554, 39.385632], [-106.50574, 39.385432], [-106.50584, 39.385131], [-106.50614, 39.385031], [-106.50624, 39.385332], [-106.50634, 39.385632], [-106.50644, 39.385932], [-106.506741, 39.386033], [-106.507141, 39.386033], [-106.507541, 39.386033], [-106.507942, 39.386033], [-106.508142, 39.386233], [-106.508542, 39.386233], [-106.508942, 39.386233], [-106.509343, 39.386233], [-106.509743, 39.386233], [-106.510144, 39.386233], [-106.510544, 39.386233], [-106.510944, 39.386233], [-106.511345, 39.386233], [-106.511645, 39.386333], [-106.511845, 39.386333], [-106.511945, 39.386033], [-106.512145, 39.385832], [-106.512546, 39.385832], [-106.512746, 39.386033], [-106.512946, 39.385832], [-106.513346, 39.385832], [-106.513747, 39.385832], [-106.514047, 39.385932], [-106.514047, 39.386333], [-106.513947, 39.386633], [-106.513647, 39.386533], [-106.513647, 39.386133], [-106.513446, 39.386133], [-106.513446, 39.386533], [-106.513647, 39.386733], [-106.513947, 39.386833], [-106.514247, 39.386733], [-106.514347, 39.386433], [-106.514447, 39.386733], [-106.514347, 39.387034], [-106.514147, 39.387234], [-106.513947, 39.387434], [-106.513546, 39.387434], [-106.513446, 39.387134], [-106.513146, 39.387034], [-106.513046, 39.387334], [-106.512746, 39.387434], [-106.512446, 39.387534], [-106.512145, 39.387634], [-106.511945, 39.387835], [-106.511845, 39.388135], [-106.512145, 39.388235], [-106.512446, 39.388335], [-106.512446, 39.388736], [-106.512145, 39.388836], [-106.511745, 39.388836], [-106.511645, 39.388536], [-106.511545, 39.388235], [-106.511244, 39.388335], [-106.511144, 39.388636], [-106.510844, 39.388536], [-106.510644, 39.388335], [-106.510444, 39.388335], [-106.510644, 39.388536], [-106.510844, 39.388736], [-106.510544, 39.388836], [-106.510444, 39.389136], [-106.510644, 39.389136], [-106.510944, 39.389036], [-106.511044, 39.389336], [-106.511244, 39.389336], [-106.511345, 39.389036], [-106.511745, 39.389036], [-106.511745, 39.389236], [-106.511745, 39.389437], [-106.512045, 39.389537], [-106.511745, 39.389637], [-106.511345, 39.389637], [-106.511144, 39.389837], [-106.511044, 39.390137], [-106.510744, 39.390238], [-106.510644, 39.389937], [-106.510344, 39.389837], [-106.510144, 39.390037], [-106.510043, 39.389737], [-106.510344, 39.389637], [-106.510644, 39.389537], [-106.510344, 39.389437], [-106.510043, 39.389336], [-106.509943, 39.389036], [-106.509543, 39.389036], [-106.509343, 39.389236], [-106.508942, 39.389236], [-106.508942, 39.389036], [-106.509243, 39.388936], [-106.508942, 39.388836], [-106.508742, 39.389036], [-106.508342, 39.389036], [-106.508142, 39.388836], [-106.507741, 39.388836], [-106.507641, 39.389136], [-106.507341, 39.389236], [-106.506941, 39.389236], [-106.50654, 39.389236], [-106.50634, 39.389437], [-106.50614, 39.389236], [-106.50584, 39.389136], [-106.50614, 39.389036], [-106.50644, 39.388936], [-106.50614, 39.388836], [-106.50584, 39.388936], [-106.50564, 39.389136], [-106.505339, 39.389236], [-106.505139, 39.389036], [-106.504839, 39.388936], [-106.504739, 39.388636], [-106.504338, 39.388636], [-106.504138, 39.388836], [-106.503838, 39.388936], [-106.503538, 39.389036], [-106.503137, 39.389036], [-106.502837, 39.389136], [-106.502537, 39.389236], [-106.502437, 39.389537], [-106.502637, 39.389537], [-106.502937, 39.389437], [-106.503238, 39.389336], [-106.503438, 39.389336], [-106.503738, 39.389437], [-106.504138, 39.389437], [-106.504539, 39.389437], [-106.504739, 39.389637], [-106.505039, 39.389537], [-106.505139, 39.389236], [-106.505239, 39.389537], [-106.505139, 39.389837], [-106.504939, 39.390037], [-106.504739, 39.389837], [-106.504338, 39.389837], [-106.504238, 39.390137], [-106.504539, 39.390238], [-106.504839, 39.390338], [-106.505039, 39.390338], [-106.505139, 39.390037], [-106.50554, 39.390037], [-106.50584, 39.390137], [-106.50604, 39.390137], [-106.50614, 39.389837], [-106.50644, 39.389737], [-106.50654, 39.389437], [-106.506941, 39.389437], [-106.507341, 39.389437], [-106.507641, 39.389336], [-106.507842, 39.389336], [-106.508142, 39.389437], [-106.508342, 39.389236], [-106.508742, 39.389236], [-106.508842, 39.389537], [-106.509143, 39.389637], [-106.509343, 39.389437], [-106.509643, 39.389537], [-106.509443, 39.389737], [-106.509143, 39.389837], [-106.508842, 39.389937], [-106.508642, 39.390137], [-106.508542, 39.390438], [-106.508142, 39.390438], [-106.508042, 39.390137], [-106.507842, 39.389937], [-106.507741, 39.389637], [-106.507641, 39.389937], [-106.507641, 39.390338], [-106.507942, 39.390438], [-106.508142, 39.390638], [-106.508242, 39.390938], [-106.508042, 39.391139], [-106.507741, 39.391239], [-106.507641, 39.391539], [-106.507842, 39.391739], [-106.507641, 39.39194], [-106.507842, 39.39214], [-106.507541, 39.39224], [-106.507241, 39.39214], [-106.506941, 39.39204], [-106.50664, 39.39214], [-106.50654, 39.39244], [-106.50634, 39.39264], [-106.50604, 39.392741], [-106.50584, 39.392941], [-106.50554, 39.393041], [-106.505239, 39.393141], [-106.505039, 39.393141], [-106.505139, 39.392841], [-106.505139, 39.39264], [-106.504939, 39.392841], [-106.504739, 39.393041], [-106.504539, 39.392841], [-106.504238, 39.392741], [-106.504238, 39.39234], [-106.504539, 39.39224], [-106.504739, 39.39204], [-106.505039, 39.39214], [-106.504839, 39.39234], [-106.505039, 39.39234], [-106.505239, 39.39234], [-106.50554, 39.39244], [-106.50574, 39.39224], [-106.50594, 39.39204], [-106.50624, 39.39194], [-106.50594, 39.391839], [-106.50564, 39.391739], [-106.50594, 39.391639], [-106.50624, 39.391539], [-106.50634, 39.391239], [-106.506741, 39.391239], [-106.507041, 39.391139], [-106.506741, 39.391039], [-106.50634, 39.391039], [-106.50624, 39.390738], [-106.50614, 39.390438], [-106.50584, 39.390538], [-106.50574, 39.390838], [-106.50564, 39.391139], [-106.505339, 39.391239], [-106.505139, 39.391039], [-106.504839, 39.391139], [-106.504739, 39.391439], [-106.504639, 39.391739], [-106.504338, 39.391839], [-106.504138, 39.391639], [-106.503738, 39.391639], [-106.503438, 39.391739], [-106.503238, 39.391739], [-106.503338, 39.391439], [-106.503738, 39.391439], [-106.504138, 39.391439], [-106.504238, 39.391139], [-106.504439, 39.390938], [-106.504138, 39.390838], [-106.503938, 39.390638], [-106.503838, 39.390938], [-106.503538, 39.391039], [-106.503438, 39.390738], [-106.503538, 39.390438], [-106.503938, 39.390438], [-106.503938, 39.390238], [-106.503538, 39.390238], [-106.503137, 39.390238], [-106.502837, 39.390137], [-106.502637, 39.390137], [-106.502637, 39.390538], [-106.502537, 39.390838], [-106.502137, 39.390838], [-106.501936, 39.391039], [-106.501736, 39.390838], [-106.501436, 39.390938], [-106.501236, 39.390938], [-106.500936, 39.390838], [-106.500735, 39.391039], [-106.500435, 39.390938], [-106.500435, 39.390538], [-106.500435, 39.390137], [-106.500735, 39.390037], [-106.500835, 39.389737], [-106.500635, 39.389537], [-106.500435, 39.389537], [-106.500635, 39.389737], [-106.500435, 39.389937], [-106.500335, 39.368812]]]}}]}