{"type":"FeatureCollection","features":[{"type":"Feature","properties":{"name":"Lake Charles TH","trail":"LAKE CHARLES","m":66},"geometry":{"type":"LineString","coordinates":[[-106.658304,39.492303],[-106.65757,39.49213]]}},{"type":"Feature","properties":{"name":"Mount Thomas TH","trail":"MOUNT THOMAS","m":283},"geometry":{"type":"LineString","coordinates":[[-106.685757,39.438519],[-106.68398,39.43636]]}},{"type":"Feature","properties":{"name":"Tellurium Lake TH","trail":"TELLURIUM LAKE","m":116},"geometry":{"type":"LineString","coordinates":[[-106.64901,39.379736],[-106.65032,39.37948]]}}]}